{
"type": "FeatureCollection",
"name": "MDG-555697879-NODATE-secondary_zoning-001",
"crs": { "type": "name", "properties": { "name": "urn:ogc:def:crs:OGC:1.3:CRS84" } },
"features": [
{ "type": "Feature", "properties": { }, "geometry": { "type": "MultiPolygon", "coordinates": [ [ [ [ 44.491514, -17.936316 ], [ 44.489258, -17.923958 ], [ 44.478205, -17.920406 ], [ 44.474818, -17.937011 ], [ 44.47063, -17.945914 ], [ 44.476483, -17.950068 ], [ 44.497034, -17.964123 ], [ 44.494469, -17.976256 ], [ 44.495172, -17.986848 ], [ 44.494671, -17.996818 ], [ 44.50202, -18.005817 ], [ 44.498993, -18.009485 ], [ 44.500484, -18.024792 ], [ 44.503006, -18.036074 ], [ 44.502941, -18.045006 ], [ 44.514922, -18.060903 ], [ 44.519235, -18.059449 ], [ 44.530589, -18.060267 ], [ 44.540584, -18.054423 ], [ 44.541002, -18.051743 ], [ 44.53245, -18.043814 ], [ 44.525316, -18.043338 ], [ 44.526232, -18.037811 ], [ 44.522998, -18.027165 ], [ 44.518432, -18.021031 ], [ 44.519519, -18.008526 ], [ 44.523345, -18.000809 ], [ 44.521799, -17.987004 ], [ 44.511981, -17.9762 ], [ 44.512708, -17.967969 ], [ 44.523169, -17.957787 ], [ 44.497543, -17.943336 ], [ 44.491514, -17.936316 ] ] ], [ [ [ 44.466492, -17.805331 ], [ 44.464443, -17.802122 ], [ 44.461457, -17.802294 ], [ 44.456656, -17.803479 ], [ 44.45999, -17.817106 ], [ 44.459756, -17.818751 ], [ 44.4594, -17.826105 ], [ 44.465321, -17.829117 ], [ 44.465225, -17.836384 ], [ 44.460814, -17.84278 ], [ 44.459647, -17.853682 ], [ 44.466654, -17.859411 ], [ 44.482291, -17.86042 ], [ 44.48376, -17.873421 ], [ 44.482594, -17.880768 ], [ 44.469551, -17.899779 ], [ 44.47518, -17.909391 ], [ 44.478205, -17.920406 ], [ 44.482752, -17.91911 ], [ 44.489187, -17.9171 ], [ 44.50071, -17.917006 ], [ 44.505005, -17.908048 ], [ 44.511413, -17.900781 ], [ 44.513121, -17.893321 ], [ 44.511417, -17.89118 ], [ 44.514262, -17.889455 ], [ 44.516446, -17.884431 ], [ 44.515556, -17.879625 ], [ 44.515043, -17.874317 ], [ 44.511398, -17.865138 ], [ 44.50991, -17.85213 ], [ 44.506846, -17.847537 ], [ 44.501661, -17.844964 ], [ 44.501754, -17.840181 ], [ 44.492544, -17.83504 ], [ 44.492927, -17.828162 ], [ 44.48175, -17.815573 ], [ 44.474379, -17.811437 ], [ 44.466492, -17.805331 ] ] ], [ [ [ 44.472524, -17.783321 ], [ 44.472352, -17.780047 ], [ 44.470468, -17.776441 ], [ 44.468318, -17.777096 ], [ 44.467411, -17.78148 ], [ 44.46155, -17.7801 ], [ 44.45996, -17.782416 ], [ 44.462017, -17.786958 ], [ 44.464447, -17.79372 ], [ 44.466851, -17.794702 ], [ 44.471757, -17.794297 ], [ 44.468996, -17.790276 ], [ 44.472439, -17.787823 ], [ 44.470971, -17.784223 ], [ 44.472524, -17.783321 ] ] ], [ [ [ 44.479153, -17.753554 ], [ 44.474356, -17.748264 ], [ 44.469419, -17.740771 ], [ 44.467898, -17.740261 ], [ 44.465656, -17.742844 ], [ 44.466947, -17.746627 ], [ 44.467746, -17.75065 ], [ 44.4662, -17.754281 ], [ 44.463036, -17.757097 ], [ 44.462181, -17.761011 ], [ 44.462699, -17.76533 ], [ 44.464891, -17.766894 ], [ 44.466879, -17.7703 ], [ 44.467565, -17.76876 ], [ 44.468711, -17.765423 ], [ 44.473418, -17.762949 ], [ 44.474557, -17.760714 ], [ 44.477179, -17.76071 ], [ 44.476441, -17.756391 ], [ 44.479153, -17.753554 ] ] ] ] } }
]
}
