{
"type": "FeatureCollection",
"name": "MDG-2305-NODATE-secondary_zoning-001",
"crs": { "type": "name", "properties": { "name": "urn:ogc:def:crs:OGC:1.3:CRS84" } },
"features": [
{ "type": "Feature", "properties": { }, "geometry": { "type": "MultiPolygon", "coordinates": [ [ [ [ 49.6928403, -14.6061087 ], [ 49.6951385, -14.6067116 ], [ 49.6981067, -14.6037322 ], [ 49.699796, -14.5960748 ], [ 49.6931475, -14.5949987 ], [ 49.6815315, -14.5846017 ], [ 49.6733693, -14.5635853 ], [ 49.6732424, -14.5553674 ], [ 49.668897, -14.5472113 ], [ 49.6712622, -14.5442411 ], [ 49.667547, -14.5378371 ], [ 49.6687069, -14.5348845 ], [ 49.6686526, -14.5313625 ], [ 49.6637777, -14.527911 ], [ 49.6535248, -14.5274734 ], [ 49.6463028, -14.5281656 ], [ 49.641536, -14.5317577 ], [ 49.6349701, -14.5359628 ], [ 49.6362023, -14.5377064 ], [ 49.6363099, -14.5447504 ], [ 49.6358598, -14.5547382 ], [ 49.6383243, -14.5582252 ], [ 49.6437663, -14.5593204 ], [ 49.646815599999989, -14.5616246 ], [ 49.6432805, -14.5669601 ], [ 49.6456733, -14.5657511 ], [ 49.649865, -14.5639287 ], [ 49.658932299999989, -14.5655579 ], [ 49.6602371, -14.5719972 ], [ 49.6572778, -14.5755631 ], [ 49.6592577, -14.5866895 ], [ 49.665915, -14.5883535 ], [ 49.6701704, -14.5906397 ], [ 49.6767642, -14.5881945 ], [ 49.6791933, -14.589333 ], [ 49.6833852, -14.5875101 ], [ 49.6848093, -14.6015799 ], [ 49.6909008, -14.6055999 ], [ 49.6920951, -14.6059132 ], [ 49.692433, -14.6059356 ], [ 49.6928403, -14.6061087 ] ] ], [ [ [ 49.7424619, -14.3570704 ], [ 49.7255113, -14.3514505 ], [ 49.7067278, -14.3440948 ], [ 49.6959083, -14.3454281 ], [ 49.6911549, -14.3496078 ], [ 49.6852151, -14.3549791 ], [ 49.6769206, -14.3639075 ], [ 49.6751953, -14.369217 ], [ 49.6716363, -14.3727918 ], [ 49.6590265, -14.375324 ], [ 49.6591343, -14.3823682 ], [ 49.6574174, -14.3882647 ], [ 49.6587566, -14.3970524 ], [ 49.6545858, -14.4000487 ], [ 49.6449766, -14.4019496 ], [ 49.6349167, -14.4138381 ], [ 49.629531700000015, -14.4162644 ], [ 49.6259268, -14.4169035 ], [ 49.6199038, -14.4169903 ], [ 49.6140672, -14.4294044 ], [ 49.6062545, -14.4306908 ], [ 49.5991944, -14.4419478 ], [ 49.5914253, -14.446169 ], [ 49.5873408, -14.4550346 ], [ 49.5790478, -14.4645473 ], [ 49.59472, -14.4649108 ], [ 49.6170545, -14.4675261 ], [ 49.6176926, -14.4698655 ], [ 49.6226458, -14.4786013 ], [ 49.6264302, -14.4897025 ], [ 49.6266267, -14.5026167 ], [ 49.6266713, -14.5055518 ], [ 49.6219671, -14.5132525 ], [ 49.6286667, -14.5178528 ], [ 49.6263905, -14.5266928 ], [ 49.6289798, -14.5383981 ], [ 49.6319213, -14.5336584 ], [ 49.642723200000013, -14.5305661 ], [ 49.6421026, -14.5294009 ], [ 49.6444501, -14.5252569 ], [ 49.6510785, -14.5251605 ], [ 49.6546759, -14.5239338 ], [ 49.6601261, -14.5256158 ], [ 49.6613222, -14.5250112 ], [ 49.6599727, -14.5156368 ], [ 49.674674100000011, -14.4919367 ], [ 49.6967837, -14.4798695 ], [ 49.7167283, -14.4836849 ], [ 49.725609, -14.4735721 ], [ 49.7188359, -14.4642786 ], [ 49.7192277, -14.4507689 ], [ 49.7221479, -14.4448544 ], [ 49.7335925, -14.4446845 ], [ 49.7377445, -14.4405129 ], [ 49.7430273, -14.4316274 ], [ 49.7478734, -14.4333165 ], [ 49.7508757, -14.4326846 ], [ 49.7550641, -14.4308607 ], [ 49.7549625, -14.4244039 ], [ 49.7615229, -14.4201959 ], [ 49.7813512, -14.4169627 ], [ 49.7855763, -14.4174862 ], [ 49.7971498, -14.4255311 ], [ 49.8001892, -14.4272465 ], [ 49.807313500000014, -14.4206804 ], [ 49.8146156, -14.4252665 ], [ 49.8135049, -14.4311545 ], [ 49.8188879, -14.4287242 ], [ 49.8235273, -14.4174986 ], [ 49.8276394, -14.4109778 ], [ 49.8323913, -14.4067956 ], [ 49.8456399, -14.4065932 ], [ 49.8528663, -14.4064825 ], [ 49.8540328, -14.4041162 ], [ 49.8509461, -14.3994667 ], [ 49.8497228, -14.3983112 ], [ 49.8489976, -14.39069 ], [ 49.8410939, -14.3861141 ], [ 49.8369165, -14.3885263 ], [ 49.830876100000012, -14.3874442 ], [ 49.8379888, -14.3802904 ], [ 49.8366903, -14.3744391 ], [ 49.8348368, -14.3715318 ], [ 49.8335008, -14.3633326 ], [ 49.8264917, -14.376943 ], [ 49.8060189, -14.3772536 ], [ 49.7991714, -14.3632663 ], [ 49.7815338, -14.3523766 ], [ 49.7623499, -14.3579482 ], [ 49.7424619, -14.3570704 ] ] ] ] } }
]
}
