{
"type": "FeatureCollection",
"name": "MDG-5024-NODATE-secondary_zoning-001",
"crs": { "type": "name", "properties": { "name": "urn:ogc:def:crs:OGC:1.3:CRS84" } },
"features": [
{ "type": "Feature", "properties": { }, "geometry": { "type": "MultiPolygon", "coordinates": [ [ [ [ 49.102565, -12.9047412 ], [ 49.1026867, -12.9042376 ], [ 49.1031985, -12.9042315 ], [ 49.1031969, -12.904106 ], [ 49.1037056, -12.9038488 ], [ 49.1029316, -12.903356 ], [ 49.10356980000001, -12.9032228 ], [ 49.1046978, -12.9013262 ], [ 49.1048133, -12.9003206 ], [ 49.1061909, -12.8979189 ], [ 49.1062922, -12.8957836 ], [ 49.1067757, -12.8935182 ], [ 49.1066196, -12.8912605 ], [ 49.1069689, -12.8884946 ], [ 49.1062916, -12.8854899 ], [ 49.1042493, -12.885891 ], [ 49.1009167, -12.8854289 ], [ 49.0984702, -12.8842029 ], [ 49.0717437, -12.9063354 ], [ 49.0602013, -12.9326114 ], [ 49.0474805, -12.9478733 ], [ 49.034454, -12.9723278 ], [ 49.0350886, -12.9731372 ], [ 49.03551, -12.9735406 ], [ 49.0365535, -12.9737326 ], [ 49.036969899999981, -12.9737277 ], [ 49.0375969, -12.9739245 ], [ 49.0376069, -12.9747412 ], [ 49.0378201, -12.9751471 ], [ 49.0384447, -12.9751398 ], [ 49.040536700000011, -12.975932 ], [ 49.0411663, -12.976333 ], [ 49.0417934, -12.9765298 ], [ 49.042418, -12.9765225 ], [ 49.0428369, -12.9767218 ], [ 49.0432608, -12.9773294 ], [ 49.0438904, -12.9777304 ], [ 49.0453278, -12.9760798 ], [ 49.0459499, -12.9758682 ], [ 49.0463663, -12.9758633 ], [ 49.0469934, -12.9760601 ], [ 49.0476305, -12.9770736 ], [ 49.0514282, -12.981113 ], [ 49.0518472, -12.9813123 ], [ 49.0524667, -12.9808965 ], [ 49.0561767, -12.9777895 ], [ 49.0885745, -12.9876146 ], [ 49.093263, -12.9799212 ], [ 49.0993719, -12.9770863 ], [ 49.1021029, -12.9702748 ], [ 49.1127863, -12.9545803 ], [ 49.1156903, -12.951407 ], [ 49.1178469, -12.9498746 ], [ 49.1160952, -12.9428659 ], [ 49.1121604, -12.9352559 ], [ 49.1061612, -12.9262897 ], [ 49.1042246, -12.9249321 ], [ 49.1029372, -12.9243199 ], [ 49.1005217, -12.9256042 ], [ 49.0987631, -12.9282615 ], [ 49.0968516, -12.9289121 ], [ 49.0948229, -12.9304428 ], [ 49.0918939, -12.9316076 ], [ 49.0887058, -12.9325245 ], [ 49.0871843, -12.9336725 ], [ 49.0847577, -12.934078 ], [ 49.0822031, -12.9344851 ], [ 49.0791211, -12.9336431 ], [ 49.0768059, -12.9223727 ], [ 49.0828059, -12.9211714 ], [ 49.0883002, -12.9204782 ], [ 49.0919969, -12.9193042 ], [ 49.0946652, -12.9177658 ], [ 49.096300500000012, -12.9154867 ], [ 49.096664, -12.9138504 ], [ 49.097795200000014, -12.9122049 ], [ 49.0989265, -12.9105594 ], [ 49.1000546, -12.9086629 ], [ 49.1004243, -12.9075286 ], [ 49.1016897, -12.9063837 ], [ 49.1020626, -12.9055005 ], [ 49.1020579, -12.9051239 ], [ 49.102565, -12.9047412 ] ] ], [ [ [ 49.1034544, -12.9042284 ], [ 49.1031985, -12.9042315 ], [ 49.1032016, -12.9044825 ], [ 49.1034544, -12.9042284 ] ] ], [ [ [ 49.1378288, -12.9409711 ], [ 49.1400391, -12.943706 ], [ 49.1457915, -12.9419318 ], [ 49.1467972, -12.9411534 ], [ 49.147245399999989, -12.9395389 ], [ 49.1472309, -12.9383898 ], [ 49.1474516, -12.9373144 ], [ 49.1480629, -12.9362343 ], [ 49.1488809, -12.9358593 ], [ 49.149429, -12.9330762 ], [ 49.1498078, -12.9321522 ], [ 49.1503468, -12.9315327 ], [ 49.1514305, -12.9307532 ], [ 49.1529086, -12.9302755 ], [ 49.1539981, -12.9299557 ], [ 49.1550848, -12.9294061 ], [ 49.1560923, -12.9287809 ], [ 49.1566273, -12.9278549 ], [ 49.1575373, -12.9256984 ], [ 49.1593025, -12.923225 ], [ 49.1607716, -12.9221902 ], [ 49.1616221, -12.9213578 ], [ 49.1646435, -12.9194054 ], [ 49.1679871, -12.9182151 ], [ 49.1704804, -12.9177248 ], [ 49.170863, -12.9171072 ], [ 49.1734383, -12.9169224 ], [ 49.1780438, -12.9156068 ], [ 49.179729900000012, -12.9141634 ], [ 49.1818587, -12.9096166 ], [ 49.1802626, -12.9069546 ], [ 49.1772091, -12.9063791 ], [ 49.1716743, -12.9010837 ], [ 49.168866500000014, -12.8974608 ], [ 49.1679372, -12.8912189 ], [ 49.1661157, -12.8816528 ], [ 49.1621067, -12.8671108 ], [ 49.1555071, -12.8492652 ], [ 49.1438899, -12.8377337 ], [ 49.1095327, -12.8683784 ], [ 49.1103269, -12.8705029 ], [ 49.1112381, -12.8717473 ], [ 49.1121509, -12.8731172 ], [ 49.113449, -12.8746079 ], [ 49.1157817, -12.876965 ], [ 49.1185186, -12.8809491 ], [ 49.1203522, -12.8843163 ], [ 49.1193806, -12.8884706 ], [ 49.1179035, -12.8931332 ], [ 49.1176203, -12.9011707 ], [ 49.1213047, -12.919454 ], [ 49.1238068, -12.9250728 ], [ 49.125238, -12.9269385 ], [ 49.1339013, -12.9339889 ], [ 49.13534210000001, -12.9366076 ], [ 49.1370373, -12.9390977 ], [ 49.1378288, -12.9409711 ] ] ] ] } }
]
}
