{
"type": "FeatureCollection",
"name": "MDG-10634-2015-boundary_modification-001",
"crs": { "type": "name", "properties": { "name": "urn:ogc:def:crs:OGC:1.3:CRS84" } },
"features": [
{ "type": "Feature", "properties": { }, "geometry": { "type": "MultiPolygon", "coordinates": [ [ [ [ 44.5907334, -23.6849912 ], [ 44.5865146, -23.6733459 ], [ 44.5798001, -23.6771553 ], [ 44.5707284, -23.6802188 ], [ 44.575018, -23.6872737 ], [ 44.5755274, -23.688414 ], [ 44.5757328, -23.6883948 ], [ 44.5759389, -23.6883559 ], [ 44.5761274, -23.6882873 ], [ 44.5762698, -23.6881855 ], [ 44.5764771, -23.6880151 ], [ 44.5767344, -23.6878481 ], [ 44.576935500000012, -23.6877761 ], [ 44.5773164, -23.6876274 ], [ 44.5775537, -23.6875794 ], [ 44.5780707, -23.6875508 ], [ 44.5786053, -23.6875508 ], [ 44.5789949, -23.6875485 ], [ 44.5792847, -23.687521 ], [ 44.5795607, -23.6874879 ], [ 44.5798804, -23.6874135 ], [ 44.5799928, -23.6874135 ], [ 44.5801314, -23.6874433 ], [ 44.5802076, -23.6874844 ], [ 44.5803025, -23.6875519 ], [ 44.5804387, -23.6876823 ], [ 44.5805261, -23.6877372 ], [ 44.5806123, -23.6877612 ], [ 44.5807209, -23.6877441 ], [ 44.5808271, -23.6877029 ], [ 44.580947, -23.6876217 ], [ 44.5811056, -23.687537 ], [ 44.5813341, -23.6874627 ], [ 44.5816464, -23.6874421 ], [ 44.581807499999989, -23.6874444 ], [ 44.5819624, -23.6874913 ], [ 44.5821522, -23.6875565 ], [ 44.5823932, -23.6875862 ], [ 44.5825768, -23.6875828 ], [ 44.582934, -23.6875725 ], [ 44.5833237, -23.6874547 ], [ 44.5834298, -23.6873987 ], [ 44.583556, -23.687282 ], [ 44.5835959, -23.6872168 ], [ 44.5836696, -23.6871333 ], [ 44.5837196, -23.6870773 ], [ 44.5837545, -23.6870578 ], [ 44.5837908, -23.6870475 ], [ 44.5838232, -23.6870498 ], [ 44.5838682, -23.6870681 ], [ 44.5838882, -23.6870887 ], [ 44.5838919, -23.6871116 ], [ 44.5839032, -23.6871436 ], [ 44.5839007, -23.6871734 ], [ 44.5838932, -23.6872214 ], [ 44.5838932, -23.6873987 ], [ 44.5839119, -23.6875268 ], [ 44.5839419, -23.6876217 ], [ 44.5840093, -23.6877109 ], [ 44.5840842, -23.6877635 ], [ 44.5841954, -23.6877967 ], [ 44.584349, -23.6878287 ], [ 44.5845014, -23.6878367 ], [ 44.58469, -23.6877944 ], [ 44.584901, -23.6876651 ], [ 44.5851084, -23.687546200000011 ], [ 44.5853756, -23.6874227 ], [ 44.5855792, -23.6873449 ], [ 44.5857865, -23.6872912 ], [ 44.5859164, -23.6872271 ], [ 44.5861287, -23.6870647 ], [ 44.5864235, -23.686844 ], [ 44.5865608, -23.6866495 ], [ 44.5866957, -23.6864723 ], [ 44.5867931, -23.6863922 ], [ 44.586923, -23.6862847 ], [ 44.5870392, -23.686104 ], [ 44.5871453, -23.685953 ], [ 44.5872865, -23.685754 ], [ 44.5873576, -23.6856625 ], [ 44.5874451, -23.6856088 ], [ 44.5875175, -23.6855767 ], [ 44.5876137, -23.6855699 ], [ 44.5877036, -23.6855733 ], [ 44.5877835, -23.6856008 ], [ 44.5879209, -23.6856465 ], [ 44.5881882, -23.6857357 ], [ 44.5883928, -23.685766 ], [ 44.588771, -23.6858174 ], [ 44.5888713, -23.6858307 ], [ 44.5893184, -23.6858867 ], [ 44.589681899999988, -23.6859495 ], [ 44.5898767, -23.6859838 ], [ 44.5900116, -23.6859838 ], [ 44.5902476, -23.6860307 ], [ 44.5904637, -23.6861977 ], [ 44.5907372, -23.6863921 ], [ 44.5910532, -23.6867138 ], [ 44.5907334, -23.6849912 ] ] ], [ [ [ 44.6365523, -23.6512953 ], [ 44.6366896, -23.6511574 ], [ 44.6392678, -23.6490003 ], [ 44.6393982, -23.6384315 ], [ 44.6303804, -23.6385158 ], [ 44.6222635, -23.6403041 ], [ 44.6214948, -23.6554309 ], [ 44.6365523, -23.6512953 ] ] ] ] } }
]
}
