{
"type": "FeatureCollection",
"name": "MDG-2311-2011-boundary_modification-001",
"crs": { "type": "name", "properties": { "name": "urn:ogc:def:crs:OGC:1.3:CRS84" } },
"features": [
{ "type": "Feature", "properties": { }, "geometry": { "type": "Polygon", "coordinates": [ [ [ 48.3038018, -13.4104827 ], [ 48.3042386, -13.4111981 ], [ 48.3047105, -13.411843 ], [ 48.3054515, -13.4126367 ], [ 48.305879, -13.4124714 ], [ 48.3068234, -13.4146437 ], [ 48.3068552, -13.4151172 ], [ 48.3068718, -13.4155083 ], [ 48.3069024, -13.4160254 ], [ 48.3069452, -13.4164668 ], [ 48.3070144, -13.4169836 ], [ 48.3071601, -13.4173987 ], [ 48.3074125, -13.4181916 ], [ 48.3084534, -13.4178289 ], [ 48.3087132, -13.4182131 ], [ 48.3082182, -13.4188785 ], [ 48.3085631, -13.4199103 ], [ 48.3088529, -13.4205766 ], [ 48.3097803, -13.4209484 ], [ 48.3099464, -13.421058 ], [ 48.3101029, -13.4212585 ], [ 48.31004249999998, -13.4214105 ], [ 48.3100888, -13.4219553 ], [ 48.3100807, -13.4221876 ], [ 48.310247, -13.4225367 ], [ 48.3107474, -13.4231042 ], [ 48.3112349, -13.4234858 ], [ 48.3117218, -13.4238148 ], [ 48.3121337, -13.4240823 ], [ 48.3127132, -13.4244199 ], [ 48.313166, -13.4246404 ], [ 48.3136759, -13.4247999 ], [ 48.3141754, -13.4248076 ], [ 48.3151215, -13.4249958 ], [ 48.316091899999989, -13.4250956 ], [ 48.3171634, -13.4250291 ], [ 48.3179688, -13.4249166 ], [ 48.318768, -13.4247098 ], [ 48.3199228, -13.4245925 ], [ 48.3208597, -13.4244214 ], [ 48.3215177, -13.4242368 ], [ 48.3221429, -13.4240373 ], [ 48.3227016, -13.4237819 ], [ 48.3236267, -13.423061 ], [ 48.3249587, -13.4228406 ], [ 48.3259452, -13.4225574 ], [ 48.3266889, -13.4221892 ], [ 48.3273314, -13.4219027 ], [ 48.3279023, -13.4216344 ], [ 48.328848, -13.4211873 ], [ 48.3294544, -13.4208836 ], [ 48.3302565, -13.4204202 ], [ 48.3312767, -13.4197636 ], [ 48.331794099999989, -13.4193199 ], [ 48.3322308, -13.4189826 ], [ 48.3327643, -13.4183665 ], [ 48.3336146, -13.4182477 ], [ 48.3338494, -13.4178318 ], [ 48.3338912, -13.4173796 ], [ 48.3340019, -13.4168817 ], [ 48.334229, -13.4164956 ], [ 48.3343647, -13.4162007 ], [ 48.3344312, -13.4159064 ], [ 48.3346126, -13.415566 ], [ 48.3348636, -13.41527 ], [ 48.3349051, -13.4147727 ], [ 48.3348194, -13.4140711 ], [ 48.3348025, -13.4136893 ], [ 48.3346145, -13.4133296 ], [ 48.3342338, -13.4129515 ], [ 48.3341808, -13.4127202 ], [ 48.3341431, -13.4124942 ], [ 48.334069, -13.4121815 ], [ 48.3340108, -13.4116598 ], [ 48.3340037, -13.4112978 ], [ 48.3338616, -13.41093 ], [ 48.3335574, -13.4107239 ], [ 48.3332176, -13.410518 ], [ 48.3328959, -13.4103469 ], [ 48.3323942, -13.409951 ], [ 48.3318157, -13.4093952 ], [ 48.331724, -13.4092911 ], [ 48.3311725, -13.4086216 ], [ 48.3310286, -13.4084488 ], [ 48.3307315, -13.4081612 ], [ 48.330557, -13.4080335 ], [ 48.3304231, -13.4078247 ], [ 48.3302814, -13.4074672 ], [ 48.3302026, -13.4071967 ], [ 48.3301615, -13.4070118 ], [ 48.3300699, -13.4067341 ], [ 48.3298887, -13.4063702 ], [ 48.3297781, -13.4059534 ], [ 48.3296149, -13.4056241 ], [ 48.329541, -13.4053288 ], [ 48.3294673, -13.4050509 ], [ 48.3293757, -13.4047732 ], [ 48.329159600000011, -13.4044793 ], [ 48.3290862, -13.4042362 ], [ 48.3290121, -13.4039235 ], [ 48.3289204, -13.4036284 ], [ 48.3289005, -13.4032089 ], [ 48.3288449, -13.4029201 ], [ 48.3287926, -13.4024721 ], [ 48.3285683, -13.4021201 ], [ 48.328541799999989, -13.401798 ], [ 48.3284347, -13.4015126 ], [ 48.328307, -13.4012683 ], [ 48.3282007, -13.4010648 ], [ 48.3280047, -13.4007991 ], [ 48.3278947, -13.400452 ], [ 48.3276605, -13.4001233 ], [ 48.3275503, -13.3997588 ], [ 48.3273877, -13.3994817 ], [ 48.3272785, -13.3992216 ], [ 48.3270799, -13.3988926 ], [ 48.3269887, -13.3986497 ], [ 48.3267022, -13.3984592 ], [ 48.3263445, -13.3982203 ], [ 48.326, -13.3980985 ], [ 48.3256236, -13.398061 ], [ 48.3253295, -13.3980728 ], [ 48.3250798, -13.397988 ], [ 48.3247871, -13.3979663 ], [ 48.3244526, -13.3979488 ], [ 48.3241174, -13.3978496 ], [ 48.3237619, -13.3978119 ], [ 48.3234269, -13.3977331 ], [ 48.3231757, -13.397674 ], [ 48.3229875, -13.3976552 ], [ 48.3226807, -13.3976891 ], [ 48.3221396, -13.3978316 ], [ 48.3217968, -13.397697 ], [ 48.3216087, -13.3976676 ], [ 48.3212946, -13.3975887 ], [ 48.3208552, -13.3975108 ], [ 48.3205621, -13.3974521 ], [ 48.3199876, -13.3972853 ], [ 48.3196595, -13.3969898 ], [ 48.3191359, -13.3967179 ], [ 48.3187986, -13.3965271 ], [ 48.3184427, -13.3964485 ], [ 48.3180667, -13.3964519 ], [ 48.3172458, -13.3965382 ], [ 48.3167825, -13.3964047 ], [ 48.3164567, -13.3963027 ], [ 48.3159969, -13.3962864 ], [ 48.3156757, -13.3963491 ], [ 48.3149627, -13.396164 ], [ 48.3144285, -13.3960818 ], [ 48.3138584, -13.395965 ], [ 48.3133962, -13.3959866 ], [ 48.312774399999988, -13.3960444 ], [ 48.3122064, -13.3961539 ], [ 48.3115914, -13.396769 ], [ 48.3109009, -13.3972623 ], [ 48.3106218, -13.3978393 ], [ 48.3105371, -13.3982926 ], [ 48.3104884, -13.3987805 ], [ 48.3102978, -13.3993219 ], [ 48.3100559, -13.4000726 ], [ 48.3097648, -13.4012763 ], [ 48.3096658, -13.4020954 ], [ 48.3096336, -13.4024613 ], [ 48.309584, -13.4028621 ], [ 48.3095798, -13.4032143 ], [ 48.3094023, -13.4036567 ], [ 48.3092582, -13.4041532 ], [ 48.3092461, -13.4047626 ], [ 48.3092243, -13.4051773 ], [ 48.3092055, -13.4056292 ], [ 48.3091165, -13.4059915 ], [ 48.3090503, -13.4063083 ], [ 48.3087313, -13.4067404 ], [ 48.308688499999988, -13.4071022 ], [ 48.3087149, -13.4074634 ], [ 48.3084876, -13.4078268 ], [ 48.3080719, -13.4085159 ], [ 48.3077358, -13.4089655 ], [ 48.3076578, -13.4090133 ], [ 48.3072236, -13.4090805 ], [ 48.3064691, -13.4093887 ], [ 48.3059626, -13.4092499 ], [ 48.3050384, -13.4091227 ], [ 48.3046459, -13.4091036 ], [ 48.3038381, -13.4090882 ], [ 48.3034698, -13.4091818 ], [ 48.3031432, -13.4092973 ], [ 48.3038018, -13.4104827 ] ] ] } }
]
}
