{
"type": "FeatureCollection",
"name": "MDG-5029-NODATE-secondary_zoning-001",
"crs": { "type": "name", "properties": { "name": "urn:ogc:def:crs:OGC:1.3:CRS84" } },
"features": [
{ "type": "Feature", "properties": { }, "geometry": { "type": "Polygon", "coordinates": [ [ [ 46.978811, -22.4762229 ], [ 46.977971, -22.4744929 ], [ 46.977351, -22.4728928 ], [ 46.9670004, -22.4785529 ], [ 46.9667804, -22.480403 ], [ 46.9664804, -22.481003 ], [ 46.9659603, -22.481583 ], [ 46.9640402, -22.481803 ], [ 46.9622802, -22.481703 ], [ 46.9619601, -22.481453 ], [ 46.95951, -22.481683 ], [ 46.95927, -22.481893 ], [ 46.95933, -22.482913 ], [ 46.95856, -22.483583 ], [ 46.9573799, -22.484663 ], [ 46.956809899999989, -22.484793 ], [ 46.9557198, -22.485593 ], [ 46.9548798, -22.4870831 ], [ 46.9537197, -22.4877131 ], [ 46.9529997, -22.4897531 ], [ 46.9527496, -22.4904831 ], [ 46.9525796, -22.4907531 ], [ 46.9524596, -22.4908331 ], [ 46.9524696, -22.4923532 ], [ 46.9513896, -22.4926632 ], [ 46.9504395, -22.4924932 ], [ 46.9494195, -22.4932532 ], [ 46.9492895, -22.4934232 ], [ 46.9494995, -22.4941232 ], [ 46.9480794, -22.4944932 ], [ 46.9474493, -22.4993033 ], [ 46.9482794, -22.4999333 ], [ 46.9467293, -22.4999933 ], [ 46.9459193, -22.4997033 ], [ 46.9455592, -22.5002133 ], [ 46.9445792, -22.5016833 ], [ 46.9453092, -22.5031634 ], [ 46.9468093, -22.5038734 ], [ 46.9467193, -22.5049834 ], [ 46.9466293, -22.5057534 ], [ 46.9456192, -22.5068534 ], [ 46.9448392, -22.5080434 ], [ 46.9434591, -22.5084735 ], [ 46.942679100000014, -22.5093935 ], [ 46.944119099999988, -22.5175436 ], [ 46.9439691, -22.5182136 ], [ 46.9440491, -22.5186636 ], [ 46.9440491, -22.5190336 ], [ 46.9445392, -22.5195537 ], [ 46.9449692, -22.5201637 ], [ 46.9451192, -22.5207237 ], [ 46.9446592, -22.5213437 ], [ 46.944489200000014, -22.5218937 ], [ 46.9441491, -22.5241637 ], [ 46.9568898, -22.5245038 ], [ 46.9689104, -22.5285138 ], [ 46.9690504, -22.5277438 ], [ 46.9701905, -22.5272538 ], [ 46.9708505, -22.5251938 ], [ 46.9716306, -22.5222037 ], [ 46.9736507, -22.5222237 ], [ 46.9746608, -22.5187037 ], [ 46.9745608, -22.5177537 ], [ 46.975390800000014, -22.5170136 ], [ 46.9762608, -22.5158136 ], [ 46.9761308, -22.5143936 ], [ 46.9763408, -22.5140536 ], [ 46.977210899999989, -22.5128036 ], [ 46.9780909, -22.5123936 ], [ 46.9833212, -22.4964333 ], [ 46.9835513, -22.4957633 ], [ 46.9835613, -22.4952233 ], [ 46.9835913, -22.4947832 ], [ 46.9832812, -22.4933332 ], [ 46.9833713, -22.4930132 ], [ 46.9835213, -22.4927432 ], [ 46.982631200000014, -22.4899832 ], [ 46.9831512, -22.4895932 ], [ 46.9834613, -22.4885131 ], [ 46.9824212, -22.4856931 ], [ 46.9807711, -22.482673 ], [ 46.9795411, -22.480823 ], [ 46.9796711, -22.480773 ], [ 46.9799711, -22.481093 ], [ 46.9795711, -22.479333 ], [ 46.979051, -22.4767929 ], [ 46.978811, -22.4762229 ] ] ] } }
]
}
