{
"type": "FeatureCollection",
"name": "MDG-5039-NODATE-secondary_zoning-001",
"crs": { "type": "name", "properties": { "name": "urn:ogc:def:crs:OGC:1.3:CRS84" } },
"features": [
{ "type": "Feature", "properties": { }, "geometry": { "type": "Polygon", "coordinates": [ [ [ 49.7762232, -15.4997089 ], [ 49.7771205, -15.49933 ], [ 49.7772614, -15.4987437 ], [ 49.7772542, -15.4983057 ], [ 49.7775421, -15.4974982 ], [ 49.7776041, -15.4966941 ], [ 49.7783376, -15.4955145 ], [ 49.7789398, -15.4955052 ], [ 49.7793902, -15.4954252 ], [ 49.7795372, -15.4952039 ], [ 49.7790735, -15.494481 ], [ 49.7788513, -15.4947035 ], [ 49.7784785, -15.4949283 ], [ 49.7781702, -15.494495 ], [ 49.7777806, -15.4936979 ], [ 49.7770839, -15.4925405 ], [ 49.7769918, -15.4915198 ], [ 49.7772784, -15.4906392 ], [ 49.7771243, -15.4904226 ], [ 49.776884, -15.4895502 ], [ 49.7764523, -15.4884432 ], [ 49.7761765, -15.4877359 ], [ 49.7759351, -15.4867905 ], [ 49.7762133, -15.485399 ], [ 49.7760423, -15.4841604 ], [ 49.7754306, -15.4835858 ], [ 49.774587, -15.4826497 ], [ 49.774349099999988, -15.4819233 ], [ 49.7734291, -15.4809154 ], [ 49.7728974, -15.4806316 ], [ 49.77176, -15.4801381 ], [ 49.7714469, -15.4794128 ], [ 49.7709833, -15.4786899 ], [ 49.7701469, -15.4781917 ], [ 49.7696965, -15.4782717 ], [ 49.7690107, -15.4777712 ], [ 49.7685603, -15.4778512 ], [ 49.7681243, -15.4788071 ], [ 49.7676762, -15.479033 ], [ 49.767610600000012, -15.4796182 ], [ 49.7675461, -15.4802763 ], [ 49.7686911, -15.4810608 ], [ 49.76863, -15.4817873 ], [ 49.7683036, -15.4856701 ], [ 49.7687002, -15.4913717 ], [ 49.769162, -15.4948636 ], [ 49.76915, -15.5001574 ], [ 49.7689278, -15.5007595 ], [ 49.7757151, -15.5015937 ], [ 49.775792, -15.5009568 ], [ 49.7762232, -15.4997089 ] ] ] } }
]
}
