{
"type": "FeatureCollection",
"name": "MDG-1299-NODATE-secondary_zoning-001",
"crs": { "type": "name", "properties": { "name": "urn:ogc:def:crs:OGC:1.3:CRS84" } },
"features": [
{ "type": "Feature", "properties": { }, "geometry": { "type": "MultiPolygon", "coordinates": [ [ [ [ 46.9280534, -16.2152362 ], [ 46.9305148, -16.2158695 ], [ 46.9314695, -16.2154513 ], [ 46.9305221, -16.2158637 ], [ 46.9280534, -16.2152362 ] ] ], [ [ [ 46.9334417, -16.2145874 ], [ 46.9334506, -16.2145835 ], [ 46.9348516, -16.2134945 ], [ 46.9343936, -16.2138495 ], [ 46.9334648, -16.2145715 ], [ 46.9334589, -16.2145741 ], [ 46.9334417, -16.2145874 ] ] ], [ [ [ 46.912129, -16.2137692 ], [ 46.9125891, -16.2143536 ], [ 46.911963, -16.2135534 ], [ 46.912129, -16.2137692 ] ] ], [ [ [ 46.9380883, -16.2112785 ], [ 46.9381035, -16.2112675 ], [ 46.9380043, -16.2113208 ], [ 46.937859, -16.2114012 ], [ 46.9380883, -16.2112785 ] ] ], [ [ [ 46.9110966, -16.2101676 ], [ 46.9110964, -16.2101655 ], [ 46.910838299999988, -16.2098721 ], [ 46.9110966, -16.2101676 ] ] ], [ [ [ 46.9239774, -16.2133205 ], [ 46.9220596, -16.2133255 ], [ 46.920836, -16.2133795 ], [ 46.9177811, -16.2137902 ], [ 46.9173404, -16.2138467 ], [ 46.9125891, -16.2143536 ], [ 46.9125794, -16.2143546 ], [ 46.912129, -16.2137692 ], [ 46.9119461, -16.2135369 ], [ 46.9118585, -16.2133897 ], [ 46.9113386, -16.2127252 ], [ 46.9111782, -16.2109154 ], [ 46.9111037, -16.2103179 ], [ 46.910407, -16.2095144 ], [ 46.9097098, -16.2085767 ], [ 46.9063735, -16.2076458 ], [ 46.9062917, -16.2075925 ], [ 46.9058154, -16.2074761 ], [ 46.9041104, -16.206354 ], [ 46.8999981, -16.2036533 ], [ 46.8984051, -16.200888 ], [ 46.8980791, -16.2003239 ], [ 46.8956552, -16.1977102 ], [ 46.8956522, -16.1977061 ], [ 46.8956466, -16.1977 ], [ 46.8954655, -16.1974495 ], [ 46.8938194, -16.1951867 ], [ 46.8929731, -16.194797 ], [ 46.8903472, -16.1936563 ], [ 46.887932199999987, -16.1926134 ], [ 46.8824186, -16.1913562 ], [ 46.8817416, -16.1912022 ], [ 46.8815094, -16.1911596 ], [ 46.8804497, -16.1909672 ], [ 46.879761400000014, -16.19084 ], [ 46.8795206, -16.1908018 ], [ 46.8793034, -16.1907554 ], [ 46.8782519, -16.190561 ], [ 46.87563990000001, -16.190081 ], [ 46.8724796, -16.1898046 ], [ 46.863885599999982, -16.1909611 ], [ 46.8638519, -16.1911927 ], [ 46.8638137, -16.191458 ], [ 46.8638134, -16.191458 ], [ 46.8638134, -16.1914583 ], [ 46.861282, -16.1917362 ], [ 46.8603216, -16.1920822 ], [ 46.8586207, -16.1930227 ], [ 46.8583774, -16.1931776 ], [ 46.8565635, -16.1937941 ], [ 46.8557779, -16.1940795 ], [ 46.854241, -16.1947334 ], [ 46.8531013, -16.1952943 ], [ 46.852754900000015, -16.1954651 ], [ 46.850382, -16.1967683 ], [ 46.8506219, -16.1970754 ], [ 46.8505969, -16.1974357 ], [ 46.8506474, -16.1975809 ], [ 46.8505134, -16.1995944 ], [ 46.851408, -16.2027445 ], [ 46.8517728, -16.2049428 ], [ 46.8521009, -16.2069199 ], [ 46.8530158, -16.2088964 ], [ 46.853705, -16.2115329 ], [ 46.8548492, -16.2141684 ], [ 46.8566776, -16.2174618 ], [ 46.8401636, -16.2471072 ], [ 46.8383792, -16.2503232 ], [ 46.8379652, -16.2517511 ], [ 46.8355971, -16.2551997 ], [ 46.8355874, -16.2552051 ], [ 46.8355829, -16.2552117 ], [ 46.8327927, -16.2567689 ], [ 46.8297848, -16.2577035 ], [ 46.8289268, -16.259123 ], [ 46.8289277, -16.2595262 ], [ 46.8289925, -16.2597742 ], [ 46.8289345, -16.260558 ], [ 46.8300244, -16.2621296 ], [ 46.8313878, -16.2644875 ], [ 46.832389, -16.2667588 ], [ 46.8361937, -16.2678871 ], [ 46.8391825, -16.2684925 ], [ 46.842351300000011, -16.2686603 ], [ 46.844888, -16.2694416 ], [ 46.8476023, -16.2688233 ], [ 46.8505909, -16.2683068 ], [ 46.8507003, -16.2682764 ], [ 46.8520344, -16.2673267 ], [ 46.8539401, -16.269246 ], [ 46.8564827, -16.272388 ], [ 46.858663, -16.2754434 ], [ 46.8600255, -16.2772765 ], [ 46.8607526, -16.2784116 ], [ 46.8622022, -16.2788454 ], [ 46.8645547, -16.2783152 ], [ 46.8665446, -16.277611 ], [ 46.8692485, -16.2764716 ], [ 46.87023520000001, -16.2749035 ], [ 46.870242, -16.2749033 ], [ 46.8702494, -16.2748915 ], [ 46.8731461, -16.2747972 ], [ 46.875773, -16.2754029 ], [ 46.8775829, -16.2751363 ], [ 46.8809364, -16.2766146 ], [ 46.8855575, -16.2781773 ], [ 46.8861058, -16.2800997 ], [ 46.888012, -16.2820187 ], [ 46.8893707, -16.2822777 ], [ 46.8909137, -16.2837604 ], [ 46.8934493, -16.2840164 ], [ 46.8940873, -16.2855888 ], [ 46.8987941, -16.2852272 ], [ 46.9015985, -16.2844332 ], [ 46.9031371, -16.2842544 ], [ 46.905581, -16.2840733 ], [ 46.9074834, -16.2845056 ], [ 46.9097538, -16.2870356 ], [ 46.9120188, -16.2876419 ], [ 46.9144686, -16.2895593 ], [ 46.9156519, -16.2918297 ], [ 46.9175588, -16.2938359 ], [ 46.9206364, -16.2935656 ], [ 46.9231751, -16.2948705 ], [ 46.9259838, -16.2955627 ], [ 46.928792, -16.2960799 ], [ 46.9310553, -16.2959864 ], [ 46.932779, -16.297206 ], [ 46.9357562, -16.2965877 ], [ 46.9375009, -16.2932716 ], [ 46.937514, -16.2932617 ], [ 46.9375151, -16.2932595 ], [ 46.9378271, -16.2930238 ], [ 46.9549784, -16.2976675 ], [ 46.9582764, -16.299591 ], [ 46.960671399999988, -16.3017663 ], [ 46.9626823, -16.3050025 ], [ 46.965461, -16.3059298 ], [ 46.9696235, -16.3058659 ], [ 46.9738111, -16.3047374 ], [ 46.9791514, -16.3024889 ], [ 46.9840298, -16.2985199 ], [ 46.9869397, -16.2982793 ], [ 46.9897511, -16.2954602 ], [ 46.9897542, -16.2954594 ], [ 46.9897653, -16.2954482 ], [ 46.9937218, -16.2943512 ], [ 46.996886599999989, -16.2929505 ], [ 46.9979993, -16.290947 ], [ 46.9980068, -16.2909472 ], [ 46.9980135, -16.290935 ], [ 47.0003585, -16.2909818 ], [ 47.002364, -16.2897281 ], [ 47.002647, -16.2880559 ], [ 47.0029333, -16.2872177 ], [ 47.0029436, -16.287217 ], [ 47.0029475, -16.2872056 ], [ 47.0052592, -16.2870591 ], [ 47.0075653, -16.2852377 ], [ 47.009584700000012, -16.2848134 ], [ 47.0117335, -16.2827248 ], [ 47.011737, -16.2827232 ], [ 47.0117477, -16.2827128 ], [ 47.0146532, -16.2813768 ], [ 47.0153365, -16.2797828 ], [ 47.0153466, -16.2797803 ], [ 47.0153507, -16.2797708 ], [ 47.0166744, -16.2794403 ], [ 47.018387, -16.2803197 ], [ 47.0205591, -16.2817087 ], [ 47.0225831, -16.2819815 ], [ 47.0250325, -16.2812774 ], [ 47.0294857, -16.2762496 ], [ 47.0294896, -16.2762493 ], [ 47.0294999, -16.2762376 ], [ 47.0349894, -16.2758016 ], [ 47.0382418, -16.2741661 ], [ 47.0449771, -16.2642483 ], [ 47.0449849, -16.2642457 ], [ 47.0449913, -16.2642363 ], [ 47.1271029, -16.2370748 ], [ 47.1252827, -16.2287103 ], [ 47.1252981, -16.228704 ], [ 47.1252969, -16.2286983 ], [ 47.132443, -16.2257469 ], [ 47.1349159, -16.224541 ], [ 47.1372392, -16.2232092 ], [ 47.138056, -16.2216159 ], [ 47.138325, -16.2200192 ], [ 47.1353958, -16.2001036 ], [ 47.1330798, -16.1988559 ], [ 47.1332199, -16.1977388 ], [ 47.1332332, -16.1977338 ], [ 47.1332341, -16.1977268 ], [ 47.1350949, -16.1970274 ], [ 47.1350884, -16.1953593 ], [ 47.1351026, -16.1953598 ], [ 47.1351026, -16.1953473 ], [ 47.1385697, -16.1954742 ], [ 47.1416079, -16.1967192 ], [ 47.143925, -16.1982459 ], [ 47.1439327, -16.2001999 ], [ 47.1435071, -16.2021555 ], [ 47.1471187, -16.2022817 ], [ 47.1479904, -16.2035346 ], [ 47.1478537, -16.2054891 ], [ 47.1475113, -16.207473 ], [ 47.1443758, -16.2150646 ], [ 47.1478246, -16.2170466 ], [ 47.1529235, -16.2186234 ], [ 47.1583074, -16.2225928 ], [ 47.1617543, -16.2240426 ], [ 47.1643748, -16.2253626 ], [ 47.1658921, -16.2261547 ], [ 47.1696112, -16.2268055 ], [ 47.172706, -16.2260575 ], [ 47.1747061, -16.2256929 ], [ 47.1780903, -16.2243474 ], [ 47.1796217, -16.2217226 ], [ 47.1804828, -16.2202245 ], [ 47.1809481, -16.2193621 ], [ 47.1812618, -16.2158731 ], [ 47.1824743, -16.212007 ], [ 47.181643, -16.2106804 ], [ 47.1798499, -16.2097564 ], [ 47.1785769, -16.2071186 ], [ 47.1773284, -16.205606 ], [ 47.1744575, -16.202854 ], [ 47.1740531, -16.2014061 ], [ 47.1726904, -16.2006186 ], [ 47.1722364, -16.1984914 ], [ 47.1720688, -16.1976314 ], [ 47.1702897, -16.1955652 ], [ 47.1688829, -16.1950535 ], [ 47.1682059, -16.1930524 ], [ 47.1697301, -16.1895564 ], [ 47.1697414, -16.1895508 ], [ 47.1697442, -16.1895443 ], [ 47.1718644, -16.1885098 ], [ 47.1711907, -16.1869008 ], [ 47.1712073, -16.1868945 ], [ 47.1712049, -16.1868888 ], [ 47.1727252, -16.1863072 ], [ 47.172115, -16.1839241 ], [ 47.1727065, -16.1816621 ], [ 47.1745024, -16.1789381 ], [ 47.1748635, -16.1761503 ], [ 47.174884, -16.1754482 ], [ 47.1749271, -16.1745194 ], [ 47.1743466, -16.1735741 ], [ 47.1722526, -16.1685406 ], [ 47.1711014, -16.1650548 ], [ 47.166128, -16.1590627 ], [ 47.164652, -16.1579049 ], [ 47.1620473, -16.1579793 ], [ 47.1591286, -16.1611455 ], [ 47.1591271, -16.1611437 ], [ 47.1591144, -16.1611575 ], [ 47.1577703, -16.1595467 ], [ 47.1575611, -16.1574146 ], [ 47.1567602, -16.1578054 ], [ 47.1560878, -16.156903 ], [ 47.1546839, -16.1570376 ], [ 47.1544753, -16.1550347 ], [ 47.1535961, -16.1525819 ], [ 47.1540567, -16.1507057 ], [ 47.1537864, -16.1499958 ], [ 47.1532475, -16.1490283 ], [ 47.1517758, -16.1489045 ], [ 47.1500983, -16.1474888 ], [ 47.1498848, -16.1442579 ], [ 47.1482085, -16.1431007 ], [ 47.1482015, -16.1413556 ], [ 47.1469971, -16.1411662 ], [ 47.146389100000015, -16.1396172 ], [ 47.1469838, -16.1378052 ], [ 47.1467492, -16.1370298 ], [ 47.1470726, -16.1358509 ], [ 47.1470388, -16.1348318 ], [ 47.1462303, -16.1332836 ], [ 47.1454881, -16.1316059 ], [ 47.1449449, -16.1295396 ], [ 47.1440734, -16.1289611 ], [ 47.1425983, -16.1279324 ], [ 47.1423908, -16.126188 ], [ 47.1416497, -16.1247688 ], [ 47.141641, -16.1225713 ], [ 47.1394958, -16.1211572 ], [ 47.1401588, -16.1197328 ], [ 47.1400874, -16.1185697 ], [ 47.1403508, -16.1175345 ], [ 47.1388737, -16.1159887 ], [ 47.1367217, -16.1128295 ], [ 47.1373161, -16.110953 ], [ 47.1405081, -16.1065461 ], [ 47.1394279, -16.1039001 ], [ 47.1406263, -16.102603 ], [ 47.1404875, -16.1013108 ], [ 47.1410112, -16.0998973 ], [ 47.1410223, -16.0998936 ], [ 47.1410254, -16.0998853 ], [ 47.1450767, -16.0985195 ], [ 47.1497114, -16.0965414 ], [ 47.1521864, -16.0955299 ], [ 47.1551101, -16.0939938 ], [ 47.160058, -16.0914913 ], [ 47.1619367, -16.0907913 ], [ 47.1622459, -16.0898827 ], [ 47.1622578, -16.0898772 ], [ 47.16226, -16.0898707 ], [ 47.1632799, -16.0893989 ], [ 47.1626105, -16.0879049 ], [ 47.1625896, -16.0879018 ], [ 47.1625963, -16.0879169 ], [ 47.1244483, -16.0824012 ], [ 47.1219662, -16.082042 ], [ 47.1194711, -16.082129 ], [ 47.1171059, -16.0828107 ], [ 47.1157308, -16.0840162 ], [ 47.1142055, -16.0859074 ], [ 47.1128195, -16.0877981 ], [ 47.1112956, -16.0900935 ], [ 47.110328, -16.0921174 ], [ 47.1090827, -16.0944117 ], [ 47.1079828, -16.0983219 ], [ 47.1071565, -16.1008841 ], [ 47.106887, -16.1033097 ], [ 47.1066164, -16.1054658 ], [ 47.1066261, -16.1080251 ], [ 47.1070735, -16.1158362 ], [ 47.1061067, -16.1181295 ], [ 47.1060961, -16.1181332 ], [ 47.1060926, -16.1181415 ], [ 47.1041443, -16.1188219 ], [ 47.1028892, -16.1185568 ], [ 47.1021899, -16.1178858 ], [ 47.1013453, -16.1155988 ], [ 47.1007789, -16.1131762 ], [ 47.1004912, -16.1107526 ], [ 47.100761800000015, -16.1085965 ], [ 47.1008905, -16.1057673 ], [ 47.1013, -16.103476 ], [ 47.1019876, -16.101049 ], [ 47.1028165, -16.0991602 ], [ 47.1030891, -16.0975429 ], [ 47.1030856, -16.0966 ], [ 47.1028019, -16.095254 ], [ 47.1022375, -16.0933702 ], [ 47.1008377, -16.0916239 ], [ 47.0994409, -16.0906859 ], [ 47.058852, -16.1146598 ], [ 47.039025, -16.1421965 ], [ 47.0390191, -16.142197 ], [ 47.0390108, -16.1422085 ], [ 47.0372045, -16.1423487 ], [ 47.035271, -16.1447678 ], [ 47.0340204, -16.1458493 ], [ 47.0340201, -16.1458494 ], [ 47.0340062, -16.1458614 ], [ 47.0317773, -16.1461378 ], [ 47.0153893, -16.159244 ], [ 47.014516, -16.1608392 ], [ 47.0145039, -16.1608474 ], [ 47.0145018, -16.1608513 ], [ 46.9620699, -16.1963962 ], [ 46.9603123, -16.1982377 ], [ 46.9573078, -16.2010153 ], [ 46.9554765, -16.2029376 ], [ 46.9554636, -16.2029482 ], [ 46.9554623, -16.2029496 ], [ 46.9539962, -16.2041607 ], [ 46.9520158, -16.2053733 ], [ 46.9499622, -16.2067281 ], [ 46.9477595, -16.2073732 ], [ 46.9446024, -16.2083049 ], [ 46.940492, -16.2099493 ], [ 46.9380883, -16.2112785 ], [ 46.9348667, -16.2136106 ], [ 46.9336196, -16.2146877 ], [ 46.9316771, -16.2154982 ], [ 46.9304281, -16.2159042 ], [ 46.9279257, -16.2152398 ], [ 46.926953, -16.2151081 ], [ 46.9258935, -16.2144144 ], [ 46.9239774, -16.2133205 ] ] ] ] } }
]
}
