{
"type": "FeatureCollection",
"name": "MDG-303702-2011-boundary_modification-001",
"crs": { "type": "name", "properties": { "name": "urn:ogc:def:crs:OGC:1.3:CRS84" } },
"features": [
{ "type": "Feature", "properties": { }, "geometry": { "type": "Polygon", "coordinates": [ [ [ 44.7890761, -18.5887294 ], [ 44.7926442, -18.5847643 ], [ 44.7937941, -18.5844799 ], [ 44.7984535, -18.586246 ], [ 44.7991202, -18.585747 ], [ 44.7994804, -18.5849929 ], [ 44.8022188, -18.5846804 ], [ 44.8032877, -18.583638 ], [ 44.8036026, -18.5830097 ], [ 44.8044412, -18.582975 ], [ 44.804752, -18.5827674 ], [ 44.8059019, -18.582483 ], [ 44.8068331, -18.5819863 ], [ 44.8072391, -18.5810643 ], [ 44.8074326, -18.579299 ], [ 44.8105776, -18.5779802 ], [ 44.8139367, -18.5773364 ], [ 44.815671099999989, -18.577151 ], [ 44.817208699999988, -18.5765656 ], [ 44.818298, -18.5763263 ], [ 44.820439, -18.5755419 ], [ 44.8223732, -18.5670181 ], [ 44.8130466, -18.5635966 ], [ 44.8113378, -18.5631356 ], [ 44.8089583, -18.5628624 ], [ 44.806986, -18.5615409 ], [ 44.806502, -18.5614105 ], [ 44.8057497, -18.5616563 ], [ 44.806198099999989, -18.560903 ], [ 44.8065344, -18.5580451 ], [ 44.8061071, -18.5566109 ], [ 44.8063516, -18.5495451 ], [ 44.8031071, -18.533782 ], [ 44.8038192, -18.5331151 ], [ 44.8045006, -18.5310596 ], [ 44.8033388, -18.526629 ], [ 44.803582599999984, -18.5256244 ], [ 44.8049141, -18.5247525 ], [ 44.8049635, -18.524206 ], [ 44.8055849, -18.5237908 ], [ 44.8054211, -18.5224851 ], [ 44.8042705, -18.51831 ], [ 44.8052236, -18.5154996 ], [ 44.8058243, -18.5080582 ], [ 44.8071233, -18.505966 ], [ 44.807402, -18.504496 ], [ 44.8093971, -18.5033775 ], [ 44.8114759, -18.5027224 ], [ 44.8137692, -18.5027003 ], [ 44.8152796, -18.5015355 ], [ 44.8158645, -18.5003205 ], [ 44.8163924, -18.5004513 ], [ 44.817061, -18.4996998 ], [ 44.8198317, -18.5004811 ], [ 44.8231768, -18.5011411 ], [ 44.8243661, -18.5012776 ], [ 44.8276715, -18.5014744 ], [ 44.8291326, -18.500856 ], [ 44.8302297, -18.5014123 ], [ 44.8301765, -18.5023795 ], [ 44.8343038, -18.5042662 ], [ 44.836505, -18.5046637 ], [ 44.8380881, -18.5051401 ], [ 44.8402912, -18.5053272 ], [ 44.8427491, -18.5065683 ], [ 44.8439033, -18.5104488 ], [ 44.8743169, -18.5025439 ], [ 44.8741634, -18.5000603 ], [ 44.8656898, -18.4864841 ], [ 44.8640736, -18.4848691 ], [ 44.8626752, -18.4834716 ], [ 44.8626984, -18.4818263 ], [ 44.8620821, -18.4808581 ], [ 44.8604768, -18.4790034 ], [ 44.8593377, -18.4772589 ], [ 44.8590423, -18.4758259 ], [ 44.8569971, -18.4729057 ], [ 44.8568426, -18.471762 ], [ 44.8557456, -18.4699921 ], [ 44.8536514, -18.4676184 ], [ 44.8527826, -18.4662227 ], [ 44.8527557, -18.4643713 ], [ 44.8522467, -18.4622213 ], [ 44.8523946, -18.4605397 ], [ 44.8521053, -18.4537216 ], [ 44.8512378, -18.4521997 ], [ 44.8507729, -18.4500501 ], [ 44.8509173, -18.4487471 ], [ 44.8521047, -18.4470766 ], [ 44.8520396, -18.4465688 ], [ 44.8499367, -18.4451627 ], [ 44.8464382, -18.4421459 ], [ 44.8427092, -18.4372501 ], [ 44.840387, -18.4340166 ], [ 44.8394331, -18.4323256 ], [ 44.8380892, -18.4299161 ], [ 44.835564, -18.4265708 ], [ 44.8335647, -18.4235667 ], [ 44.8299795, -18.4157948 ], [ 44.8293752, -18.4144433 ], [ 44.8272967, -18.4109614 ], [ 44.8244727, -18.4061973 ], [ 44.823075200000012, -18.404839 ], [ 44.8215463, -18.4033954 ], [ 44.8173452, -18.4010801 ], [ 44.8160277, -18.3997717 ], [ 44.8145086, -18.3973185 ], [ 44.8137354, -18.3952082 ], [ 44.8136965, -18.394661 ], [ 44.8134953, -18.3926398 ], [ 44.8132886, -18.3912076 ], [ 44.812593199999988, -18.3901919 ], [ 44.812386, -18.3888018 ], [ 44.8121484, -18.385981 ], [ 44.8106591, -18.3804147 ], [ 44.8100081, -18.3793573 ], [ 44.8087416, -18.3781683 ], [ 44.804687699999988, -18.3735474 ], [ 44.803992799999989, -18.3724895 ], [ 44.8038249, -18.3716046 ], [ 44.8037949, -18.3701319 ], [ 44.8038002, -18.369585 ], [ 44.803066, -18.368022 ], [ 44.8025594, -18.3657037 ], [ 44.8010339, -18.3639655 ], [ 44.8005986, -18.3634148 ], [ 44.799236, -18.3630663 ], [ 44.798436, -18.3623955 ], [ 44.7981447, -18.362005 ], [ 44.7978383, -18.361792 ], [ 44.7974494, -18.3609893 ], [ 44.7978616, -18.3593521 ], [ 44.7975589, -18.3587605 ], [ 44.7966794, -18.3585845 ], [ 44.7953973, -18.3590361 ], [ 44.7924181, -18.3572851 ], [ 44.7908385, -18.356014 ], [ 44.7901903, -18.3552883 ], [ 44.7879691, -18.3526184 ], [ 44.7875876, -18.3510584 ], [ 44.7866362, -18.349199 ], [ 44.7857819, -18.3464148 ], [ 44.7851741, -18.3460521 ], [ 44.7847271, -18.3461531 ], [ 44.7829206, -18.3461793 ], [ 44.7808514, -18.3460348 ], [ 44.7770264, -18.3451971 ], [ 44.776189599999988, -18.3451944 ], [ 44.7744325, -18.344674 ], [ 44.7727263, -18.3434388 ], [ 44.7713351, -18.3415333 ], [ 44.7695691, -18.3373948 ], [ 44.7687711, -18.3333911 ], [ 44.7668102, -18.331186 ], [ 44.7660786, -18.3294126 ], [ 44.7658682, -18.328401 ], [ 44.7662444, -18.3259643 ], [ 44.7666074, -18.3248737 ], [ 44.7668309, -18.3245391 ], [ 44.7672298, -18.3242903 ], [ 44.7691251, -18.3196373 ], [ 44.7702336, -18.3188899 ], [ 44.7733514, -18.3198851 ], [ 44.7745426, -18.3196853 ], [ 44.7754745, -18.3189783 ], [ 44.7760144, -18.3178051 ], [ 44.7756731, -18.3166662 ], [ 44.7750218, -18.3156928 ], [ 44.7749002, -18.3145979 ], [ 44.7750013, -18.3132526 ], [ 44.7753075, -18.3089221 ], [ 44.7757121, -18.3080842 ], [ 44.7757651, -18.3071592 ], [ 44.7781277, -18.3042351 ], [ 44.7783323, -18.301292 ], [ 44.7791413, -18.2996163 ], [ 44.7794201, -18.2981042 ], [ 44.779741, -18.2968029 ], [ 44.7808598, -18.2949616 ], [ 44.7810461, -18.2939115 ], [ 44.779764299999989, -18.2898194 ], [ 44.7796044, -18.2881352 ], [ 44.7802702, -18.2875942 ], [ 44.7804548, -18.2867123 ], [ 44.781528, -18.2849966 ], [ 44.7825525, -18.2838279 ], [ 44.783571, -18.2832479 ], [ 44.7841426, -18.283337 ], [ 44.7845826, -18.2833829 ], [ 44.7851587, -18.2830094 ], [ 44.7868967, -18.280879 ], [ 44.787293, -18.2808825 ], [ 44.7882674, -18.280302 ], [ 44.7892358, -18.2803526 ], [ 44.7900236, -18.2808643 ], [ 44.7916573, -18.2804158 ], [ 44.7920972, -18.2804617 ], [ 44.7924051, -18.2805065 ], [ 44.7938498, -18.2814025 ], [ 44.7942457, -18.2814481 ], [ 44.7946849, -18.2815781 ], [ 44.7975752, -18.2832861 ], [ 44.799114, -18.2835519 ], [ 44.800431099999983, -18.283984 ], [ 44.8021797, -18.2853455 ], [ 44.8031946, -18.2851439 ], [ 44.8031565, -18.2845125 ], [ 44.8027694, -18.2835415 ], [ 44.802911500000015, -18.282491 ], [ 44.8054459, -18.2799467 ], [ 44.8056304, -18.2790648 ], [ 44.8054627, -18.2781798 ], [ 44.806448, -18.2717937 ], [ 44.8050993, -18.2700571 ], [ 44.8021247, -18.2679699 ], [ 44.7993202, -18.2665151 ], [ 44.7976014, -18.2666685 ], [ 44.7961091, -18.2661507 ], [ 44.7943479, -18.2661353 ], [ 44.7921354, -18.267252 ], [ 44.7898002, -18.2673999 ], [ 44.78663430000001, -18.2669094 ], [ 44.7836733, -18.2680194 ], [ 44.7809918, -18.2675331 ], [ 44.7768961, -18.2675812 ], [ 44.7741844, -18.2656641 ], [ 44.7742398, -18.2644867 ], [ 44.7731121, -18.2627098 ], [ 44.7736074, -18.2615783 ], [ 44.7737081, -18.260275 ], [ 44.7583572, -18.2224025 ], [ 44.7223478, -18.2532522 ], [ 44.7024627, -18.2603482 ], [ 44.5961722, -18.2603493 ], [ 44.597854600000012, -18.2636049 ], [ 44.597976300000013, -18.2645736 ], [ 44.5970436, -18.2653217 ], [ 44.5970405, -18.2656161 ], [ 44.596905199999988, -18.2659093 ], [ 44.5978262, -18.2662548 ], [ 44.5975481, -18.2675562 ], [ 44.5936462, -18.2700841 ], [ 44.5921815, -18.2711635 ], [ 44.5918611, -18.2722961 ], [ 44.5922707, -18.2751607 ], [ 44.5921722, -18.2761272 ], [ 44.5921937, -18.2782308 ], [ 44.5931987, -18.2789558 ], [ 44.5930036, -18.2807207 ], [ 44.592246, -18.2815546 ], [ 44.5903382, -18.282882 ], [ 44.5890832, -18.2849309 ], [ 44.5884681, -18.2847987 ], [ 44.586774, -18.2826366 ], [ 44.5854985, -18.2824979 ], [ 44.58302, -18.2836513 ], [ 44.5808988, -18.2843455 ], [ 44.5803255, -18.284424 ], [ 44.579621, -18.284417 ], [ 44.5788793, -18.2837787 ], [ 44.5786292, -18.2824722 ], [ 44.5773142, -18.2819123 ], [ 44.5768735, -18.28195 ], [ 44.5754631, -18.2820623 ], [ 44.5767663, -18.2837158 ], [ 44.5783431, -18.2850707 ], [ 44.5800367, -18.2866927 ], [ 44.5822637, -18.2884395 ], [ 44.5843073, -18.2908574 ], [ 44.5851694, -18.2925906 ], [ 44.5863279, -18.2954205 ], [ 44.5865644, -18.2979889 ], [ 44.5861431, -18.3002984 ], [ 44.5833711, -18.3053953 ], [ 44.5830828, -18.3063679 ], [ 44.5831132, -18.3076302 ], [ 44.5835022, -18.3083071 ], [ 44.5853781, -18.3099662 ], [ 44.5877911, -18.3108313 ], [ 44.590852, -18.3128806 ], [ 44.5942927, -18.3164901 ], [ 44.5945397, -18.318091 ], [ 44.5966294, -18.3244636 ], [ 44.598090299999988, -18.3266289 ], [ 44.5994362, -18.3297074 ], [ 44.60029, -18.3322398 ], [ 44.6003142, -18.334091 ], [ 44.600255499999989, -18.3395592 ], [ 44.601168099999988, -18.3448265 ], [ 44.6016425, -18.3498792 ], [ 44.602275700000014, -18.3524515 ], [ 44.6033539, -18.3546074 ], [ 44.6061426, -18.3533727 ], [ 44.6118716, -18.351661 ], [ 44.6144082, -18.3508029 ], [ 44.6197012, -18.3501812 ], [ 44.621269100000013, -18.3518791 ], [ 44.6218688, -18.3540503 ], [ 44.6221656, -18.3545801 ], [ 44.6229465, -18.3557235 ], [ 44.6230706, -18.3564819 ], [ 44.6234101, -18.3577051 ], [ 44.623352600000011, -18.3589666 ], [ 44.6237372, -18.3607212 ], [ 44.6241237, -18.3610354 ], [ 44.6241472, -18.3629707 ], [ 44.6229008, -18.3641786 ], [ 44.6207306, -18.3652514 ], [ 44.619044500000015, -18.3663708 ], [ 44.6170348, -18.3689175 ], [ 44.6165278, -18.3710159 ], [ 44.6154624, -18.3717628 ], [ 44.6137415, -18.3719984 ], [ 44.6127638, -18.3727882 ], [ 44.6124846, -18.3741737 ], [ 44.6122014, -18.3800604 ], [ 44.6125741, -18.3822936 ], [ 44.6134881, -18.3833542 ], [ 44.6129307, -18.3860411 ], [ 44.610714699999988, -18.3872394 ], [ 44.6081184, -18.3869196 ], [ 44.6078009, -18.3877579 ], [ 44.60797, -18.3884326 ], [ 44.6067777, -18.3886734 ], [ 44.6056649, -18.3897142 ], [ 44.605610500000012, -18.3906812 ], [ 44.6044954, -18.3919323 ], [ 44.6062375, -18.3938424 ], [ 44.6076011, -18.3939117 ], [ 44.6082598, -18.3942828 ], [ 44.6093199, -18.3940408 ], [ 44.6098032, -18.3941717 ], [ 44.6088767, -18.3955345 ], [ 44.6093442, -18.395892 ], [ 44.6104183, -18.3957373 ], [ 44.6117608, -18.3965465 ], [ 44.6132364, -18.3986643 ], [ 44.6160851, -18.4001223 ], [ 44.6168355, -18.4000034 ], [ 44.6174501, -18.4002198 ], [ 44.6180252, -18.400015 ], [ 44.6183395, -18.3994712 ], [ 44.6193996, -18.3992291 ], [ 44.6197459, -18.3998214 ], [ 44.620761099999989, -18.4003477 ], [ 44.6215461, -18.4004278 ], [ 44.6218928, -18.400978 ], [ 44.6222012, -18.4011409 ], [ 44.622998, -18.4006522 ], [ 44.6239246, -18.400535 ], [ 44.6250658, -18.4009667 ], [ 44.6256742, -18.4017719 ], [ 44.6255668, -18.4035798 ], [ 44.6262215, -18.4041751 ], [ 44.6293939, -18.4125352 ], [ 44.6307937, -18.417681 ], [ 44.6321442, -18.4191664 ], [ 44.632134, -18.4201339 ], [ 44.633724, -18.4198126 ], [ 44.6342888, -18.4205753 ], [ 44.6345007, -18.4213766 ], [ 44.6340872, -18.4229712 ], [ 44.6340047, -18.4257012 ], [ 44.6346151, -18.4313899 ], [ 44.6342888, -18.4330695 ], [ 44.6344927, -18.434628 ], [ 44.6360009, -18.4378818 ], [ 44.6363909, -18.4426813 ], [ 44.6358836, -18.4442312 ], [ 44.6351698, -18.4456143 ], [ 44.6338796, -18.4467377 ], [ 44.6338649, -18.4481258 ], [ 44.6351323, -18.4491477 ], [ 44.6370459, -18.4516061 ], [ 44.63791, -18.453255 ], [ 44.6388668, -18.4544842 ], [ 44.6388308, -18.4578914 ], [ 44.6392146, -18.4591151 ], [ 44.6391202, -18.4597031 ], [ 44.6377921, -18.4602372 ], [ 44.6377823, -18.4611626 ], [ 44.6383994, -18.4611686 ], [ 44.6404319, -18.4607254 ], [ 44.6409141, -18.4609824 ], [ 44.6412534, -18.4622478 ], [ 44.6408304, -18.4645041 ], [ 44.6410878, -18.4654013 ], [ 44.6424084, -18.4655823 ], [ 44.64448860000001, -18.4648029 ], [ 44.6455034, -18.4647285 ], [ 44.6459326, -18.4658264 ], [ 44.6456522, -18.4673382 ], [ 44.6444452, -18.4689252 ], [ 44.6418702, -18.4706253 ], [ 44.6397664, -18.4736339 ], [ 44.6398016, -18.4744756 ], [ 44.6407656, -18.4750318 ], [ 44.6413765, -18.4756266 ], [ 44.641136599999982, -18.4774753 ], [ 44.6421402, -18.4784526 ], [ 44.643896, -18.4791846 ], [ 44.6446045, -18.478897 ], [ 44.6448805, -18.4778058 ], [ 44.6459848, -18.4776061 ], [ 44.6474325, -18.4782931 ], [ 44.6486258, -18.47801 ], [ 44.6490609, -18.4785611 ], [ 44.6492641, -18.4802037 ], [ 44.6512275, -18.4821577 ], [ 44.6506874, -18.4832042 ], [ 44.6475308, -18.4856981 ], [ 44.6476978, -18.4865831 ], [ 44.6496283, -18.4874851 ], [ 44.6510911, -18.4867418 ], [ 44.6519786, -18.4862034 ], [ 44.652501, -18.4868395 ], [ 44.6551244, -18.4931328 ], [ 44.6551134, -18.4941844 ], [ 44.6559431, -18.4949495 ], [ 44.6559763, -18.4965043 ], [ 44.6561, -18.4968021 ], [ 44.6563407, -18.4990761 ], [ 44.653805, -18.5054042 ], [ 44.6541431, -18.5067957 ], [ 44.6541691, -18.5085207 ], [ 44.6543326, -18.5097423 ], [ 44.655166799999989, -18.5100868 ], [ 44.6564001, -18.5102248 ], [ 44.657493099999989, -18.5111187 ], [ 44.6573606, -18.5113273 ], [ 44.6574437, -18.5116231 ], [ 44.6570301, -18.5132177 ], [ 44.6564529, -18.5135908 ], [ 44.6550803, -18.5141246 ], [ 44.6551592, -18.5150088 ], [ 44.6560812, -18.5153962 ], [ 44.6563356, -18.5163662 ], [ 44.6573312, -18.5181426 ], [ 44.6579718, -18.520126 ], [ 44.6588303, -18.5223638 ], [ 44.6602286, -18.5235972 ], [ 44.6615903, -18.524115 ], [ 44.6618972, -18.5284931 ], [ 44.6627302, -18.5289638 ], [ 44.6635187, -18.5294761 ], [ 44.663419, -18.5305689 ], [ 44.6630618, -18.5309862 ], [ 44.6634081, -18.5358275 ], [ 44.664436, -18.53874 ], [ 44.6644048, -18.5417266 ], [ 44.6640754, -18.5437007 ], [ 44.6640988, -18.549885 ], [ 44.663869, -18.5507663 ], [ 44.6649191, -18.5515756 ], [ 44.6656543, -18.5529709 ], [ 44.6650695, -18.5540591 ], [ 44.6646541, -18.5558221 ], [ 44.6644627, -18.5572506 ], [ 44.6648486, -18.558306 ], [ 44.6662992, -18.5587826 ], [ 44.667936, -18.5583354 ], [ 44.6686399, -18.5585104 ], [ 44.6683978, -18.5605694 ], [ 44.6691357, -18.5617123 ], [ 44.6709776, -18.5627395 ], [ 44.6725374, -18.5654467 ], [ 44.6724559, -18.5690218 ], [ 44.6726122, -18.5709585 ], [ 44.6744283, -18.5744675 ], [ 44.6748628, -18.5751026 ], [ 44.6760402, -18.5764179 ], [ 44.678071, -18.5762689 ], [ 44.6792585, -18.5766167 ], [ 44.6797371, -18.5772522 ], [ 44.6795755, -18.5800693 ], [ 44.6799056, -18.5822601 ], [ 44.6807673, -18.5842455 ], [ 44.6826515, -18.5854833 ], [ 44.6844562, -18.585879 ], [ 44.6848453, -18.5866399 ], [ 44.6843046, -18.5877286 ], [ 44.6830197, -18.5882633 ], [ 44.6817832, -18.5883779 ], [ 44.6807974, -18.589841 ], [ 44.6795914, -18.5912599 ], [ 44.6773263, -18.5927109 ], [ 44.6771794, -18.5940978 ], [ 44.677613099999981, -18.5948171 ], [ 44.6796874, -18.5947526 ], [ 44.680036, -18.5951766 ], [ 44.6796655, -18.5968559 ], [ 44.6796039, -18.598538 ], [ 44.6805176, -18.5997667 ], [ 44.6821386, -18.6008758 ], [ 44.6826579, -18.6018483 ], [ 44.6847082, -18.6040974 ], [ 44.6844658, -18.6061986 ], [ 44.6834637, -18.6092181 ], [ 44.6814407, -18.6128169 ], [ 44.6808016, -18.6148723 ], [ 44.6775795, -18.614968 ], [ 44.6764717, -18.6154202 ], [ 44.6761064, -18.6165947 ], [ 44.6767118, -18.6177784 ], [ 44.6787269, -18.6191858 ], [ 44.6796804, -18.6208355 ], [ 44.6824138, -18.6210718 ], [ 44.684390099999987, -18.6219739 ], [ 44.6861978, -18.6221172 ], [ 44.6873481, -18.6218336 ], [ 44.6883188, -18.6218427 ], [ 44.688978, -18.6221013 ], [ 44.6901212, -18.6224907 ], [ 44.691932, -18.6223395 ], [ 44.6928516, -18.6230213 ], [ 44.6934243, -18.6231108 ], [ 44.6952399, -18.6224968 ], [ 44.6971385, -18.6223884 ], [ 44.6982843, -18.6225254 ], [ 44.699779299999989, -18.6230442 ], [ 44.6923833, -18.6592468 ], [ 44.6981357, -18.6839038 ], [ 44.6972014, -18.6846102 ], [ 44.6973637, -18.6851227 ], [ 44.6976289, -18.6859605 ], [ 44.6989037, -18.6864773 ], [ 44.6995969, -18.6877459 ], [ 44.7002555, -18.6880886 ], [ 44.7018171, -18.6892577 ], [ 44.702967, -18.6905541 ], [ 44.7046188, -18.6930517 ], [ 44.7051433, -18.6935615 ], [ 44.705234399999988, -18.6946468 ], [ 44.7062217, -18.6960117 ], [ 44.7057209, -18.6974794 ], [ 44.7052327, -18.6977273 ], [ 44.7042317, -18.7006207 ], [ 44.702702500000015, -18.7033409 ], [ 44.7025405, -18.7062002 ], [ 44.7036177, -18.7087765 ], [ 44.7054562, -18.7103083 ], [ 44.708133, -18.71189 ], [ 44.70953140000001, -18.7132913 ], [ 44.7095565, -18.7151427 ], [ 44.7093245, -18.7162343 ], [ 44.7082455, -18.7181174 ], [ 44.7068652, -18.7192404 ], [ 44.7059718, -18.720833 ], [ 44.7055584, -18.7217944 ], [ 44.7055471, -18.7228881 ], [ 44.7065863, -18.7248751 ], [ 44.7067804, -18.7270277 ], [ 44.7062173, -18.7306774 ], [ 44.7061769, -18.7345895 ], [ 44.7042637, -18.740251 ], [ 44.7042079, -18.7436544 ], [ 44.7127467, -18.7565061 ], [ 44.7132528, -18.7572174 ], [ 44.7124422, -18.7587932 ], [ 44.7125438, -18.7595126 ], [ 44.7132365, -18.7608653 ], [ 44.7133439, -18.7633064 ], [ 44.7128849, -18.7649849 ], [ 44.7128282, -18.7662044 ], [ 44.713998, -18.768403 ], [ 44.714653, -18.7693344 ], [ 44.7147341, -18.7698403 ], [ 44.714066, -18.770381 ], [ 44.7139738, -18.7707588 ], [ 44.7143231, -18.7754318 ], [ 44.715759800000015, -18.7774646 ], [ 44.7163162, -18.7791947 ], [ 44.716346, -18.7805833 ], [ 44.7175043, -18.7839177 ], [ 44.7179845, -18.7844691 ], [ 44.7186016, -18.784601 ], [ 44.7187735, -18.7850654 ], [ 44.7180625, -18.7854795 ], [ 44.7177914, -18.786066 ], [ 44.7176472, -18.7872005 ], [ 44.7180396, -18.787709 ], [ 44.7178525, -18.788717 ], [ 44.718286, -18.7895203 ], [ 44.719336, -18.7904978 ], [ 44.7192434, -18.7909176 ], [ 44.7185949, -18.7910346 ], [ 44.718224, -18.7912447 ], [ 44.7181305, -18.7917486 ], [ 44.717778, -18.7916612 ], [ 44.7173844, -18.7912789 ], [ 44.7169834, -18.7916117 ], [ 44.7171389, -18.7936746 ], [ 44.717397, -18.7943502 ], [ 44.7178066, -18.7974672 ], [ 44.7150412, -18.8000497 ], [ 44.7153707, -18.8023667 ], [ 44.7163646, -18.8045216 ], [ 44.716656, -18.8062492 ], [ 44.7166408, -18.8077215 ], [ 44.7179803, -18.8106369 ], [ 44.7178829, -18.8115194 ], [ 44.718587, -18.8117784 ], [ 44.7185286, -18.8131662 ], [ 44.7219101, -18.815133 ], [ 44.7218684, -18.8181457 ], [ 44.7221821, -18.8187536 ], [ 44.7227122, -18.8187586 ], [ 44.723474, -18.8177139 ], [ 44.723997900000015, -18.8173888 ], [ 44.7243995, -18.8179329 ], [ 44.724156199999989, -18.8201183 ], [ 44.7246422, -18.8201228 ], [ 44.725332400000013, -18.8196933 ], [ 44.7256145, -18.8200898 ], [ 44.7251095, -18.8219362 ], [ 44.722757500000014, -18.8272572 ], [ 44.7246965, -18.8277381 ], [ 44.725128, -18.8287518 ], [ 44.724985899999986, -18.829676 ], [ 44.7246685, -18.8304724 ], [ 44.7248288, -18.8320726 ], [ 44.7251303, -18.8328327 ], [ 44.7255682, -18.8332154 ], [ 44.7270573, -18.8344913 ], [ 44.7273571, -18.8354197 ], [ 44.7279653, -18.836435 ], [ 44.727867, -18.8374018 ], [ 44.7278574, -18.8381842 ], [ 44.7281196, -18.8386242 ], [ 44.7293844, -18.8402346 ], [ 44.7294679, -18.8410509 ], [ 44.7298554, -18.8417114 ], [ 44.7312644, -18.8421873 ], [ 44.7318783, -18.8426558 ], [ 44.7320858, -18.8439619 ], [ 44.7311481, -18.8449208 ], [ 44.7314955, -18.845513 ], [ 44.7321501, -18.8463185 ], [ 44.7322256, -18.8475813 ], [ 44.7334905, -18.8491917 ], [ 44.7334421, -18.849612 ], [ 44.7328591, -18.850448 ], [ 44.7328496, -18.8513734 ], [ 44.7330052, -18.8534363 ], [ 44.7339004, -18.856642 ], [ 44.7341428, -18.858874 ], [ 44.7349851, -18.861246 ], [ 44.7323152, -18.8604137 ], [ 44.7316035, -18.8608699 ], [ 44.7306591, -18.8624598 ], [ 44.7300944, -18.8627617 ], [ 44.7292785, -18.8634987 ], [ 44.7283043, -18.8637 ], [ 44.7250352, -18.8635855 ], [ 44.724589, -18.864002 ], [ 44.7244916, -18.8648846 ], [ 44.7271577, -18.8677702 ], [ 44.7276395, -18.8677105 ], [ 44.7288905, -18.8668608 ], [ 44.7294663, -18.8667399 ], [ 44.729631399999988, -18.8678774 ], [ 44.7305854, -18.8696532 ], [ 44.730735, -18.8723051 ], [ 44.7310747, -18.8736545 ], [ 44.7309782, -18.874453 ], [ 44.7298279, -18.8745685 ], [ 44.7289835, -18.8750234 ], [ 44.7287531, -18.8759468 ], [ 44.728214099999988, -18.8767832 ], [ 44.7280287, -18.8776229 ], [ 44.7286383, -18.8785121 ], [ 44.7287215, -18.8790177 ], [ 44.7296886, -18.8795315 ], [ 44.7312306, -18.8800087 ], [ 44.731403400000012, -18.8803889 ], [ 44.7311734, -18.8812703 ], [ 44.7313411, -18.8821553 ], [ 44.7316445, -18.8827471 ], [ 44.7315461, -18.8837138 ], [ 44.7307459, -18.8841692 ], [ 44.7300318, -18.884321 ], [ 44.7302499, -18.8851322 ], [ 44.7312161, -18.8857302 ], [ 44.731434, -18.8860267 ], [ 44.7315155, -18.8867006 ], [ 44.7322174, -18.8872119 ], [ 44.7322036, -18.8885581 ], [ 44.7332913, -18.890251 ], [ 44.7330656, -18.8907117 ], [ 44.7320829, -18.8917123 ], [ 44.7319868, -18.8924687 ], [ 44.7326788, -18.8939476 ], [ 44.7323127, -18.8951642 ], [ 44.7323037, -18.8960476 ], [ 44.7326499, -18.8967661 ], [ 44.7325117, -18.8973117 ], [ 44.7320589, -18.8983593 ], [ 44.7291502, -18.9018241 ], [ 44.7293184, -18.9026671 ], [ 44.7281246, -18.902698 ], [ 44.7265144, -18.9045341 ], [ 44.7261045, -18.9057083 ], [ 44.726224500000015, -18.9069295 ], [ 44.7265651, -18.9081948 ], [ 44.7343174, -18.9211768 ], [ 44.7606633, -19.0088484 ], [ 44.7781511, -19.0523583 ], [ 44.8141818, -19.1107276 ], [ 44.8139784, -19.1118591 ], [ 44.8141562, -19.1121831 ], [ 44.8143362, -19.1122707 ], [ 44.8150125, -19.1124917 ], [ 44.8154426, -19.1124525 ], [ 44.8156685, -19.112476 ], [ 44.8158473, -19.1126926 ], [ 44.8160265, -19.1128662 ], [ 44.815991, -19.1131038 ], [ 44.8160214, -19.113382 ], [ 44.816041, -19.1136832 ], [ 44.8162399, -19.1141579 ], [ 44.8166423, -19.1146344 ], [ 44.8172002, -19.1153917 ], [ 44.8171307, -19.1155631 ], [ 44.817151, -19.1157997 ], [ 44.8172617, -19.1160372 ], [ 44.8173724, -19.1162746 ], [ 44.8174578, -19.1167913 ], [ 44.8174333, -19.1169846 ], [ 44.8175865, -19.1175019 ], [ 44.8177397, -19.1180192 ], [ 44.8178481, -19.1184931 ], [ 44.8179113, -19.1189666 ], [ 44.81795, -19.1196333 ], [ 44.8177482, -19.1203591 ], [ 44.8177803, -19.1207926 ], [ 44.8177539, -19.1211793 ], [ 44.81775, -19.1215663 ], [ 44.8176767, -19.1221245 ], [ 44.8177177, -19.1225548 ], [ 44.8177141, -19.1229202 ], [ 44.817709, -19.1234361 ], [ 44.8175124, -19.1240487 ], [ 44.817224, -19.1244637 ], [ 44.8171884, -19.1257747 ], [ 44.8173602, -19.1267006 ], [ 44.8176029, -19.1273261 ], [ 44.8176899, -19.1276709 ], [ 44.8175509, -19.1280084 ], [ 44.8175249, -19.1283573 ], [ 44.8173824, -19.1290439 ], [ 44.817491, -19.1294963 ], [ 44.8177558, -19.1301651 ], [ 44.8178203, -19.1305096 ], [ 44.8169999, -19.1320416 ], [ 44.8150603, -19.1322962 ], [ 44.8141676, -19.1332287 ], [ 44.8130018, -19.1336649 ], [ 44.8122134, -19.1342861 ], [ 44.8118748, -19.1363656 ], [ 44.8114008, -19.1378393 ], [ 44.8120847, -19.1391623 ], [ 44.8122204, -19.1407352 ], [ 44.8120677, -19.1418759 ], [ 44.8132571, -19.1457239 ], [ 44.813296, -19.1466496 ], [ 44.8128884, -19.1475716 ], [ 44.8141688, -19.1479196 ], [ 44.820275, -19.1617317 ], [ 44.8210424, -19.1625871 ], [ 44.8215711, -19.1629102 ], [ 44.8221269, -19.1625055 ], [ 44.8220884, -19.1619161 ], [ 44.8213445, -19.161026 ], [ 44.8208691, -19.1598437 ], [ 44.821099599999989, -19.1589202 ], [ 44.822519500000013, -19.1585962 ], [ 44.8230892, -19.1591903 ], [ 44.8237736, -19.1616366 ], [ 44.8241016, -19.1644561 ], [ 44.824804199999988, -19.1648853 ], [ 44.8253827, -19.1645959 ], [ 44.8254435, -19.1629136 ], [ 44.8249598, -19.1625727 ], [ 44.8248398, -19.1612674 ], [ 44.8255051, -19.1611471 ], [ 44.8268249, -19.1620002 ], [ 44.8279541, -19.1642401 ], [ 44.8288751, -19.1651317 ], [ 44.8294523, -19.1649686 ], [ 44.8297381, -19.1629095 ], [ 44.8310683, -19.1627109 ], [ 44.8320361, -19.1633505 ], [ 44.8332613, -19.1648339 ], [ 44.8344738, -19.1676214 ], [ 44.8352301, -19.1672494 ], [ 44.8360483, -19.1650688 ], [ 44.8378266, -19.1643272 ], [ 44.8383677, -19.1633222 ], [ 44.8381996, -19.1623951 ], [ 44.8384336, -19.1610929 ], [ 44.8372458, -19.1599942 ], [ 44.8374753, -19.1594857 ], [ 44.8378699, -19.1593883 ], [ 44.8391128, -19.1595422 ], [ 44.8393387, -19.1590814 ], [ 44.8398703, -19.1590439 ], [ 44.8404152, -19.159658 ], [ 44.8405193, -19.1606063 ], [ 44.8425418, -19.1620546 ], [ 44.8439417, -19.1637918 ], [ 44.8447154, -19.1661968 ], [ 44.844907, -19.1698762 ], [ 44.8863788, -19.1756026 ], [ 44.9230492, -19.1555899 ], [ 44.9312216, -19.1479161 ], [ 44.9311862, -19.1469481 ], [ 44.9298697, -19.145675 ], [ 44.9299205, -19.1449602 ], [ 44.930635, -19.1442929 ], [ 44.9320993, -19.1439263 ], [ 44.934089, -19.1441952 ], [ 44.934940399999988, -19.1430663 ], [ 44.9356221, -19.1411365 ], [ 44.9363773, -19.1408482 ], [ 44.937170699999989, -19.1412334 ], [ 44.9377797, -19.1424165 ], [ 44.939239, -19.1425968 ], [ 44.9398171, -19.142307 ], [ 44.9407433, -19.1426933 ], [ 44.9418038, -19.1429124 ], [ 44.9437512, -19.1429704 ], [ 44.9456035, -19.1437429 ], [ 44.9468007, -19.1435424 ], [ 44.9473433, -19.1422846 ], [ 44.9479519, -19.1386291 ], [ 44.9487113, -19.137878 ], [ 44.9498586, -19.1333854 ], [ 44.9493083, -19.130604 ], [ 44.9491052, -19.1285828 ], [ 44.9488041, -19.1276126 ], [ 44.94735390000001, -19.1268956 ], [ 44.9471358, -19.1260843 ], [ 44.9477677, -19.1247431 ], [ 44.9485384, -19.1236502 ], [ 44.9487166, -19.1226051 ], [ 44.948591099999987, -19.1218046 ], [ 44.9477199, -19.1202408 ], [ 44.9472156, -19.1191403 ], [ 44.9471162, -19.1184687 ], [ 44.9474772, -19.1177143 ], [ 44.9496661, -19.1155023 ], [ 44.9526656, -19.11174 ], [ 44.9540902, -19.110826 ], [ 44.9544504, -19.1101557 ], [ 44.955128, -19.1100668 ], [ 44.9576056, -19.1087508 ], [ 44.959197, -19.1089741 ], [ 44.9607108, -19.1079766 ], [ 44.962994, -19.1050919 ], [ 44.9635329, -19.1042127 ], [ 44.9637182, -19.1032886 ], [ 44.9632855, -19.1021911 ], [ 44.9640033, -19.101103 ], [ 44.9641444, -19.1001785 ], [ 44.9636223, -19.0991645 ], [ 44.9618918, -19.0984772 ], [ 44.9610229, -19.0978392 ], [ 44.960107899999983, -19.096233 ], [ 44.959806400000012, -19.0953049 ], [ 44.9589258, -19.0947929 ], [ 44.954898700000015, -19.0947602 ], [ 44.9537083, -19.0942456 ], [ 44.9534579, -19.0925606 ], [ 44.9549452, -19.0895854 ], [ 44.9551763, -19.0884934 ], [ 44.9564611, -19.0883355 ], [ 44.9579736, -19.0874642 ], [ 44.9584646, -19.0870054 ], [ 44.9588265, -19.0861247 ], [ 44.9584254, -19.0814933 ], [ 44.9586074, -19.0809478 ], [ 44.9599989, -19.080782 ], [ 44.9602522, -19.0801196 ], [ 44.9601761, -19.0787306 ], [ 44.959611, -19.07759 ], [ 44.957993, -19.0754311 ], [ 44.9564064, -19.074703 ], [ 44.9547685, -19.0747738 ], [ 44.9532141, -19.0753923 ], [ 44.9516646, -19.0754639 ], [ 44.9503844, -19.0751169 ], [ 44.949816, -19.0743549 ], [ 44.9485328, -19.0743444 ], [ 44.9480865, -19.0747615 ], [ 44.9465813, -19.0748334 ], [ 44.9442399, -19.0743935 ], [ 44.9427884, -19.0734139 ], [ 44.9408175, -19.0711679 ], [ 44.9403422, -19.0699018 ], [ 44.940227, -19.0679654 ], [ 44.9384728, -19.066226 ], [ 44.9382584, -19.0654669 ], [ 44.940494, -19.0629187 ], [ 44.9409002, -19.0620909 ], [ 44.940259, -19.0595509 ], [ 44.9407378, -19.0588501 ], [ 44.9405825, -19.0580388 ], [ 44.9400563, -19.0574362 ], [ 44.9397167, -19.055928 ], [ 44.939738, -19.0535721 ], [ 44.9399733, -19.0520173 ], [ 44.9404512, -19.0516235 ], [ 44.9397216, -19.0505005 ], [ 44.9379214, -19.0489711 ], [ 44.9371377, -19.0475762 ], [ 44.9369382, -19.0451764 ], [ 44.9371228, -19.0443364 ], [ 44.920463, -19.0469758 ], [ 44.8944484, -19.0563507 ], [ 44.9023418, -19.0687448 ], [ 44.8990213, -19.0689272 ], [ 44.8981325, -19.0693404 ], [ 44.8964487, -19.0695787 ], [ 44.8951577, -19.0704092 ], [ 44.894752, -19.0712052 ], [ 44.893728, -19.0718697 ], [ 44.8934152, -19.0723023 ], [ 44.8926136, -19.0727438 ], [ 44.8923261, -19.0750975 ], [ 44.8914352, -19.0757211 ], [ 44.8900607, -19.0760039 ], [ 44.8893038, -19.0765024 ], [ 44.8890328, -19.0770891 ], [ 44.8891615, -19.077511 ], [ 44.8891955, -19.0786052 ], [ 44.8884314, -19.0798609 ], [ 44.888384, -19.0801971 ], [ 44.8886432, -19.0808724 ], [ 44.8885041, -19.0815444 ], [ 44.8869021, -19.0824985 ], [ 44.8841147, -19.0824327 ], [ 44.8828299, -19.0825901 ], [ 44.8810619, -19.0823646 ], [ 44.8797304, -19.082774 ], [ 44.8775175, -19.0827972 ], [ 44.8747393, -19.0817636 ], [ 44.8732333, -19.081919 ], [ 44.8723451, -19.082248 ], [ 44.8720716, -19.0830871 ], [ 44.871157, -19.0838396 ], [ 44.8691391, -19.0843241 ], [ 44.8682054, -19.0847789 ], [ 44.8651988, -19.0845006 ], [ 44.8635974, -19.0853703 ], [ 44.8626235, -19.085404 ], [ 44.8601966, -19.0846678 ], [ 44.8595807, -19.0842838 ], [ 44.8587774, -19.0849921 ], [ 44.8585923, -19.0858319 ], [ 44.8581007, -19.0863326 ], [ 44.8575641, -19.0869169 ], [ 44.8563198, -19.0874531 ], [ 44.8548602, -19.0875341 ], [ 44.853569, -19.0881865 ], [ 44.8524168, -19.0883448 ], [ 44.8500131, -19.0897965 ], [ 44.847535, -19.0897749 ], [ 44.8443826, -19.0908413 ], [ 44.84146, -19.0910261 ], [ 44.8396949, -19.0905057 ], [ 44.8477789, -19.0736631 ], [ 44.844844, -19.0705662 ], [ 44.8444223, -19.0684168 ], [ 44.844663, -19.0663994 ], [ 44.8463674, -19.0640161 ], [ 44.8466426, -19.0630087 ], [ 44.8463454, -19.057116 ], [ 44.8464903, -19.055855 ], [ 44.8473098, -19.053464 ], [ 44.8474583, -19.0518245 ], [ 44.8519724, -19.0424815 ], [ 44.8539348, -19.0362296 ], [ 44.8543402, -19.0354758 ], [ 44.8551939, -19.0340948 ], [ 44.8575188, -19.0269204 ], [ 44.7972787, -19.0034604 ], [ 44.8368264, -18.9892116 ], [ 44.8374074, -18.9885856 ], [ 44.8384679, -18.988679 ], [ 44.8401573, -18.9877682 ], [ 44.840391, -18.986466 ], [ 44.8422111, -18.9857666 ], [ 44.8434132, -18.9849356 ], [ 44.8437373, -18.9834238 ], [ 44.8467614, -18.9816831 ], [ 44.8473021, -18.9806359 ], [ 44.8475349, -18.9794179 ], [ 44.8484274, -18.9785841 ], [ 44.850376, -18.9783065 ], [ 44.852560100000012, -18.9765163 ], [ 44.8534039, -18.976145 ], [ 44.8549529, -18.9760321 ], [ 44.8617754, -18.9701166 ], [ 44.8631044, -18.9698756 ], [ 44.8644305, -18.9699291 ], [ 44.8666945, -18.9690229 ], [ 44.8322389, -18.9468465 ], [ 44.8339433, -18.9443371 ], [ 44.8368333, -18.9426794 ], [ 44.8371529, -18.9416304 ], [ 44.8383572, -18.940547 ], [ 44.8396855, -18.9403482 ], [ 44.841595399999989, -18.9394393 ], [ 44.8429862, -18.9373477 ], [ 44.8431852, -18.9350355 ], [ 44.8424505, -18.9328817 ], [ 44.8428598, -18.9320875 ], [ 44.8435704, -18.9317571 ], [ 44.8450305, -18.9316436 ], [ 44.8458988, -18.9311446 ], [ 44.8475765, -18.928931 ], [ 44.8509982, -18.9271094 ], [ 44.8539327, -18.9253677 ], [ 44.855496, -18.9236982 ], [ 44.8574718, -18.9204757 ], [ 44.8578985, -18.9174501 ], [ 44.8589248, -18.9164492 ], [ 44.8600829, -18.9155335 ], [ 44.8607149, -18.9141506 ], [ 44.8612641, -18.9121779 ], [ 44.8619335, -18.9115104 ], [ 44.8628697, -18.910677 ], [ 44.8624863, -18.9091591 ], [ 44.8620546, -18.9080615 ], [ 44.8604701, -18.9073327 ], [ 44.8579884, -18.9079845 ], [ 44.8563091, -18.907928 ], [ 44.8554741, -18.9074159 ], [ 44.8551565, -18.9036266 ], [ 44.8552935, -18.903165 ], [ 44.8564571, -18.9016604 ], [ 44.8564607, -18.9012818 ], [ 44.8570573, -18.8989729 ], [ 44.8571126, -18.8977954 ], [ 44.85849, -18.8970499 ], [ 44.8591626, -18.8960459 ], [ 44.8593533, -18.894575 ], [ 44.858711500000013, -18.8923396 ], [ 44.8584957, -18.8917908 ], [ 44.8591196, -18.8912493 ], [ 44.8593016, -18.8907039 ], [ 44.8592622, -18.8901987 ], [ 44.85887, -18.8896063 ], [ 44.8594275, -18.8891774 ], [ 44.8591002, -18.8886406 ], [ 44.8579353, -18.8886914 ], [ 44.8568135, -18.8874008 ], [ 44.8566427, -18.8867683 ], [ 44.8565705, -18.8862858 ], [ 44.8559042, -18.8854156 ], [ 44.8563155, -18.8839886 ], [ 44.8561901, -18.8832303 ], [ 44.8550526, -18.8820004 ], [ 44.8545693, -18.8817017 ], [ 44.854007499999987, -18.8803505 ], [ 44.8542987, -18.8776183 ], [ 44.8535498, -18.8773594 ], [ 44.8526623, -18.8777304 ], [ 44.8516451, -18.8778058 ], [ 44.8513429, -18.8770459 ], [ 44.8536574, -18.8753409 ], [ 44.853708, -18.8746681 ], [ 44.865539, -18.8620637 ], [ 44.8774388, -18.8797094 ], [ 44.8810398, -18.877468 ], [ 44.881095, -18.8762904 ], [ 44.8803109, -18.8750636 ], [ 44.8807165, -18.8742256 ], [ 44.8814295, -18.8736005 ], [ 44.8815719, -18.8725499 ], [ 44.8806959, -18.871701 ], [ 44.8808774, -18.8711977 ], [ 44.8823412, -18.8706211 ], [ 44.8827883, -18.8700779 ], [ 44.8832325, -18.8698292 ], [ 44.8840742, -18.869626 ], [ 44.885544599999989, -18.8683341 ], [ 44.8869584, -18.8683881 ], [ 44.8881121, -18.8678929 ], [ 44.8898047, -18.8664767 ], [ 44.8904335, -18.8653881 ], [ 44.8896936, -18.8641617 ], [ 44.8957886, -18.8597952 ], [ 44.8981861, -18.8585952 ], [ 44.9016562, -18.8560998 ], [ 44.9048152, -18.85377 ], [ 44.9057424, -18.8538618 ], [ 44.9072971, -18.8529912 ], [ 44.9081375, -18.8529141 ], [ 44.9089821, -18.8523741 ], [ 44.9103039, -18.8528058 ], [ 44.911316, -18.853277 ], [ 44.9128011, -18.8551826 ], [ 44.914787, -18.8586974 ], [ 44.9121778, -18.835539 ], [ 44.9123308, -18.8341 ], [ 44.9116005, -18.831822 ], [ 44.9107733, -18.8304687 ], [ 44.910001099999988, -18.8279379 ], [ 44.9101033, -18.8264242 ], [ 44.9111656, -18.8262226 ], [ 44.9123204, -18.825559 ], [ 44.9125052, -18.824677 ], [ 44.9122958, -18.823413 ], [ 44.9090065, -18.8207352 ], [ 44.9077702, -18.8206408 ], [ 44.9058821, -18.8193629 ], [ 44.904778, -18.8193116 ], [ 44.904335, -18.8194342 ], [ 44.9038533, -18.8189673 ], [ 44.90381570000001, -18.8182518 ], [ 44.9030255, -18.8176983 ], [ 44.9026279, -18.817695 ], [ 44.9022806, -18.8170189 ], [ 44.90092, -18.8160399 ], [ 44.9011474, -18.8153265 ], [ 44.9016853, -18.8144895 ], [ 44.9011702, -18.8128444 ], [ 44.9001573, -18.8124994 ], [ 44.8988707, -18.8130777 ], [ 44.8973256, -18.8129385 ], [ 44.8961801, -18.8125924 ], [ 44.8957446, -18.8119156 ], [ 44.894906, -18.8118244 ], [ 44.8942832, -18.812282 ], [ 44.8933539, -18.8124425 ], [ 44.8912494, -18.8106999 ], [ 44.8900183, -18.8100584 ], [ 44.8884232, -18.8098913 ], [ 44.8875049, -18.8095325 ], [ 44.8876092, -18.8078083 ], [ 44.8857534, -18.8078348 ], [ 44.884875, -18.8072805 ], [ 44.883300299999981, -18.8055843 ], [ 44.8816251, -18.8051881 ], [ 44.8799238, -18.8044892 ], [ 44.8779756, -18.8040596 ], [ 44.8760255, -18.8038365 ], [ 44.8740773, -18.8034069 ], [ 44.8730005, -18.8025714 ], [ 44.8714958, -18.8011126 ], [ 44.8716736, -18.7821092 ], [ 44.8692823, -18.7827086 ], [ 44.867102, -18.7839295 ], [ 44.8655664, -18.7857756 ], [ 44.8648945, -18.7880422 ], [ 44.8635796, -18.789477 ], [ 44.8611901, -18.7898698 ], [ 44.8598752, -18.7913046 ], [ 44.859635, -18.7937814 ], [ 44.858785, -18.7958255 ], [ 44.8559635, -18.7952124 ], [ 44.8542818, -18.7955345 ], [ 44.8519323, -18.7963978 ], [ 44.8509525, -18.7972309 ], [ 44.8488648, -18.798433 ], [ 44.8463434, -18.7987899 ], [ 44.842765, -18.7988011 ], [ 44.8414422, -18.7985372 ], [ 44.8400416, -18.7971787 ], [ 44.8397858, -18.7962089 ], [ 44.840107, -18.7949495 ], [ 44.8396336, -18.7936411 ], [ 44.8375166, -18.7932862 ], [ 44.8367774, -18.7920597 ], [ 44.8366284, -18.7891554 ], [ 44.835621, -18.7882632 ], [ 44.8345402, -18.7869547 ], [ 44.8441497, -18.7832883 ], [ 44.8449993, -18.7822018 ], [ 44.845408, -18.7810273 ], [ 44.8453553, -18.7772824 ], [ 44.8456303, -18.776233 ], [ 44.8465224, -18.7753151 ], [ 44.8476124, -18.7748545 ], [ 44.8482612, -18.7736051 ], [ 44.848091, -18.7729304 ], [ 44.8458174, -18.7706793 ], [ 44.8458689, -18.7697138 ], [ 44.8466321, -18.7684161 ], [ 44.8469584, -18.7666098 ], [ 44.8479476, -18.7647672 ], [ 44.8484346, -18.7646451 ], [ 44.8486212, -18.7635949 ], [ 44.848493500000011, -18.763089 ], [ 44.8470417, -18.7624875 ], [ 44.8465615, -18.7618943 ], [ 44.8462807, -18.7589047 ], [ 44.8464212, -18.7580645 ], [ 44.8480807, -18.7553862 ], [ 44.8483521, -18.7547153 ], [ 44.8494388, -18.7536193 ], [ 44.8495146, -18.7532107 ], [ 44.8508545, -18.7516235 ], [ 44.850724400000011, -18.7513699 ], [ 44.8525457, -18.7502496 ], [ 44.8521133, -18.7489727 ], [ 44.8524367, -18.7477664 ], [ 44.8521793, -18.7469648 ], [ 44.8519669, -18.7460795 ], [ 44.851309300000011, -18.745569 ], [ 44.8511382, -18.7449785 ], [ 44.8512763, -18.7443907 ], [ 44.8526422, -18.7428487 ], [ 44.8527561, -18.7420052 ], [ 44.8537092, -18.7405772 ], [ 44.8538815, -18.739743 ], [ 44.8543712, -18.7393264 ], [ 44.8550336, -18.7393321 ], [ 44.8551266, -18.738828 ], [ 44.8545578, -18.7382762 ], [ 44.8546552, -18.7373094 ], [ 44.8540919, -18.7361686 ], [ 44.8537478, -18.735198 ], [ 44.8537625, -18.7336414 ], [ 44.8540763, -18.7331393 ], [ 44.8554996, -18.7320576 ], [ 44.8556802, -18.7316384 ], [ 44.8557867, -18.729704 ], [ 44.8563281, -18.7284885 ], [ 44.85730860000001, -18.7275292 ], [ 44.8571824, -18.726855 ], [ 44.857719, -18.7261443 ], [ 44.8581609, -18.726106 ], [ 44.8586043, -18.7260012 ], [ 44.8588276, -18.7256489 ], [ 44.8590499, -18.7254825 ], [ 44.8599795, -18.725238 ], [ 44.8621585, -18.7236158 ], [ 44.8619436, -18.7229828 ], [ 44.8620366, -18.7224788 ], [ 44.8623047, -18.7221445 ], [ 44.863793, -18.7210879 ], [ 44.8648431, -18.7198521 ], [ 44.865091, -18.7169512 ], [ 44.8618077, -18.7139361 ], [ 44.858866200000016, -18.712144 ], [ 44.8577274, -18.7111666 ], [ 44.8570893, -18.7085947 ], [ 44.8568335, -18.7076249 ], [ 44.8562675, -18.7067786 ], [ 44.8548205, -18.7057144 ], [ 44.8539884, -18.7049921 ], [ 44.8507052, -18.6983524 ], [ 44.8491711, -18.6961577 ], [ 44.848827, -18.6951871 ], [ 44.8456617, -18.6937715 ], [ 44.8450962, -18.6928832 ], [ 44.8450195, -18.6916624 ], [ 44.8445021, -18.6903537 ], [ 44.842966499999989, -18.687742 ], [ 44.8418488, -18.6861657 ], [ 44.8414607, -18.6851947 ], [ 44.8401556, -18.683164 ], [ 44.8397663, -18.6823192 ], [ 44.8392057, -18.680926 ], [ 44.837291, -18.6780065 ], [ 44.8365936, -18.6770749 ], [ 44.8346667, -18.6754595 ], [ 44.833901, -18.6724237 ], [ 44.8229361, -18.6558364 ], [ 44.8224239, -18.6540228 ], [ 44.8224295, -18.6534339 ], [ 44.8224372, -18.6526346 ], [ 44.8221788, -18.6519592 ], [ 44.8217423, -18.6514505 ], [ 44.8197717, -18.6498346 ], [ 44.8191615, -18.6490299 ], [ 44.8190666, -18.6488397 ], [ 44.7890761, -18.5887294 ] ] ] } }
]
}
