{
"type": "FeatureCollection",
"name": "MDG-555697905-NODATE-secondary_zoning-001",
"crs": { "type": "name", "properties": { "name": "urn:ogc:def:crs:OGC:1.3:CRS84" } },
"features": [
{ "type": "Feature", "properties": { }, "geometry": { "type": "MultiPolygon", "coordinates": [ [ [ [ 48.2112018, -18.1164353 ], [ 48.204904100000014, -18.1164729 ], [ 48.2055661, -18.1189992 ], [ 48.2060607, -18.1212088 ], [ 48.2071748, -18.1229881 ], [ 48.2090742, -18.1238925 ], [ 48.2122865, -18.121884 ], [ 48.2117942, -18.1208582 ], [ 48.2115463, -18.1196947 ], [ 48.2110711, -18.118488 ], [ 48.2112018, -18.1164353 ] ] ], [ [ [ 48.2033501, -18.0872348 ], [ 48.2019697, -18.0890638 ], [ 48.2023203, -18.0901374 ], [ 48.2092921, -18.0889429 ], [ 48.2103066, -18.0873882 ], [ 48.2088952, -18.0822444 ], [ 48.2054451, -18.0822089 ], [ 48.2041295, -18.0819859 ], [ 48.2032293, -18.083639 ], [ 48.2033501, -18.0872348 ] ] ] ] } }
]
}
