{
"type": "FeatureCollection",
"name": "MDG-555697899-NODATE-secondary_zoning-001",
"crs": { "type": "name", "properties": { "name": "urn:ogc:def:crs:OGC:1.3:CRS84" } },
"features": [
{ "type": "Feature", "properties": { }, "geometry": { "type": "MultiPolygon", "coordinates": [ [ [ [ 42.4440772, -26.0816 ], [ 42.4440773, -26.0816 ], [ 42.4440774, -26.0816 ], [ 42.444077499999985, -26.0816001 ], [ 42.4440776, -26.0816001 ], [ 42.4440776, -26.0816 ], [ 42.4440776, -26.0815999 ], [ 42.4440776, -26.0815998 ], [ 42.4440777, -26.0815998 ], [ 42.4440777, -26.0815997 ], [ 42.4440776, -26.0815997 ], [ 42.4440776, -26.0815996 ], [ 42.4440776, -26.0815995 ], [ 42.4440775, -26.0815995 ], [ 42.4440775, -26.0815994 ], [ 42.4440775, -26.0815993 ], [ 42.4440774, -26.0815993 ], [ 42.4440774, -26.0815992 ], [ 42.4440774, -26.0815991 ], [ 42.444077299999989, -26.0815991 ], [ 42.4440772, -26.0815991 ], [ 42.4440772, -26.0815992 ], [ 42.4440772, -26.0815993 ], [ 42.444077299999989, -26.0815993 ], [ 42.444077299999989, -26.0815994 ], [ 42.4440772, -26.0815994 ], [ 42.4440771, -26.0815994 ], [ 42.4440771, -26.0815995 ], [ 42.4440771, -26.0815996 ], [ 42.4440771, -26.081599699999988 ], [ 42.4440771, -26.0815998 ], [ 42.4440771, -26.0815999 ], [ 42.4440772, -26.0815999 ], [ 42.4440772, -26.0816 ] ] ], [ [ [ 42.4440786, -26.0815993 ], [ 42.4440785, -26.0815993 ], [ 42.4440784, -26.0815993 ], [ 42.4440783, -26.0815993 ], [ 42.4440782, -26.0815993 ], [ 42.444078100000013, -26.0815993 ], [ 42.4440781, -26.0815994 ], [ 42.4440782, -26.0815994 ], [ 42.4440782, -26.0815995 ], [ 42.4440783, -26.0815995 ], [ 42.4440783, -26.0815996 ], [ 42.4440784, -26.0815997 ], [ 42.4440785, -26.0815997 ], [ 42.4440786, -26.081599699999988 ], [ 42.4440786, -26.0815998 ], [ 42.444078700000013, -26.0815998 ], [ 42.4440788, -26.0815998 ], [ 42.4440788, -26.081599699999988 ], [ 42.444078800000014, -26.0815996 ], [ 42.444078800000014, -26.0815995 ], [ 42.4440788, -26.0815994 ], [ 42.4440787, -26.0815994 ], [ 42.4440787, -26.0815993 ], [ 42.4440786, -26.0815993 ] ] ] ] } }
]
}
