{
"type": "FeatureCollection",
"name": "MDG-26070-NODATE-secondary_zoning-001",
"crs": { "type": "name", "properties": { "name": "urn:ogc:def:crs:OGC:1.3:CRS84" } },
"features": [
{ "type": "Feature", "properties": { }, "geometry": { "type": "MultiPolygon", "coordinates": [ [ [ [ 48.429182, -18.8039582 ], [ 48.4270977, -18.8034852 ], [ 48.4263563, -18.8037293 ], [ 48.4250392, -18.8052391 ], [ 48.4229606, -18.8052609 ], [ 48.420493, -18.8036541 ], [ 48.4203249, -18.8037285 ], [ 48.4202386, -18.8037594 ], [ 48.4195801, -18.8050489 ], [ 48.419622900000014, -18.8087605 ], [ 48.417613, -18.8095913 ], [ 48.4166758, -18.8102771 ], [ 48.4159432, -18.8105782 ], [ 48.4153959, -18.8107399 ], [ 48.414709, -18.8107916 ], [ 48.4131387, -18.8098181 ], [ 48.4112886, -18.8071153 ], [ 48.4092348, -18.8057645 ], [ 48.4065367, -18.8103968 ], [ 48.406364, -18.8104417 ], [ 48.4045151, -18.8105422 ], [ 48.4045485, -18.8107466 ], [ 48.4048652, -18.8110788 ], [ 48.4050823, -18.8124989 ], [ 48.4048799, -18.813649 ], [ 48.4047782, -18.8155381 ], [ 48.4059409, -18.817099 ], [ 48.4076329, -18.8197253 ], [ 48.4083623, -18.8209524 ], [ 48.4089228, -18.8215369 ], [ 48.4091236, -18.8222334 ], [ 48.4091298, -18.8226248 ], [ 48.408822, -18.8233595 ], [ 48.4083072, -18.8257554 ], [ 48.4089454, -18.8271066 ], [ 48.4099629, -18.8282626 ], [ 48.410272399999982, -18.8293955 ], [ 48.4112992, -18.8306246 ], [ 48.413389500000015, -18.8315926 ], [ 48.4191179, -18.8325225 ], [ 48.420914, -18.830524 ], [ 48.4219363, -18.8290284 ], [ 48.422458800000015, -18.8292704 ], [ 48.424576099999982, -18.8278861 ], [ 48.425169399999987, -18.8270957 ], [ 48.4263309, -18.8270025 ], [ 48.4328272, -18.8269341 ], [ 48.429182, -18.8039582 ] ] ], [ [ [ 48.4735611, -18.8194833 ], [ 48.4811919, -18.8239112 ], [ 48.4872676, -18.8170803 ], [ 48.4876981, -18.8134675 ], [ 48.4989929, -18.8074817 ], [ 48.5074349, -18.8006244 ], [ 48.5068636, -18.7925124 ], [ 48.504458199999988, -18.7893816 ], [ 48.511952300000011, -18.7825345 ], [ 48.5194348, -18.7747852 ], [ 48.5102766, -18.762752 ], [ 48.5051691, -18.748455 ], [ 48.4925345, -18.7426052 ], [ 48.4858379, -18.7368143 ], [ 48.4787217, -18.7355378 ], [ 48.4740744, -18.7329534 ], [ 48.4673455, -18.7343067 ], [ 48.4669518, -18.7410763 ], [ 48.465171, -18.7488866 ], [ 48.4642475, -18.7525108 ], [ 48.4611229, -18.758086 ], [ 48.4588346, -18.7623174 ], [ 48.4554032, -18.765555 ], [ 48.4540792, -18.7777109 ], [ 48.4452497, -18.7780521 ], [ 48.4460319, -18.7782913 ], [ 48.4478995, -18.7824784 ], [ 48.4490169, -18.7891481 ], [ 48.4544804, -18.8079611 ], [ 48.4540386, -18.810672 ], [ 48.458906899999988, -18.8218955 ], [ 48.4735611, -18.8194833 ] ] ], [ [ [ 48.4492462, -18.7198547 ], [ 48.4464213, -18.7226068 ], [ 48.4458702, -18.7198905 ], [ 48.4429992, -18.7186834 ], [ 48.4396807, -18.7236679 ], [ 48.4394756, -18.728372 ], [ 48.4498898, -18.7304891 ], [ 48.453543, -18.7319352 ], [ 48.4529215, -18.7413491 ], [ 48.4531821, -18.7640973 ], [ 48.4572652, -18.762829 ], [ 48.458794, -18.7588533 ], [ 48.4623606, -18.752876 ], [ 48.4651009, -18.7447043 ], [ 48.4650159, -18.7374888 ], [ 48.4633712, -18.728366 ], [ 48.4579145, -18.7281767 ], [ 48.4572954, -18.7275457 ], [ 48.4566665, -18.727195 ], [ 48.4566731, -18.7267891 ], [ 48.4552828, -18.725235 ], [ 48.452403, -18.7232859 ], [ 48.4513535, -18.721736 ], [ 48.4505597, -18.7206692 ], [ 48.4492462, -18.7198547 ] ] ] ] } }
]
}
