{
"type": "FeatureCollection",
"name": "MDG-555697880-NODATE-secondary_zoning-001",
"crs": { "type": "name", "properties": { "name": "urn:ogc:def:crs:OGC:1.3:CRS84" } },
"features": [
{ "type": "Feature", "properties": { }, "geometry": { "type": "Polygon", "coordinates": [ [ [ 48.9497945, -18.8083108 ], [ 48.9465193, -18.8113262 ], [ 48.9454412, -18.8155392 ], [ 48.9459957, -18.8195891 ], [ 48.945194799999989, -18.8224303 ], [ 48.9452567, -18.8266755 ], [ 48.94799, -18.8306494 ], [ 48.9487572, -18.8356871 ], [ 48.950010200000015, -18.840058 ], [ 48.9558702, -18.840971 ], [ 48.9597121, -18.8394103 ], [ 48.9634202, -18.8354925 ], [ 48.9677364, -18.8325101 ], [ 48.9680017, -18.8303365 ], [ 48.9724937, -18.825842 ], [ 48.9749014, -18.8244889 ], [ 48.9786591, -18.8206173 ], [ 48.9776958, -18.8157711 ], [ 48.9761053, -18.8154149 ], [ 48.9801084, -18.8080491 ], [ 48.9777347, -18.8049672 ], [ 48.976936, -18.8045532 ], [ 48.9752597, -18.8050946 ], [ 48.9754731, -18.8010817 ], [ 48.98157, -18.7946314 ], [ 48.973481, -18.7902577 ], [ 48.9751956, -18.788961 ], [ 48.9731652, -18.7889881 ], [ 48.9723319, -18.7862158 ], [ 48.9662066, -18.7822873 ], [ 48.9637993, -18.7819418 ], [ 48.963278, -18.7835528 ], [ 48.9635113, -18.7859557 ], [ 48.963400700000015, -18.7885519 ], [ 48.962887699999989, -18.7907289 ], [ 48.961774899999988, -18.7925364 ], [ 48.9616072, -18.7946144 ], [ 48.960854099999985, -18.7973135 ], [ 48.9602029, -18.8001999 ], [ 48.9565496, -18.8010504 ], [ 48.9523735, -18.801719 ], [ 48.9494396, -18.8043526 ], [ 48.9497945, -18.8083108 ] ] ] } }
]
}
