{
"type": "FeatureCollection",
"name": "MDG-555697918-NODATE-secondary_zoning-001",
"crs": { "type": "name", "properties": { "name": "urn:ogc:def:crs:OGC:1.3:CRS84" } },
"features": [
{ "type": "Feature", "properties": { }, "geometry": { "type": "MultiPolygon", "coordinates": [ [ [ [ 48.6296847, -12.2536821 ], [ 48.6299031, -12.274327 ], [ 48.6552392, -12.2740666 ], [ 48.6550188, -12.2534217 ], [ 48.6296847, -12.2536821 ] ] ], [ [ [ 49.1076358, -12.1225102 ], [ 49.0754155, -12.1254407 ], [ 49.0667652, -12.0903274 ], [ 49.034396199999982, -12.0903477 ], [ 48.9122319, -12.1447494 ], [ 48.912045, -12.158319 ], [ 48.9032882, -12.2148185 ], [ 48.9094708, -12.2601498 ], [ 48.9289963, -12.284856 ], [ 48.9277335, -12.3243004 ], [ 49.0070108, -12.2748938 ], [ 48.9449836, -12.2694248 ], [ 48.9419668, -12.2570155 ], [ 48.9643565, -12.2089422 ], [ 49.0651182, -12.2374332 ], [ 49.115548, -12.1351349 ], [ 49.1154273, -12.1253847 ], [ 49.1076358, -12.1225102 ] ] ], [ [ [ 48.7751977, -12.189198 ], [ 48.7754618, -12.2129381 ], [ 48.801384, -12.2126578 ], [ 48.8011175, -12.1889177 ], [ 48.7751977, -12.189198 ] ] ], [ [ [ 49.1446719, -12.089368 ], [ 49.145246, -12.0889413 ], [ 49.1460971, -12.0888633 ], [ 49.1460532, -12.0881814 ], [ 49.1451482, -12.0872666 ], [ 49.1444878, -12.086291 ], [ 49.1444676, -12.0855161 ], [ 49.1447003, -12.0852546 ], [ 49.1452598, -12.0851746 ], [ 49.1456605, -12.0852132 ], [ 49.1462421, -12.085633 ], [ 49.1464394, -12.085039 ], [ 49.1468883, -12.0849814 ], [ 49.1472206, -12.08453 ], [ 49.1478402, -12.0845341 ], [ 49.1492544, -12.0848489 ], [ 49.1489878, -12.0838606 ], [ 49.1492965, -12.0831452 ], [ 49.1488128, -12.0828131 ], [ 49.1486271, -12.0832001 ], [ 49.148079, -12.0833878 ], [ 49.1468647, -12.0832721 ], [ 49.145942, -12.0831583 ], [ 49.1455925, -12.0828515 ], [ 49.145367, -12.0824163 ], [ 49.1448663, -12.082326 ], [ 49.144588899999988, -12.0820252 ], [ 49.1444518, -12.0816197 ], [ 49.1442166, -12.0814821 ], [ 49.1437308, -12.0813498 ], [ 49.1437772, -12.0799152 ], [ 49.1441232, -12.0797899 ], [ 49.144204900000013, -12.0795734 ], [ 49.1440836, -12.0795226 ], [ 49.1434273, -12.0795541 ], [ 49.1431825, -12.0798036 ], [ 49.1428287, -12.0800165 ], [ 49.1415787, -12.0803785 ], [ 49.141396, -12.0798514 ], [ 49.1409364, -12.0795494 ], [ 49.1404153, -12.0793426 ], [ 49.1399901, -12.0793278 ], [ 49.1397698, -12.0795655 ], [ 49.1393912, -12.07985 ], [ 49.1393151, -12.081033 ], [ 49.1378996, -12.0811673 ], [ 49.1371219, -12.081186 ], [ 49.13256650000001, -12.0811948 ], [ 49.1309728, -12.0797252 ], [ 49.128789, -12.0792322 ], [ 49.1267179, -12.0800314 ], [ 49.1215921, -12.0832494 ], [ 49.1164717, -12.0856781 ], [ 49.1153589, -12.0849531 ], [ 49.112232299999988, -12.0837032 ], [ 49.1095558, -12.0841633 ], [ 49.108273800000013, -12.0850514 ], [ 49.1064795, -12.0853382 ], [ 49.1052565, -12.0864658 ], [ 49.1030283, -12.0879752 ], [ 49.1007946, -12.0902619 ], [ 49.0998204, -12.091736 ], [ 49.0993689, -12.0935683 ], [ 49.0983906, -12.0951481 ], [ 49.0965264, -12.0967197 ], [ 49.0955828, -12.0969823 ], [ 49.094506499999987, -12.0972599 ], [ 49.0939212, -12.0979359 ], [ 49.0935682, -12.0983436 ], [ 49.0945093, -12.0984398 ], [ 49.0966711, -12.0977371 ], [ 49.0987121, -12.096944 ], [ 49.1019218, -12.0950437 ], [ 49.1024248, -12.0941887 ], [ 49.1035091, -12.0937896 ], [ 49.1045307, -12.093653 ], [ 49.1056726, -12.0937087 ], [ 49.1056711, -12.09219 ], [ 49.1072147, -12.0921288 ], [ 49.1074783, -12.0926687 ], [ 49.107952499999989, -12.0926241 ], [ 49.1082928, -12.0919474 ], [ 49.111297, -12.0904705 ], [ 49.111746299999986, -12.0905094 ], [ 49.1115197, -12.091148 ], [ 49.1118742, -12.0913354 ], [ 49.1122282, -12.0912874 ], [ 49.1128878, -12.0907897 ], [ 49.1135678, -12.090866 ], [ 49.114688, -12.0905388 ], [ 49.1167806, -12.0897323 ], [ 49.1180568, -12.0881965 ], [ 49.1201956, -12.0881632 ], [ 49.1210205, -12.088372 ], [ 49.1224547, -12.0884868 ], [ 49.1259311, -12.0863963 ], [ 49.1266259, -12.0862669 ], [ 49.1273274, -12.086726 ], [ 49.1299771, -12.0864355 ], [ 49.132966, -12.0864795 ], [ 49.1336153, -12.0869312 ], [ 49.1347351, -12.0871969 ], [ 49.1350105, -12.0877847 ], [ 49.1349796, -12.0883153 ], [ 49.1348091, -12.0887997 ], [ 49.1345171, -12.0888456 ], [ 49.134513, -12.0894315 ], [ 49.1348166, -12.0894575 ], [ 49.1352148, -12.0898667 ], [ 49.1354817, -12.0899283 ], [ 49.135581, -12.08963 ], [ 49.135602, -12.0890686 ], [ 49.1356246, -12.08859 ], [ 49.1360146, -12.0884252 ], [ 49.136069799999987, -12.0874809 ], [ 49.1358415, -12.0870967 ], [ 49.1359909, -12.0865835 ], [ 49.1356414, -12.0861746 ], [ 49.1353025, -12.085981 ], [ 49.1353179, -12.0855027 ], [ 49.1357687, -12.0853384 ], [ 49.1365486, -12.0850088 ], [ 49.1375455, -12.0849317 ], [ 49.1384599, -12.0844954 ], [ 49.1391286, -12.0844401 ], [ 49.1397692, -12.0849347 ], [ 49.1395083, -12.085758 ], [ 49.1387898, -12.0859804 ], [ 49.1383253, -12.0863839 ], [ 49.1384538, -12.0871381 ], [ 49.1381417, -12.0888602 ], [ 49.1407049, -12.0895177 ], [ 49.1412293, -12.0881611 ], [ 49.1416709, -12.0875662 ], [ 49.142449100000015, -12.0874877 ], [ 49.1433827, -12.0877809 ], [ 49.1442038, -12.0885398 ], [ 49.1442467, -12.0893652 ], [ 49.1446719, -12.089368 ] ] ] ] } }
]
}
