{
"type": "FeatureCollection",
"name": "MDG-555697897-NODATE-secondary_zoning-001",
"crs": { "type": "name", "properties": { "name": "urn:ogc:def:crs:OGC:1.3:CRS84" } },
"features": [
{ "type": "Feature", "properties": { }, "geometry": { "type": "Polygon", "coordinates": [ [ [ 46.9909668, -20.1057004 ], [ 46.9905038, -20.1064414 ], [ 46.9901338, -20.1080165 ], [ 46.9905038, -20.1084795 ], [ 46.9897627, -20.1088495 ], [ 46.9896707, -20.1102395 ], [ 46.9900408, -20.1108875 ], [ 46.9900408, -20.1112585 ], [ 46.9892997, -20.1119995 ], [ 46.9892997, -20.1130176 ], [ 46.989392699999989, -20.1139446 ], [ 46.9899487, -20.1144996 ], [ 46.9896707, -20.1148706 ], [ 46.9892077, -20.1156116 ], [ 46.9892077, -20.1169086 ], [ 46.9893927, -20.1180197 ], [ 46.9893007, -20.1187607 ], [ 46.9898557, -20.1189457 ], [ 46.9904118, -20.1191307 ], [ 46.9910598, -20.1194087 ], [ 46.9919868, -20.1188527 ], [ 46.9926349, -20.1184827 ], [ 46.9930979, -20.1182977 ], [ 46.993468899999989, -20.1183897 ], [ 46.9932829, -20.1188537 ], [ 46.9930059, -20.1199647 ], [ 46.9926349, -20.1203347 ], [ 46.9926349, -20.1207057 ], [ 46.9922649, -20.1215397 ], [ 46.9920789, -20.1221877 ], [ 46.9915238, -20.1223727 ], [ 46.9908748, -20.1227437 ], [ 46.9906898, -20.1233917 ], [ 46.9902268, -20.1245958 ], [ 46.9902268, -20.1254298 ], [ 46.9902268, -20.1257078 ], [ 46.9898567, -20.1259848 ], [ 46.9894857, -20.1267258 ], [ 46.9894857, -20.1280228 ], [ 46.9893007, -20.1285788 ], [ 46.9891157, -20.1293199 ], [ 46.9894857, -20.1295979 ], [ 46.9888377, -20.1296899 ], [ 46.9885597, -20.1301539 ], [ 46.9887447, -20.1306169 ], [ 46.9893007, -20.1314499 ], [ 46.9893937, -20.1320989 ], [ 46.9891157, -20.1325619 ], [ 46.9884667, -20.1323759 ], [ 46.9880036, -20.1331169 ], [ 46.9876336, -20.1334879 ], [ 46.9866146, -20.1340439 ], [ 46.9865215, -20.134692 ], [ 46.9869856, -20.135896 ], [ 46.9874486, -20.136544 ], [ 46.9881896, -20.1371 ], [ 46.9883746, -20.137563 ], [ 46.9876336, -20.137934 ], [ 46.9868926, -20.137934 ], [ 46.9864295, -20.137841 ], [ 46.9855955, -20.137378 ], [ 46.9848545, -20.137841 ], [ 46.9845764, -20.138304 ], [ 46.9831874, -20.138582 ], [ 46.9809643, -20.138953 ], [ 46.9797602, -20.139231 ], [ 46.9794822, -20.139972 ], [ 46.9792972, -20.14062 ], [ 46.9789271, -20.1414541 ], [ 46.9792042, -20.1421021 ], [ 46.9794822, -20.1426581 ], [ 46.9799452, -20.1433061 ], [ 46.9801312, -20.1439541 ], [ 46.9803162, -20.1442321 ], [ 46.9798532, -20.1446031 ], [ 46.9798532, -20.1456221 ], [ 46.9799462, -20.1459921 ], [ 46.9804092, -20.1465482 ], [ 46.9809642, -20.1473812 ], [ 46.9810572, -20.1473812 ], [ 46.9803162, -20.1479372 ], [ 46.9800382, -20.1490492 ], [ 46.9794832, -20.1500682 ], [ 46.9796682, -20.1514572 ], [ 46.9802242, -20.1515492 ], [ 46.9796682, -20.1527543 ], [ 46.9796682, -20.1535873 ], [ 46.9799462, -20.1542353 ], [ 46.9803162, -20.1541433 ], [ 46.9805942, -20.1548843 ], [ 46.9808722, -20.1559953 ], [ 46.9813353, -20.1568293 ], [ 46.9819843, -20.1569213 ], [ 46.9833734, -20.1560883 ], [ 46.9839294, -20.1561803 ], [ 46.9856895, -20.1558103 ], [ 46.9865225, -20.1553473 ], [ 46.9877266, -20.1541433 ], [ 46.9885606, -20.1536793 ], [ 46.9903207, -20.1524753 ], [ 46.9910618, -20.1518273 ], [ 46.9918948, -20.1512713 ], [ 46.9927289, -20.1509012 ], [ 46.9939329, -20.1496962 ], [ 46.9943959, -20.1485852 ], [ 46.995507, -20.1484002 ], [ 46.995785, -20.1480292 ], [ 46.9966191, -20.1476592 ], [ 46.996897100000012, -20.1478442 ], [ 46.9972671, -20.1474732 ], [ 46.9971751, -20.1463622 ], [ 46.997916100000012, -20.1459912 ], [ 46.9981011, -20.1447871 ], [ 46.9985642, -20.1442321 ], [ 46.9993972, -20.1434911 ], [ 47.0000462, -20.1426571 ], [ 47.0013433, -20.1413601 ], [ 47.0020833, -20.1406191 ], [ 47.002639400000014, -20.1402491 ], [ 47.0030104, -20.1412681 ], [ 47.0035654, -20.1414531 ], [ 47.0041215, -20.1410821 ], [ 47.0046775, -20.1408041 ], [ 47.0054185, -20.1407121 ], [ 47.0060666, -20.1403411 ], [ 47.0064376, -20.1396001 ], [ 47.0067156, -20.138767 ], [ 47.0072706, -20.138211 ], [ 47.0084747, -20.137377 ], [ 47.0101428, -20.136266 ], [ 47.0112538, -20.135895 ], [ 47.0121799, -20.134969 ], [ 47.0126429, -20.134506 ], [ 47.013755, -20.134506 ], [ 47.014403, -20.135154 ], [ 47.015052, -20.136266 ], [ 47.014681, -20.137192 ], [ 47.014403, -20.138303 ], [ 47.014403, -20.1388591 ], [ 47.014681, -20.1389521 ], [ 47.01533, -20.138488 ], [ 47.01533, -20.137655 ], [ 47.0155151, -20.137099 ], [ 47.0160711, -20.136914 ], [ 47.0168121, -20.136729 ], [ 47.0173671, -20.136358 ], [ 47.0171821, -20.135247 ], [ 47.0164411, -20.134135 ], [ 47.0159781, -20.1329309 ], [ 47.0164411, -20.1321899 ], [ 47.0172741, -20.1317269 ], [ 47.0175522, -20.1310789 ], [ 47.0181082, -20.1301519 ], [ 47.0182932, -20.1297819 ], [ 47.0183752, -20.1292992 ], [ 47.0198021, -20.1294143 ], [ 47.0207308, -20.1296036 ], [ 47.0223963, -20.1289998 ], [ 47.0237926, -20.1284338 ], [ 47.0250391, -20.1277859 ], [ 47.0266589, -20.1284279 ], [ 47.0277338, -20.1289718 ], [ 47.028663, -20.128458 ], [ 47.0292312, -20.1287974 ], [ 47.0299574, -20.1288995 ], [ 47.0300661, -20.1281789 ], [ 47.0305336, -20.1281311 ], [ 47.0311538, -20.1291014 ], [ 47.0320307, -20.1294858 ], [ 47.0325541, -20.1300257 ], [ 47.0328638, -20.1304618 ], [ 47.0329657, -20.1308487 ], [ 47.0334416, -20.1308097 ], [ 47.0338642, -20.1308653 ], [ 47.0338482, -20.1311265 ], [ 47.0338831, -20.131415 ], [ 47.0343897, -20.1317799 ], [ 47.0346636, -20.1317788 ], [ 47.0351787, -20.1313882 ], [ 47.0351892, -20.1311198 ], [ 47.0348351, -20.1307896 ], [ 47.0346549, -20.1303176 ], [ 47.0348311, -20.1298286 ], [ 47.0352088, -20.1295871 ], [ 47.0354237, -20.1290437 ], [ 47.0363407, -20.1283877 ], [ 47.032634900000012, -20.1224289 ], [ 47.027998100000012, -20.1177717 ], [ 47.0233003, -20.1127617 ], [ 47.0227583, -20.1117798 ], [ 47.0227697, -20.1111952 ], [ 47.0228705, -20.1108848 ], [ 47.0230021, -20.1106649 ], [ 47.023267, -20.1101626 ], [ 47.023469899999988, -20.1095075 ], [ 47.0235678, -20.1092025 ], [ 47.0235707, -20.1088657 ], [ 47.023254, -20.10871 ], [ 47.0230005, -20.1085244 ], [ 47.0226829, -20.1082478 ], [ 47.0223958, -20.1080046 ], [ 47.0221405, -20.1078218 ], [ 47.0218852, -20.107547 ], [ 47.0215649, -20.1074586 ], [ 47.0212445, -20.1073412 ], [ 47.0209888, -20.1071264 ], [ 47.0209248, -20.1068217 ], [ 47.0208615, -20.1065366 ], [ 47.0207663, -20.1063066 ], [ 47.0203798, -20.105855 ], [ 47.020123200000015, -20.1056191 ], [ 47.019835, -20.1054747 ], [ 47.0196119, -20.1056971 ], [ 47.0193257, -20.1058901 ], [ 47.0191039, -20.1060806 ], [ 47.0188511, -20.1063011 ], [ 47.0186004, -20.1065578 ], [ 47.0182869, -20.1067511 ], [ 47.0180696, -20.1070032 ], [ 47.0179154, -20.107222 ], [ 47.0176693, -20.1075341 ], [ 47.0174546, -20.1077829 ], [ 47.0171853, -20.1080452 ], [ 47.0169787, -20.1082723 ], [ 47.01668, -20.1084385 ], [ 47.016414, -20.1085449 ], [ 47.0161239, -20.1086569 ], [ 47.0158366, -20.1087391 ], [ 47.0155222, -20.1089071 ], [ 47.0152616, -20.1089496 ], [ 47.0149175, -20.109026 ], [ 47.0146345, -20.1090433 ], [ 47.0143584, -20.1091773 ], [ 47.0140837, -20.1092813 ], [ 47.0137582, -20.1094448 ], [ 47.0134865, -20.1095175 ], [ 47.0132081, -20.1095843 ], [ 47.0129903, -20.1096509 ], [ 47.0127023, -20.1096989 ], [ 47.0123909, -20.1097206 ], [ 47.0121329, -20.1096562 ], [ 47.0119264, -20.1094519 ], [ 47.0116981, -20.1093875 ], [ 47.0114714, -20.1092965 ], [ 47.0112412, -20.1090959 ], [ 47.0108908, -20.1086565 ], [ 47.0094928, -20.1088495 ], [ 47.0088447, -20.1090345 ], [ 47.0084737, -20.1089415 ], [ 47.0082887, -20.1083865 ], [ 47.0084737, -20.1076455 ], [ 47.0081037, -20.1070895 ], [ 47.0071767, -20.1065335 ], [ 47.0061586, -20.1064415 ], [ 47.0053246, -20.1069965 ], [ 47.0043055, -20.1069045 ], [ 47.0040275, -20.1071825 ], [ 47.0034725, -20.1070895 ], [ 47.0034725, -20.1067195 ], [ 47.0037495, -20.1063485 ], [ 47.0045835, -20.1061635 ], [ 47.0050465, -20.1058854 ], [ 47.0050465, -20.1056074 ], [ 47.0047685, -20.1054224 ], [ 47.0044905, -20.1054224 ], [ 47.0043055, -20.1051444 ], [ 47.0035048, -20.1043537 ], [ 47.002765, -20.1040433 ], [ 47.0022275, -20.1038692 ], [ 47.0017174, -20.1042204 ], [ 47.001270399999989, -20.1044177 ], [ 47.0010242, -20.1048208 ], [ 47.0009398, -20.1053402 ], [ 47.0010697, -20.1056444 ], [ 47.001261, -20.1059488 ], [ 47.001549, -20.1063902 ], [ 47.0014775, -20.1069078 ], [ 47.0012864, -20.1073691 ], [ 47.0010407, -20.1075327 ], [ 47.0006253, -20.1076153 ], [ 47.0002358, -20.107778 ], [ 46.9997779, -20.1079936 ], [ 46.9993812, -20.1085322 ], [ 46.9990638, -20.1091567 ], [ 46.9987689, -20.1096186 ], [ 46.9982985, -20.1097827 ], [ 46.9977777, -20.1097831 ], [ 46.9973526, -20.1094865 ], [ 46.9967892, -20.1090493 ], [ 46.9961844, -20.1084707 ], [ 46.995791600000011, -20.1079332 ], [ 46.9952961, -20.1072751 ], [ 46.9947942, -20.1067429 ], [ 46.9944732, -20.1057026 ], [ 46.9914014, -20.1035985 ], [ 46.9910598, -20.1043114 ], [ 46.9909668, -20.1057004 ] ] ] } }
]
}
