{
"type": "FeatureCollection",
"name": "MDG-2307-2015-boundary_modification-001",
"crs": { "type": "name", "properties": { "name": "urn:ogc:def:crs:OGC:1.3:CRS84" } },
"features": [
{ "type": "Feature", "properties": { }, "geometry": { "type": "Polygon", "coordinates": [ [ [ 43.9135777, -24.0085562 ], [ 43.7231476, -23.9974119 ], [ 43.7208802, -23.9973629 ], [ 43.7211031, -24.0008256 ], [ 43.7205727, -24.003975 ], [ 43.7213076, -24.0081444 ], [ 43.7228983, -24.0129138 ], [ 43.7233165, -24.0155047 ], [ 43.7223146, -24.0187899 ], [ 43.7225204, -24.0228297 ], [ 43.7234243, -24.0259859 ], [ 43.7250533, -24.0306065 ], [ 43.7255718, -24.0360701 ], [ 43.7250077, -24.0409417 ], [ 43.724569, -24.0473944 ], [ 43.7228661, -24.0545441 ], [ 43.7218133, -24.0604124 ], [ 43.7220472, -24.0644358 ], [ 43.7247679, -24.069218 ], [ 43.7269056, -24.0718371 ], [ 43.7287223, -24.0748817 ], [ 43.7303381, -24.0802198 ], [ 43.7330063, -24.0877284 ], [ 43.7348819, -24.0957983 ], [ 43.7353006, -24.0983891 ], [ 43.7365008, -24.1090318 ], [ 43.739075, -24.1133806 ], [ 43.7390235, -24.1169633 ], [ 43.73943520000001, -24.1211308 ], [ 43.7405354, -24.126755 ], [ 43.7417138, -24.1305067 ], [ 43.7424594, -24.1323851 ], [ 43.7462992, -24.1360368 ], [ 43.7479804, -24.138074 ], [ 43.7496636, -24.1425538 ], [ 43.751564, -24.1468892 ], [ 43.7527706, -24.1493698 ], [ 43.7535625, -24.1550091 ], [ 43.7538342, -24.1613451 ], [ 43.7561714, -24.1628303 ], [ 43.7569572, -24.1668654 ], [ 43.7624728, -24.1785806 ], [ 43.7661687, -24.1863289 ], [ 43.7671871, -24.1892054 ], [ 43.7675458, -24.190885 ], [ 43.7737491, -24.2108826 ], [ 43.7803119, -24.2115419 ], [ 43.9559019, -24.2251681 ], [ 43.9404778, -24.1463026 ], [ 43.9236742, -24.1241999 ], [ 43.9308123, -24.0968423 ], [ 43.9135777, -24.0085562 ] ] ] } }
]
}
