{
"type": "FeatureCollection",
"name": "MDG-555697872-NODATE-secondary_zoning-001",
"crs": { "type": "name", "properties": { "name": "urn:ogc:def:crs:OGC:1.3:CRS84" } },
"features": [
{ "type": "Feature", "properties": { }, "geometry": { "type": "Polygon", "coordinates": [ [ [ 46.031459, -15.8116893 ], [ 46.0321455, -15.8100038 ], [ 46.034566, -15.8076372 ], [ 46.0369985, -15.8076256 ], [ 46.040638499999986, -15.8059259 ], [ 46.0416853, -15.806762 ], [ 46.0424811, -15.8079833 ], [ 46.0416991, -15.8094535 ], [ 46.0427779, -15.8101397 ], [ 46.0451954, -15.8079426 ], [ 46.0458132, -15.8058371 ], [ 46.0471464, -15.8039496 ], [ 46.0469377, -15.8022631 ], [ 46.0467886, -15.8010466 ], [ 46.048016, -15.8008193 ], [ 46.0492752, -15.8012005 ], [ 46.0499635, -15.8016952 ], [ 46.051810499999988, -15.7997221 ], [ 46.0544817, -15.7969151 ], [ 46.0577533, -15.7941881 ], [ 46.0595445, -15.7924919 ], [ 46.0608844, -15.791932 ], [ 46.0643614, -15.7905029 ], [ 46.0662747, -15.7901075 ], [ 46.0684106, -15.7887968 ], [ 46.0698342, -15.7878492 ], [ 46.0707723, -15.7869594 ], [ 46.0720068, -15.7863794 ], [ 46.0744726, -15.7843407 ], [ 46.076298, -15.7837507 ], [ 46.0776454, -15.7846293 ], [ 46.0785886, -15.7847076 ], [ 46.0801869, -15.7843954 ], [ 46.081583699999989, -15.7838075 ], [ 46.0828653, -15.7830542 ], [ 46.0853361, -15.7816517 ], [ 46.0835926, -15.7804829 ], [ 46.0822558, -15.7812591 ], [ 46.0815187, -15.7825119 ], [ 46.0806456, -15.7816751 ], [ 46.0805662, -15.7804929 ], [ 46.0815035, -15.7796522 ], [ 46.0814973, -15.7784747 ], [ 46.0805827, -15.7782244 ], [ 46.0795286, -15.7787829 ], [ 46.0777041, -15.7795112 ], [ 46.0791795, -15.7775951 ], [ 46.0802324, -15.7768153 ], [ 46.079592700000013, -15.7746883 ], [ 46.0800717, -15.7734411 ], [ 46.081127, -15.7731038 ], [ 46.0819519, -15.7724358 ], [ 46.0809387, -15.7714122 ], [ 46.0800666, -15.7707436 ], [ 46.0784285, -15.7706275 ], [ 46.077622, -15.7693866 ], [ 46.0785346, -15.7690778 ], [ 46.0812503, -15.7694239 ], [ 46.0832465, -15.7687501 ], [ 46.0838776, -15.7692449 ], [ 46.0838536, -15.7701026 ], [ 46.0847475, -15.771675 ], [ 46.085071, -15.7734162 ], [ 46.0837377, -15.7750991 ], [ 46.082858, -15.7763043 ], [ 46.0819505, -15.7775537 ], [ 46.0823853, -15.778741 ], [ 46.0834746, -15.7794272 ], [ 46.0851919, -15.7800273 ], [ 46.0865677, -15.780878 ], [ 46.088418499999989, -15.7797068 ], [ 46.0902425, -15.7788955 ], [ 46.0908124, -15.778616 ], [ 46.0932403, -15.7785208 ], [ 46.093827700000013, -15.7777401 ], [ 46.0932993, -15.776397 ], [ 46.09468, -15.7747079 ], [ 46.0948465, -15.7733613 ], [ 46.092932, -15.772698 ], [ 46.0924028, -15.7711867 ], [ 46.0936152, -15.7705078 ], [ 46.0953541, -15.7708354 ], [ 46.0964081, -15.773017 ], [ 46.0979751, -15.773682 ], [ 46.0990355, -15.777041 ], [ 46.1026827, -15.7768544 ], [ 46.1038905, -15.7753343 ], [ 46.1035258, -15.7721399 ], [ 46.10351940000001, -15.7709624 ], [ 46.1049109, -15.7712918 ], [ 46.1055976, -15.7697743 ], [ 46.1042033, -15.7689403 ], [ 46.1041979, -15.767931 ], [ 46.1068062, -15.7684224 ], [ 46.1068163, -15.7702728 ], [ 46.1101204, -15.7709289 ], [ 46.1115193, -15.7726039 ], [ 46.112386, -15.772263 ], [ 46.1122004, -15.7700771 ], [ 46.1155027, -15.7703967 ], [ 46.116015499999989, -15.7688801 ], [ 46.1149668, -15.7677079 ], [ 46.113227, -15.7672122 ], [ 46.1133897, -15.7651927 ], [ 46.1118255, -15.7650325 ], [ 46.1111142, -15.7620082 ], [ 46.1086814, -15.7618523 ], [ 46.1081713, -15.7638736 ], [ 46.1072954, -15.7625323 ], [ 46.1034667, -15.7612059 ], [ 46.0991259, -15.7615643 ], [ 46.0977309, -15.760562 ], [ 46.1008448, -15.7581913 ], [ 46.1036222, -15.7578408 ], [ 46.1058767, -15.7571564 ], [ 46.1046453, -15.754303 ], [ 46.1041179, -15.7531281 ], [ 46.106726, -15.7536195 ], [ 46.1044616, -15.7524535 ], [ 46.1009841, -15.7517982 ], [ 46.100645799999988, -15.7534821 ], [ 46.0983859, -15.7531571 ], [ 46.0943873, -15.7525043 ], [ 46.091949199999988, -15.751339 ], [ 46.0885372, -15.7512239 ], [ 46.087622, -15.7525864 ], [ 46.0872051, -15.7539821 ], [ 46.0862322, -15.754916 ], [ 46.0845618, -15.7530483 ], [ 46.08292, -15.7530743 ], [ 46.0815153, -15.7525989 ], [ 46.0807179, -15.7518167 ], [ 46.0792686, -15.7512339 ], [ 46.0768448, -15.7527599 ], [ 46.0765037, -15.7539392 ], [ 46.0747667, -15.7539477 ], [ 46.0733833, -15.7551321 ], [ 46.072352599999988, -15.7573241 ], [ 46.0711411, -15.7581711 ], [ 46.0692321, -15.7585169 ], [ 46.0662914, -15.7608865 ], [ 46.0636929, -15.7622449 ], [ 46.061434700000014, -15.762256 ], [ 46.0590133, -15.7642864 ], [ 46.059205299999988, -15.7678181 ], [ 46.0571365, -15.7708562 ], [ 46.0559353, -15.7737218 ], [ 46.053855, -15.774573 ], [ 46.0528266, -15.7772695 ], [ 46.051264, -15.7774453 ], [ 46.0478121, -15.7818357 ], [ 46.0472996, -15.7835204 ], [ 46.04608, -15.7828534 ], [ 46.0424482, -15.7860671 ], [ 46.0405509, -15.7887677 ], [ 46.0384807, -15.7916374 ], [ 46.0393537, -15.7924743 ], [ 46.0410781, -15.7899427 ], [ 46.0426339, -15.7884213 ], [ 46.0435138, -15.7906039 ], [ 46.0442173, -15.7922828 ], [ 46.0419665, -15.7938076 ], [ 46.0402283, -15.7936477 ], [ 46.0385056, -15.7965157 ], [ 46.0378226, -15.7988741 ], [ 46.0369651, -15.8010651 ], [ 46.0360938, -15.8005646 ], [ 46.0355854, -15.8030903 ], [ 46.033687, -15.8056227 ], [ 46.032309, -15.8079844 ], [ 46.031264, -15.8074847 ], [ 46.0290155, -15.809514 ], [ 46.0290223, -15.8108597 ], [ 46.0302385, -15.810854 ], [ 46.031459, -15.8116893 ] ] ] } }
]
}
