{
"type": "FeatureCollection",
"name": "MDG-303698-NODATE-secondary_zoning-001",
"crs": { "type": "name", "properties": { "name": "urn:ogc:def:crs:OGC:1.3:CRS84" } },
"features": [
{ "type": "Feature", "properties": { }, "geometry": { "type": "MultiPolygon", "coordinates": [ [ [ [ 45.1973858, -16.1331945 ], [ 45.1971269, -16.1319572 ], [ 45.1959602, -16.1310752 ], [ 45.1954798, -16.131227 ], [ 45.1950017, -16.1310183 ], [ 45.1918029, -16.1314122 ], [ 45.19132, -16.1319759 ], [ 45.1916895, -16.1325444 ], [ 45.1920596, -16.1330099 ], [ 45.1915755, -16.1337796 ], [ 45.1916231, -16.1347068 ], [ 45.1917222, -16.1359432 ], [ 45.1921932, -16.1373362 ], [ 45.1930945, -16.1380622 ], [ 45.19293, -16.1388336 ], [ 45.1925003, -16.1393976 ], [ 45.190423599999988, -16.1392314 ], [ 45.1904199, -16.1398493 ], [ 45.1907912, -16.1401089 ], [ 45.1918461, -16.1418656 ], [ 45.192005, -16.142021 ], [ 45.1919489, -16.1424841 ], [ 45.1924766, -16.143311 ], [ 45.1924741, -16.143723 ], [ 45.192685, -16.1440846 ], [ 45.1931075, -16.1447049 ], [ 45.193372, -16.1450154 ], [ 45.1944858, -16.1458456 ], [ 45.1946415, -16.1465159 ], [ 45.1951621, -16.1485271 ], [ 45.1970219, -16.1505107 ], [ 45.1974102, -16.1512724 ], [ 45.1972111, -16.1517143 ], [ 45.1958395, -16.1511369 ], [ 45.1938729, -16.1502706 ], [ 45.193505, -16.1494446 ], [ 45.1929766, -16.1487207 ], [ 45.1921288, -16.1479435 ], [ 45.1911372, -16.1445393 ], [ 45.1910323, -16.1442812 ], [ 45.1903403, -16.1441743 ], [ 45.1883096, -16.1451926 ], [ 45.1875049, -16.1461149 ], [ 45.186324, -16.14755 ], [ 45.1859486, -16.1479598 ], [ 45.1853036, -16.148883 ], [ 45.184879, -16.1486232 ], [ 45.1842917, -16.1488258 ], [ 45.1843033, -16.1487297 ], [ 45.1824925, -16.1501345 ], [ 45.1815848, -16.151218 ], [ 45.1801113, -16.1527336 ], [ 45.1795759, -16.1550847 ], [ 45.1773444, -16.1571447 ], [ 45.1758192, -16.1581148 ], [ 45.1745456, -16.1593311 ], [ 45.1735252, -16.1605488 ], [ 45.1735116, -16.1627513 ], [ 45.1732387, -16.1659311 ], [ 45.1734678, -16.169848 ], [ 45.1749765, -16.1715697 ], [ 45.1759834, -16.1725544 ], [ 45.176737, -16.1735377 ], [ 45.1782277, -16.178196 ], [ 45.1789753, -16.1801581 ], [ 45.1786663, -16.1892111 ], [ 45.1786542, -16.1911688 ], [ 45.1799114, -16.1926444 ], [ 45.1821862, -16.1933917 ], [ 45.1842137, -16.1931586 ], [ 45.1859925, -16.1921899 ], [ 45.1872617, -16.1917077 ], [ 45.1882852, -16.1900004 ], [ 45.1890554, -16.1882918 ], [ 45.1898226, -16.1870725 ], [ 45.1903396, -16.1853624 ], [ 45.1918605, -16.1851263 ], [ 45.1928899, -16.1824402 ], [ 45.1947591, -16.1665436 ], [ 45.1968264, -16.159703 ], [ 45.196585, -16.1577438 ], [ 45.1978614, -16.156038 ], [ 45.2005456, -16.1525558 ], [ 45.202709399999989, -16.1520617 ], [ 45.204611, -16.1516293 ], [ 45.205857, -16.1513199 ], [ 45.2069077, -16.1508195 ], [ 45.2078248, -16.1507613 ], [ 45.2086098, -16.1508923 ], [ 45.2087476, -16.1497538 ], [ 45.2080338, -16.148674 ], [ 45.2072456, -16.1477187 ], [ 45.206423, -16.146698 ], [ 45.2058711, -16.1459299 ], [ 45.2057516, -16.1452359 ], [ 45.2059558, -16.1441851 ], [ 45.2065402, -16.1435447 ], [ 45.2064881, -16.1433384 ], [ 45.2061691, -16.1432337 ], [ 45.2057999, -16.1426137 ], [ 45.2060154, -16.1422029 ], [ 45.2059643, -16.1418422 ], [ 45.2057565, -16.1409656 ], [ 45.206344, -16.1407114 ], [ 45.2065057, -16.1404034 ], [ 45.2069876, -16.1399941 ], [ 45.2073642, -16.1393783 ], [ 45.2073676, -16.1388119 ], [ 45.2072112, -16.1382446 ], [ 45.2067875, -16.1378302 ], [ 45.2067887, -16.1376243 ], [ 45.2067385, -16.1371091 ], [ 45.206420099999988, -16.1369013 ], [ 45.2061547, -16.1367453 ], [ 45.2056762, -16.1365882 ], [ 45.2054116, -16.1362777 ], [ 45.2052518, -16.1362768 ], [ 45.2049331, -16.1361206 ], [ 45.2046667, -16.1361191 ], [ 45.2044001, -16.1361691 ], [ 45.2042935, -16.1361685 ], [ 45.2040804, -16.1361673 ], [ 45.2039197, -16.1363209 ], [ 45.2038131, -16.1363203 ], [ 45.2035474, -16.1362158 ], [ 45.2034412, -16.1361637 ], [ 45.2032813, -16.1361628 ], [ 45.2031221, -16.1360589 ], [ 45.2028564, -16.1359544 ], [ 45.2028016, -16.1362116 ], [ 45.2025346, -16.1363131 ], [ 45.2024804, -16.1364673 ], [ 45.2017241, -16.1382138 ], [ 45.2000655, -16.1393888 ], [ 45.1997916, -16.1406232 ], [ 45.1992056, -16.1406199 ], [ 45.1989922, -16.1406702 ], [ 45.1986209, -16.1404106 ], [ 45.1984078, -16.1404094 ], [ 45.1982959, -16.1412842 ], [ 45.1979819, -16.1403555 ], [ 45.1981454, -16.1397385 ], [ 45.1985202, -16.1394316 ], [ 45.1987414, -16.138094 ], [ 45.1990638, -16.1376324 ], [ 45.1989096, -16.1367047 ], [ 45.1986451, -16.1363942 ], [ 45.1984905, -16.1355179 ], [ 45.198013899999985, -16.1350518 ], [ 45.1975391, -16.1342767 ], [ 45.1973858, -16.1331945 ] ] ], [ [ [ 45.0046928, -16.130773 ], [ 45.0096341, -16.1315904 ], [ 45.0097997, -16.1312757 ], [ 45.009939, -16.1308292 ], [ 45.0103396, -16.1241731 ], [ 45.0102329, -16.1238566 ], [ 45.0100988, -16.1235662 ], [ 45.0099099, -16.1233281 ], [ 45.0097482, -16.1230902 ], [ 45.0094224, -16.1229564 ], [ 45.0090688, -16.1229015 ], [ 45.008687699999989, -16.122899 ], [ 45.0082515, -16.1229751 ], [ 45.0032583, -16.1244951 ], [ 44.9893645, -16.1332726 ], [ 44.9799325, -16.1386049 ], [ 44.9751981, -16.1419155 ], [ 44.9654208, -16.1459552 ], [ 44.9559882, -16.1512073 ], [ 44.9558235, -16.1513904 ], [ 44.9556582, -16.1516524 ], [ 44.9549447, -16.1561216 ], [ 44.9551926, -16.1594657 ], [ 44.9550812, -16.1598071 ], [ 44.9549703, -16.1600695 ], [ 44.9546963, -16.1603045 ], [ 44.9465268, -16.164012 ], [ 44.9443104, -16.1654442 ], [ 44.9441181, -16.1656797 ], [ 44.9441159, -16.1659692 ], [ 44.945203599999985, -16.1698718 ], [ 44.9453649, -16.1701624 ], [ 44.9455271, -16.1703214 ], [ 44.945771, -16.170481 ], [ 44.9525393, -16.1722119 ], [ 44.9660251, -16.1752252 ], [ 44.9702536, -16.177991 ], [ 44.9803674, -16.1804016 ], [ 44.9805841, -16.180561 ], [ 44.9807186, -16.1807987 ], [ 44.9818835, -16.1854386 ], [ 44.9820452, -16.1856766 ], [ 44.9822077, -16.1858093 ], [ 44.9825063, -16.1859429 ], [ 44.9861275, -16.1860988 ], [ 44.9863582, -16.1860419 ], [ 44.9892507, -16.1835404 ], [ 44.9923041, -16.1858509 ], [ 44.9961631, -16.188954 ], [ 44.9953478, -16.1851371 ], [ 44.9976437, -16.182912 ], [ 44.9974812, -16.1827794 ], [ 44.9964052, -16.1809036 ], [ 44.996325499999983, -16.1806135 ], [ 44.9963543, -16.1804032 ], [ 44.9969337, -16.1793543 ], [ 44.996963, -16.179065 ], [ 44.9968826, -16.1788802 ], [ 44.9966656, -16.1787472 ], [ 44.9964207, -16.1787192 ], [ 44.9950023, -16.1790256 ], [ 44.9930139, -16.179065 ], [ 44.9928238, -16.1789848 ], [ 44.991064, -16.1775255 ], [ 44.9875546, -16.1731858 ], [ 44.9827987, -16.1679955 ], [ 44.9825277, -16.1678095 ], [ 44.9822834, -16.1677026 ], [ 44.9820387, -16.1676483 ], [ 44.9780069, -16.1678318 ], [ 44.9743215, -16.1690702 ], [ 44.9739398, -16.1691203 ], [ 44.9736409, -16.1690393 ], [ 44.9711735, -16.1675488 ], [ 44.9710116, -16.1673372 ], [ 44.9699934, -16.1650406 ], [ 44.9698601, -16.1646449 ], [ 44.9698894, -16.1643556 ], [ 44.9700547, -16.1640935 ], [ 44.9703007, -16.1639636 ], [ 44.9736888, -16.1624074 ], [ 44.9779671, -16.1620151 ], [ 44.9781586, -16.1618848 ], [ 44.9782694, -16.1616224 ], [ 44.978190200000014, -16.1612797 ], [ 44.9780285, -16.1610417 ], [ 44.9741035, -16.1577782 ], [ 44.9740233, -16.1575671 ], [ 44.9739976, -16.1573563 ], [ 44.9741621, -16.1571995 ], [ 44.9744894, -16.1571228 ], [ 44.9748434, -16.1571252 ], [ 44.9829497, -16.1583376 ], [ 44.98344, -16.1583146 ], [ 44.983795, -16.1581854 ], [ 44.9905618, -16.1524931 ], [ 44.9975147, -16.1473808 ], [ 45.0048364, -16.1401125 ], [ 45.0064799, -16.1387284 ], [ 45.00672740000001, -16.1383879 ], [ 45.006811500000012, -16.1380463 ], [ 45.0064827, -16.1344648 ], [ 45.0065662, -16.1342022 ], [ 45.0046928, -16.130773 ] ] ], [ [ [ 45.3411195, -16.1124891 ], [ 45.3429634, -16.1142898 ], [ 45.3469461, -16.1148724 ], [ 45.3506475, -16.1155417 ], [ 45.3549366, -16.1154845 ], [ 45.3562507, -16.1134818 ], [ 45.3551456, -16.1109542 ], [ 45.3542241, -16.1089679 ], [ 45.3525534, -16.1076987 ], [ 45.350703, -16.1051674 ], [ 45.3488451, -16.1040773 ], [ 45.3454136, -16.1039451 ], [ 45.3418839, -16.1046707 ], [ 45.338619, -16.106621 ], [ 45.3387094, -16.1066215 ], [ 45.3388824, -16.1081081 ], [ 45.3396404, -16.1100783 ], [ 45.3411195, -16.1124891 ] ] ], [ [ [ 45.122633699999987, -16.0809614 ], [ 45.1228744, -16.073964 ], [ 45.1228137, -16.0663549 ], [ 45.1212261, -16.0635783 ], [ 45.1187048, -16.062095 ], [ 45.1125806, -16.0608576 ], [ 45.1004138, -16.0567704 ], [ 45.0934649, -16.0504629 ], [ 45.0877596, -16.0496109 ], [ 45.086892299999988, -16.0506457 ], [ 45.0883946, -16.053102 ], [ 45.0908979, -16.0572773 ], [ 45.0913848, -16.0602168 ], [ 45.0906112, -16.0624145 ], [ 45.0878243, -16.0628868 ], [ 45.0858062, -16.0618956 ], [ 45.0770449, -16.0598884 ], [ 45.0774406, -16.0640464 ], [ 45.074892100000014, -16.0667224 ], [ 45.0723121, -16.0693915 ], [ 45.073852099999989, -16.0719096 ], [ 45.064428, -16.0798714 ], [ 45.059363, -16.0803291 ], [ 45.0613729, -16.082544 ], [ 45.0613598, -16.0845016 ], [ 45.0600894, -16.0852277 ], [ 45.0552856, -16.0844634 ], [ 45.0455951, -16.095169 ], [ 45.0443171, -16.0975256 ], [ 45.044495, -16.1012622 ], [ 45.0444294, -16.1108956 ], [ 45.0426491, -16.1188865 ], [ 45.0454388, -16.1187222 ], [ 45.0542932, -16.1189605 ], [ 45.050736, -16.1208956 ], [ 45.0466825, -16.1213593 ], [ 45.0426324, -16.1213335 ], [ 45.0418612, -16.1230415 ], [ 45.0426056, -16.1252486 ], [ 45.0367077, -16.1362225 ], [ 45.0329104, -16.136198 ], [ 45.0456115, -16.1424726 ], [ 45.0672295, -16.1528117 ], [ 45.0841927, -16.1529175 ], [ 45.1014093, -16.1530235 ], [ 45.1018868, -16.1574313 ], [ 45.1186039, -16.156554 ], [ 45.1229098, -16.1563352 ], [ 45.1259418, -16.1573323 ], [ 45.1259292, -16.1592899 ], [ 45.1271842, -16.1610105 ], [ 45.1315184, -16.1563868 ], [ 45.1312887, -16.1527147 ], [ 45.146335, -16.1356736 ], [ 45.148425, -16.1254077 ], [ 45.1484573, -16.1202688 ], [ 45.1482241, -16.1170861 ], [ 45.1467252, -16.113896 ], [ 45.1385201, -16.1026552 ], [ 45.1362064, -16.0959697 ], [ 45.1364704, -16.0942582 ], [ 45.135982699999985, -16.0913187 ], [ 45.1299423, -16.0858992 ], [ 45.127661299999986, -16.0863751 ], [ 45.1236132, -16.0861062 ], [ 45.1234881, -16.0853515 ], [ 45.1233789, -16.0831683 ], [ 45.1216119, -16.0824236 ], [ 45.122633699999987, -16.0809614 ] ] ], [ [ [ 45.4882361, -16.0395073 ], [ 45.4881628, -16.0393459 ], [ 45.4880916, -16.0387191 ], [ 45.4874298, -16.037696 ], [ 45.4867672, -16.0368519 ], [ 45.4862315, -16.0366169 ], [ 45.485991, -16.0365801 ], [ 45.4857689, -16.0365792 ], [ 45.4851019, -16.0367196 ], [ 45.484546, -16.0368605 ], [ 45.4841017, -16.0368586 ], [ 45.4839536, -16.036858 ], [ 45.4836011, -16.0370534 ], [ 45.4834162, -16.0369989 ], [ 45.4831575, -16.0369084 ], [ 45.482917, -16.0368715 ], [ 45.4826206, -16.036924 ], [ 45.48238, -16.036923 ], [ 45.4820468, -16.0369216 ], [ 45.4818432, -16.0369386 ], [ 45.4816208, -16.0369914 ], [ 45.4807298, -16.0375426 ], [ 45.4794311, -16.0382173 ], [ 45.4779108, -16.0387658 ], [ 45.4771883, -16.0389059 ], [ 45.4767265, -16.0386892 ], [ 45.4764864, -16.0385808 ], [ 45.4763384, -16.0385622 ], [ 45.476227, -16.0386334 ], [ 45.4761521, -16.0388299 ], [ 45.4760766, -16.0391339 ], [ 45.4758712, -16.0395269 ], [ 45.4757033, -16.0398305 ], [ 45.4757024, -16.0400274 ], [ 45.4752548, -16.0407594 ], [ 45.4750683, -16.0410808 ], [ 45.4748271, -16.0412051 ], [ 45.4745678, -16.0412219 ], [ 45.4744199, -16.0411854 ], [ 45.4742902, -16.0412207 ], [ 45.474197, -16.0413635 ], [ 45.4741582, -16.0417571 ], [ 45.4741946, -16.0419005 ], [ 45.4743038, -16.0422948 ], [ 45.4745433, -16.0425464 ], [ 45.4744491, -16.042904 ], [ 45.474392599999987, -16.0431364 ], [ 45.4744841, -16.0433695 ], [ 45.4746497, -16.0435671 ], [ 45.4748148, -16.043908 ], [ 45.4749243, -16.0442485 ], [ 45.4748129, -16.0443197 ], [ 45.4747013, -16.0444445 ], [ 45.4746082, -16.0445694 ], [ 45.4744418, -16.044515 ], [ 45.4742943, -16.0443891 ], [ 45.4741476, -16.0440841 ], [ 45.474074, -16.0439943 ], [ 45.4740014, -16.0436718 ], [ 45.47391, -16.0434208 ], [ 45.4737813, -16.0432234 ], [ 45.4735424, -16.0428464 ], [ 45.473506, -16.0427031 ], [ 45.4734145, -16.04247 ], [ 45.4732495, -16.0421292 ], [ 45.4731945, -16.0420036 ], [ 45.473065600000012, -16.0418599 ], [ 45.472881, -16.0417517 ], [ 45.4731044, -16.0414663 ], [ 45.4732536, -16.0412342 ], [ 45.4732363, -16.0409656 ], [ 45.4733855, -16.0407156 ], [ 45.4733125, -16.0404826 ], [ 45.473350499999988, -16.040268 ], [ 45.4731841, -16.0402315 ], [ 45.4729807, -16.0401769 ], [ 45.4726112, -16.0400321 ], [ 45.4724262, -16.0399955 ], [ 45.4722596, -16.0400127 ], [ 45.4720182, -16.0401728 ], [ 45.4715187, -16.040117 ], [ 45.4710193, -16.0400254 ], [ 45.470871099999989, -16.0400605 ], [ 45.4707781, -16.0401496 ], [ 45.4707772, -16.0403465 ], [ 45.4708501, -16.0405974 ], [ 45.471015199999989, -16.0409383 ], [ 45.471047, -16.042084 ], [ 45.4710454, -16.0424241 ], [ 45.4701309, -16.044067 ], [ 45.4700925, -16.0443712 ], [ 45.4701763, -16.0446767 ], [ 45.470237, -16.0451594 ], [ 45.4704567, -16.0456973 ], [ 45.4705096, -16.0462704 ], [ 45.4703403, -16.0468604 ], [ 45.4704299, -16.0475051 ], [ 45.4704653, -16.0478633 ], [ 45.4704822, -16.0482214 ], [ 45.4704425, -16.0488119 ], [ 45.4706669, -16.0496894 ], [ 45.4706195, -16.0505848 ], [ 45.4704519, -16.0507989 ], [ 45.4699497, -16.0513158 ], [ 45.4696878, -16.0519233 ], [ 45.469538, -16.0522986 ], [ 45.4694422, -16.0529963 ], [ 45.4695149, -16.0533009 ], [ 45.4694568, -16.0538556 ], [ 45.4689942, -16.0538178 ], [ 45.4685316, -16.05378 ], [ 45.4682903, -16.0539222 ], [ 45.4677155, -16.0541345 ], [ 45.46682950000001, -16.0535758 ], [ 45.4662575, -16.0531796 ], [ 45.4658682, -16.0532853 ], [ 45.4654556, -16.0531979 ], [ 45.4655504, -16.054166 ], [ 45.4652371, -16.0548995 ], [ 45.4655089, -16.0549485 ], [ 45.4657666, -16.0552718 ], [ 45.4657439, -16.0561667 ], [ 45.4653344, -16.0566662 ], [ 45.4652944, -16.0573104 ], [ 45.4650525, -16.0575779 ], [ 45.4648274, -16.0582213 ], [ 45.4650466, -16.0588666 ], [ 45.465119, -16.059225 ], [ 45.4653764, -16.059602 ], [ 45.4655979, -16.0597461 ], [ 45.4657081, -16.0599435 ], [ 45.4658919, -16.0602307 ], [ 45.4664253, -16.0609669 ], [ 45.4662007, -16.0615029 ], [ 45.4663091, -16.0620941 ], [ 45.4668423, -16.062884 ], [ 45.467191, -16.0635478 ], [ 45.4673558, -16.0639423 ], [ 45.4673732, -16.064193 ], [ 45.4673709, -16.0646942 ], [ 45.4675918, -16.0649637 ], [ 45.4682588, -16.0648412 ], [ 45.4688509, -16.0649153 ], [ 45.4692574, -16.0650782 ], [ 45.4697931, -16.0653311 ], [ 45.4706279, -16.0649409 ], [ 45.4712389, -16.0649256 ], [ 45.4712951, -16.0647826 ], [ 45.4717955, -16.0646594 ], [ 45.4723704, -16.0644471 ], [ 45.4728329, -16.0645028 ], [ 45.473462, -16.064577 ], [ 45.4741448, -16.0650633 ], [ 45.4747897, -16.0657283 ], [ 45.4752499, -16.0663031 ], [ 45.4756935, -16.0664482 ], [ 45.476509900000011, -16.0660578 ], [ 45.4768246, -16.0660592 ], [ 45.4775658, -16.0659012 ], [ 45.477787, -16.066117 ], [ 45.4783426, -16.0660656 ], [ 45.4787861, -16.0662286 ], [ 45.4793428, -16.0659445 ], [ 45.4797308, -16.0661073 ], [ 45.4800453, -16.0661623 ], [ 45.4806929, -16.0662367 ], [ 45.4810449, -16.0661844 ], [ 45.4819145, -16.0662955 ], [ 45.4824909, -16.065743 ], [ 45.4831777, -16.0653342 ], [ 45.4834563, -16.0651206 ], [ 45.4834947, -16.0648343 ], [ 45.4836432, -16.0647455 ], [ 45.4838098, -16.0647462 ], [ 45.4842164, -16.0648911 ], [ 45.484920099999989, -16.0648403 ], [ 45.4850157, -16.0641605 ], [ 45.4852397, -16.0637498 ], [ 45.4849831, -16.0631759 ], [ 45.4849508, -16.0621375 ], [ 45.4849524, -16.0617795 ], [ 45.4849912, -16.0613859 ], [ 45.4849178, -16.0612245 ], [ 45.4841248, -16.0605588 ], [ 45.484052500000011, -16.0601647 ], [ 45.4844624, -16.0595936 ], [ 45.4851097, -16.0597216 ], [ 45.4860711, -16.0599942 ], [ 45.4866825, -16.0598893 ], [ 45.4879411, -16.0599483 ], [ 45.4888671, -16.0598627 ], [ 45.489422300000015, -16.0599008 ], [ 45.4900696, -16.0600288 ], [ 45.4905516, -16.0598876 ], [ 45.4908318, -16.059316 ], [ 45.4912406, -16.0589597 ], [ 45.4916129, -16.0585137 ], [ 45.4919661, -16.0581751 ], [ 45.4932275, -16.0576075 ], [ 45.4941589, -16.0563047 ], [ 45.4942712, -16.0560187 ], [ 45.4944955, -16.0555363 ], [ 45.4950895, -16.0551629 ], [ 45.495313, -16.0548595 ], [ 45.4957033, -16.054521 ], [ 45.4964259, -16.0543629 ], [ 45.4967965, -16.054275 ], [ 45.4977035, -16.0542966 ], [ 45.4986482, -16.0541752 ], [ 45.4991313, -16.0537476 ], [ 45.500246, -16.0528572 ], [ 45.5009118, -16.0530031 ], [ 45.5012451, -16.0529687 ], [ 45.5018591, -16.0522552 ], [ 45.502862199999988, -16.0514717 ], [ 45.5034932, -16.0510984 ], [ 45.5042336, -16.0511193 ], [ 45.5043645, -16.0508156 ], [ 45.5048713, -16.0492245 ], [ 45.504873, -16.0488307 ], [ 45.5042357, -16.0478284 ], [ 45.5041933, -16.0476465 ], [ 45.5039538, -16.0473949 ], [ 45.5037886, -16.047072 ], [ 45.5034385, -16.0467125 ], [ 45.5039598, -16.0460166 ], [ 45.5039604, -16.0458913 ], [ 45.5037385, -16.0458366 ], [ 45.5027047, -16.0460021 ], [ 45.5025909, -16.045814 ], [ 45.5024997, -16.0455093 ], [ 45.5024077, -16.0453837 ], [ 45.5022043, -16.0453291 ], [ 45.5016304, -16.0453447 ], [ 45.5012242, -16.0451103 ], [ 45.5008726, -16.0450909 ], [ 45.5005592, -16.0447853 ], [ 45.5003192, -16.044659 ], [ 45.5000237, -16.0444967 ], [ 45.4997021, -16.0445015 ], [ 45.4991743, -16.0440099 ], [ 45.4988975, -16.0438298 ], [ 45.4984542, -16.0436131 ], [ 45.4982327, -16.043469 ], [ 45.4980483, -16.0433071 ], [ 45.4975682, -16.0430367 ], [ 45.4970501, -16.0429987 ], [ 45.4965694, -16.0428714 ], [ 45.4959395, -16.0429941 ], [ 45.4951808, -16.0429373 ], [ 45.4944034, -16.042934 ], [ 45.493459099999988, -16.0429838 ], [ 45.4926826, -16.0427658 ], [ 45.4920901, -16.0427991 ], [ 45.4917016, -16.0427438 ], [ 45.491425399999983, -16.0424384 ], [ 45.4909833, -16.0419532 ], [ 45.4909852, -16.0415236 ], [ 45.4908933, -16.04138 ], [ 45.4903764, -16.0410556 ], [ 45.4902668, -16.040733 ], [ 45.4900823, -16.040589 ], [ 45.489973299999988, -16.040141 ], [ 45.4898258, -16.0399972 ], [ 45.489622499999982, -16.0399427 ], [ 45.4893818, -16.0399417 ], [ 45.4886978, -16.0397598 ], [ 45.4882361, -16.0395073 ] ] ], [ [ [ 45.2736342, -16.0547255 ], [ 45.2741654, -16.0610996 ], [ 45.2744379, -16.0630364 ], [ 45.2843148, -16.0660795 ], [ 45.2874938, -16.0627788 ], [ 45.2872258, -16.0599857 ], [ 45.285546, -16.0530575 ], [ 45.2869455, -16.0369479 ], [ 45.278877199999982, -16.0291647 ], [ 45.276665, -16.0288963 ], [ 45.2719358, -16.0321943 ], [ 45.2719357, -16.0322115 ], [ 45.2701995, -16.0397108 ], [ 45.2741714, -16.0441608 ], [ 45.270532800000012, -16.0455462 ], [ 45.2736342, -16.0547255 ] ] ], [ [ [ 45.2296207, -16.0005952 ], [ 45.2281359, -15.9996864 ], [ 45.2265743, -15.9992943 ], [ 45.2195699, -15.9994597 ], [ 45.2175275, -15.9983677 ], [ 45.2151212, -15.9958324 ], [ 45.2134461, -15.9942275 ], [ 45.2115954, -15.9936513 ], [ 45.2099182, -15.9938223 ], [ 45.2087955, -15.9947168 ], [ 45.2078569, -15.9959727 ], [ 45.2078495, -15.9972337 ], [ 45.2051719, -16.0091085 ], [ 45.2040448, -16.0107236 ], [ 45.2027378, -16.0112568 ], [ 45.20125, -16.0108882 ], [ 45.2001389, -16.0098012 ], [ 45.1992237, -16.0070939 ], [ 45.1979296, -16.0054654 ], [ 45.1970027, -16.0047397 ], [ 45.1958874, -16.0043732 ], [ 45.1938377, -16.0045419 ], [ 45.1921539, -16.0057935 ], [ 45.1910257, -16.0075886 ], [ 45.1900783, -16.0102855 ], [ 45.188205, -16.0120764 ], [ 45.1865211, -16.013328 ], [ 45.1798129, -16.0138306 ], [ 45.1762654, -16.0152516 ], [ 45.1738288, -16.0177598 ], [ 45.1725042, -16.021175 ], [ 45.1719659, -16.0243925 ], [ 45.173591, -16.0262252 ], [ 45.1759982, -16.0285807 ], [ 45.1774774, -16.0303906 ], [ 45.1782104, -16.0323763 ], [ 45.1781951, -16.0348982 ], [ 45.1772517, -16.0368745 ], [ 45.174256, -16.0393794 ], [ 45.1703332, -16.0411585 ], [ 45.1680858, -16.0431272 ], [ 45.1669548, -16.0452824 ], [ 45.1663816, -16.047621 ], [ 45.1671179, -16.0490664 ], [ 45.1691681, -16.048898 ], [ 45.1745583, -16.0509104 ], [ 45.1762162, -16.0539823 ], [ 45.1771213, -16.0583109 ], [ 45.1774785, -16.0608349 ], [ 45.180616, -16.0657167 ], [ 45.1830139, -16.0696935 ], [ 45.1865319, -16.0733163 ], [ 45.1909816, -16.0769444 ], [ 45.1985923, -16.081671 ], [ 45.2067614, -16.0865806 ], [ 45.2153131, -16.0898707 ], [ 45.2225847, -16.0856944 ], [ 45.2246139, -16.0849713 ], [ 45.2258724, -16.0862018 ], [ 45.228395, -16.087684 ], [ 45.2324363, -16.0891744 ], [ 45.2390147, -16.0896996 ], [ 45.2428172, -16.0887412 ], [ 45.2456043, -16.0882667 ], [ 45.249397, -16.0890213 ], [ 45.2509395, -16.0848691 ], [ 45.2578489, -16.0716905 ], [ 45.259405, -16.065091 ], [ 45.2607133, -16.0575112 ], [ 45.2607355, -16.0535957 ], [ 45.2615113, -16.050663 ], [ 45.2632966, -16.0482251 ], [ 45.263824, -16.0456352 ], [ 45.2634596, -16.0441921 ], [ 45.260115500000012, -16.0425531 ], [ 45.2572229, -16.0375917 ], [ 45.254653, -16.0333131 ], [ 45.2510484, -16.0285273 ], [ 45.247186, -16.0234892 ], [ 45.2430673, -16.0179479 ], [ 45.2402446, -16.0146611 ], [ 45.243343, -16.0111176 ], [ 45.243165, -16.0096755 ], [ 45.2420547, -16.0084085 ], [ 45.2340573, -16.0063839 ], [ 45.2325746, -16.0051149 ], [ 45.2311012, -16.0022245 ], [ 45.2296207, -16.0005952 ] ] ], [ [ [ 45.364672, -15.9860559 ], [ 45.3633287, -15.9869778 ], [ 45.3625923, -15.9874813 ], [ 45.3601064, -15.9878907 ], [ 45.3593047, -15.9870847 ], [ 45.3566695, -15.985027 ], [ 45.352633499999989, -15.9842276 ], [ 45.3496604, -15.9852898 ], [ 45.3483345, -15.9859464 ], [ 45.348224699999989, -15.9885201 ], [ 45.3491737, -15.9901695 ], [ 45.3508965, -15.9922485 ], [ 45.3508629, -15.9934247 ], [ 45.3488005, -15.9970428 ], [ 45.3488356, -15.9991586 ], [ 45.3502754, -16.00064 ], [ 45.3511642, -16.001166 ], [ 45.3543589, -16.0006384 ], [ 45.3557502, -16.0008367 ], [ 45.3576371, -16.0020594 ], [ 45.3586741, -16.0037518 ], [ 45.360248399999989, -16.0047814 ], [ 45.3607159, -16.0048369 ], [ 45.3607488, -16.0048636 ], [ 45.3610836, -16.0050303 ], [ 45.3612495, -16.0048927 ], [ 45.3616128, -16.0048625 ], [ 45.3619985, -16.0047791 ], [ 45.3623613, -16.0048607 ], [ 45.3627257, -16.0046442 ], [ 45.3626938, -16.0044151 ], [ 45.3627507, -16.0040588 ], [ 45.3625349, -16.0035037 ], [ 45.3624964, -16.0031446 ], [ 45.3625541, -16.0029109 ], [ 45.3628045, -16.0028185 ], [ 45.3630989, -16.0026545 ], [ 45.3633139, -16.0025635 ], [ 45.3633955, -16.0023923 ], [ 45.3632843, -16.0020563 ], [ 45.3629478, -16.0016101 ], [ 45.3627798, -16.001344 ], [ 45.362531700000012, -16.0009762 ], [ 45.3621958, -16.0004208 ], [ 45.3626092, -16.0000093 ], [ 45.3628124, -15.9996982 ], [ 45.3631698, -15.9991929 ], [ 45.3634461, -15.9987886 ], [ 45.3637224, -15.9983608 ], [ 45.364715600000011, -15.9977863 ], [ 45.3653554, -15.9975963 ], [ 45.3657593, -15.9974734 ], [ 45.3661621, -15.9975534 ], [ 45.3669204, -15.9975102 ], [ 45.3675265, -15.9972556 ], [ 45.3681409, -15.9969777 ], [ 45.3684812, -15.9966673 ], [ 45.3690066, -15.9964201 ], [ 45.3695229, -15.9963914 ], [ 45.3701187, -15.9965892 ], [ 45.3706427, -15.9966385 ], [ 45.3720296, -15.9966762 ], [ 45.372581, -15.996086 ], [ 45.3728419, -15.9955256 ], [ 45.3740623, -15.9950009 ], [ 45.374476, -15.994527 ], [ 45.3749413, -15.9933981 ], [ 45.3752175, -15.9930015 ], [ 45.3755269, -15.9924257 ], [ 45.376312, -15.9918599 ], [ 45.3763052, -15.9915947 ], [ 45.3762115, -15.9909629 ], [ 45.375692, -15.9900551 ], [ 45.3750354, -15.9891159 ], [ 45.3743525, -15.9886056 ], [ 45.3730514, -15.9875542 ], [ 45.3724407, -15.9871145 ], [ 45.3719661, -15.9868704 ], [ 45.3708203, -15.9867801 ], [ 45.3706076, -15.9860059 ], [ 45.370553, -15.9856391 ], [ 45.3698563, -15.9862754 ], [ 45.3698544, -15.9866499 ], [ 45.3685017, -15.9862222 ], [ 45.3675506, -15.9861397 ], [ 45.366841, -15.9861129 ], [ 45.3662775, -15.9859153 ], [ 45.3654407, -15.9855603 ], [ 45.364672, -15.9860559 ] ] ] ] } }
]
}
