{
"type": "FeatureCollection",
"name": "MDG-900667-NODATE-secondary_zoning-001",
"crs": { "type": "name", "properties": { "name": "urn:ogc:def:crs:OGC:1.3:CRS84" } },
"features": [
{ "type": "Feature", "properties": { }, "geometry": { "type": "MultiPolygon", "coordinates": [ [ [ [ 47.9287277, -14.3985552 ], [ 47.9214424, -14.3964097 ], [ 47.9139439, -14.3991517 ], [ 47.9121101, -14.4073865 ], [ 47.918229, -14.4112747 ], [ 47.927842, -14.4137091 ], [ 47.9341065, -14.4134188 ], [ 47.9353313, -14.4097451 ], [ 47.9331406, -14.4042297 ], [ 47.9287277, -14.3985552 ] ] ], [ [ [ 47.753645, -14.3830697 ], [ 47.7476612, -14.3844216 ], [ 47.7474257, -14.3866219 ], [ 47.7499488, -14.3890485 ], [ 47.7469987, -14.3973744 ], [ 47.750260300000015, -14.3978416 ], [ 47.7640095, -14.3926203 ], [ 47.7634792, -14.3884705 ], [ 47.7593257, -14.3845892 ], [ 47.753645, -14.3830697 ] ] ], [ [ [ 47.7726237, -14.3676859 ], [ 47.766321, -14.3647536 ], [ 47.7587948, -14.3656759 ], [ 47.7535812, -14.3707013 ], [ 47.7539142, -14.3758282 ], [ 47.7585728, -14.3796898 ], [ 47.7672695, -14.3785423 ], [ 47.7717092, -14.3739197 ], [ 47.7726237, -14.3676859 ] ] ], [ [ [ 47.7496103, -14.3655029 ], [ 47.7452865, -14.3638186 ], [ 47.7410055, -14.3641875 ], [ 47.7383647, -14.3675227 ], [ 47.739273, -14.3718762 ], [ 47.743129499999988, -14.3752763 ], [ 47.7489551, -14.3746931 ], [ 47.7506801, -14.3700888 ], [ 47.7496103, -14.3655029 ] ] ], [ [ [ 47.9074817, -14.300664 ], [ 47.9018641, -14.3044229 ], [ 47.8984763, -14.3096007 ], [ 47.898261, -14.3142442 ], [ 47.9022994, -14.3181241 ], [ 47.9103225, -14.3187989 ], [ 47.918609, -14.3173867 ], [ 47.9258207, -14.3140439 ], [ 47.9293076, -14.3113309 ], [ 47.9167712, -14.310201 ], [ 47.9149355, -14.3069023 ], [ 47.9184781, -14.3040807 ], [ 47.9286941, -14.3033695 ], [ 47.9288237, -14.3011519 ], [ 47.9209403, -14.2984435 ], [ 47.9138427, -14.2982582 ], [ 47.9074817, -14.300664 ] ] ], [ [ [ 47.8302116, -14.183709 ], [ 47.8420422, -14.1931695 ], [ 47.868216499999988, -14.1669369 ], [ 47.8642529, -14.1431194 ], [ 47.8685564, -14.1323951 ], [ 47.877322499999984, -14.1323327 ], [ 47.86345450000001, -14.1143231 ], [ 47.8669217, -14.1286995 ], [ 47.8585137, -14.1473888 ], [ 47.8599249, -14.1599207 ], [ 47.8484037, -14.1734588 ], [ 47.836296, -14.176395 ], [ 47.8302116, -14.183709 ] ] ], [ [ [ 47.7475226, -14.0800462 ], [ 47.7354303, -14.0703751 ], [ 47.6886827, -14.0963939 ], [ 47.6867716, -14.138493 ], [ 47.6749351, -14.149114 ], [ 47.7067771, -14.172697 ], [ 47.6995996, -14.1312309 ], [ 47.7223845, -14.095571 ], [ 47.7475226, -14.0800462 ] ] ], [ [ [ 47.7081861, -13.985259 ], [ 47.6913163, -14.0139559 ], [ 47.6947951, -14.0267134 ], [ 47.7064845, -14.0203906 ], [ 47.7152793, -13.9876744 ], [ 47.7081861, -13.985259 ] ] ], [ [ [ 47.7175253, -13.8711114 ], [ 47.6917249, -13.8739973 ], [ 47.6877504, -13.8922321 ], [ 47.6777088, -13.9078523 ], [ 47.6898892, -13.9108159 ], [ 47.7084434, -13.881432 ], [ 47.7196557, -13.8797947 ], [ 47.7324256, -13.8859429 ], [ 47.7357919, -13.8761361 ], [ 47.7175253, -13.8711114 ] ] ], [ [ [ 47.9840484, -14.3893478 ], [ 47.976533400000015, -14.3898932 ], [ 47.9768286, -14.3955102 ], [ 47.9806231, -14.3998792 ], [ 47.9862111, -14.4091209 ], [ 47.9897397, -14.4115372 ], [ 47.9892218, -14.4083871 ], [ 47.9840484, -14.3893478 ] ] ], [ [ [ 47.9520364, -14.3533219 ], [ 47.9483945, -14.3565666 ], [ 47.9462392, -14.3620234 ], [ 47.9476675, -14.3844897 ], [ 47.9416395, -14.4028085 ], [ 47.9483512, -14.4074066 ], [ 47.9564518, -14.4019836 ], [ 47.9605115, -14.3958039 ], [ 47.961492, -14.3895174 ], [ 47.9574717, -14.3730167 ], [ 47.9595131, -14.3609475 ], [ 47.9633742, -14.3587432 ], [ 47.963867899999983, -14.3562369 ], [ 47.9573152, -14.3530681 ], [ 47.9520364, -14.3533219 ] ] ], [ [ [ 47.9860143, -14.3792784 ], [ 47.9869934, -14.3743666 ], [ 47.9851711, -14.3729703 ], [ 47.9826915, -14.3730343 ], [ 47.979885, -14.3767558 ], [ 47.982972, -14.380072 ], [ 47.9860143, -14.3792784 ] ] ], [ [ [ 47.9946318, -14.3025357 ], [ 48.0043926, -14.3012396 ], [ 47.9945125, -14.2876334 ], [ 47.9901223, -14.30257 ], [ 47.9906546, -14.3064751 ], [ 47.9967216, -14.3121253 ], [ 47.9984544, -14.310569 ], [ 47.994164, -14.3066927 ], [ 47.9946318, -14.3025357 ] ] ], [ [ [ 48.0226752, -14.300366 ], [ 48.0299126, -14.2968895 ], [ 48.0246198, -14.2930215 ], [ 48.00604, -14.288034 ], [ 48.0126304, -14.2975117 ], [ 48.0226752, -14.300366 ] ] ], [ [ [ 48.0248302, -14.2767465 ], [ 48.013094299999985, -14.2835228 ], [ 48.0357991, -14.2814518 ], [ 48.0357472, -14.2747354 ], [ 48.0248302, -14.2767465 ] ] ], [ [ [ 48.0314707, -14.1980636 ], [ 48.031904, -14.1934671 ], [ 48.0269519, -14.1918355 ], [ 48.0215033, -14.1881509 ], [ 48.017304, -14.1941296 ], [ 48.0166497, -14.2061062 ], [ 48.026138, -14.2026124 ], [ 48.0314707, -14.1980636 ] ] ], [ [ [ 47.978981, -14.1578134 ], [ 47.9681222, -14.143845 ], [ 47.9539698, -14.1460624 ], [ 47.9549818, -14.1490885 ], [ 47.9617665, -14.1499083 ], [ 47.9628643, -14.1548377 ], [ 47.9715774, -14.1554613 ], [ 47.9751452, -14.1600191 ], [ 47.978981, -14.1578134 ] ] ], [ [ [ 48.0436306, -14.1023165 ], [ 48.050066, -14.0980173 ], [ 48.0407091, -14.0903971 ], [ 48.0443659, -14.0772779 ], [ 48.0381835, -14.081566 ], [ 48.037820200000013, -14.0867141 ], [ 48.0326994, -14.0891965 ], [ 48.0436306, -14.1023165 ] ] ] ] } }
]
}
