{
"type": "FeatureCollection",
"name": "MDG-5026-NODATE-secondary_zoning-001",
"crs": { "type": "name", "properties": { "name": "urn:ogc:def:crs:OGC:1.3:CRS84" } },
"features": [
{ "type": "Feature", "properties": { }, "geometry": { "type": "Polygon", "coordinates": [ [ [ 48.4707195, -14.0764389 ], [ 48.4824866, -14.071933 ], [ 48.4766072, -14.0467319 ], [ 48.4649405, -14.0051134 ], [ 48.4502006, -13.9931741 ], [ 48.448109099999989, -13.9525615 ], [ 48.4456638, -13.9328175 ], [ 48.4364307, -13.9087449 ], [ 48.3976916, -13.9135007 ], [ 48.337029500000014, -13.9184496 ], [ 48.3139944, -13.919755 ], [ 48.3013275, -13.9478717 ], [ 48.283704199999988, -13.9875623 ], [ 48.2677974, -14.0310801 ], [ 48.3221874, -14.0734262 ], [ 48.3465407, -14.0907768 ], [ 48.3686157, -14.1048514 ], [ 48.3934367, -14.1117604 ], [ 48.4124824, -14.1033467 ], [ 48.4522736, -14.0881459 ], [ 48.4707195, -14.0764389 ] ] ] } }
]
}
