{
"type": "FeatureCollection",
"name": "MDG-2307-NODATE-secondary_zoning-001",
"crs": { "type": "name", "properties": { "name": "urn:ogc:def:crs:OGC:1.3:CRS84" } },
"features": [
{ "type": "Feature", "properties": { }, "geometry": { "type": "MultiPolygon", "coordinates": [ [ [ [ 44.2349912, -24.7490696 ], [ 44.20615, -24.7854187 ], [ 44.1878431, -24.8127111 ], [ 44.1612037, -24.8402524 ], [ 44.1611975, -24.8402588 ], [ 44.1427181, -24.8593539 ], [ 44.1533367, -24.8899318 ], [ 44.1734355, -24.8584387 ], [ 44.2144223, -24.8123302 ], [ 44.2471359, -24.8068027 ], [ 44.2692646, -24.7822719 ], [ 44.2349912, -24.7490696 ] ] ], [ [ [ 44.1959539, -24.6750956 ], [ 44.187889, -24.7037757 ], [ 44.163972, -24.7044461 ], [ 44.1664906, -24.7501436 ], [ 44.215523, -24.7428577 ], [ 44.268008, -24.6522154 ], [ 44.2454811, -24.6340556 ], [ 44.226632, -24.6586262 ], [ 44.1959539, -24.6750956 ] ] ], [ [ [ 44.1361174, -24.5482126 ], [ 44.0694677, -24.5105509 ], [ 44.0303371, -24.5774947 ], [ 44.0581313, -24.6027116 ], [ 44.0747166, -24.5850786 ], [ 44.1361174, -24.5482126 ] ] ], [ [ [ 43.9987289, -24.4608867 ], [ 43.9817482, -24.4397895 ], [ 43.9297213, -24.4985748 ], [ 43.9538153, -24.5465878 ], [ 43.972542, -24.5309834 ], [ 43.9987289, -24.4608867 ] ] ], [ [ [ 43.9737606, -24.4009548 ], [ 43.9646943, -24.3621035 ], [ 43.8763524, -24.392529 ], [ 43.909223399999988, -24.4327435 ], [ 43.9737606, -24.4009548 ] ] ], [ [ [ 43.9627919, -24.3471842 ], [ 43.9484951, -24.2983262 ], [ 43.8175268, -24.2933258 ], [ 43.8743684, -24.3825709 ], [ 43.9627919, -24.3471842 ] ] ], [ [ [ 43.9092735, -24.131944 ], [ 43.8827565, -24.0441744 ], [ 43.7703359, -24.0252524 ], [ 43.8050233, -24.2673156 ], [ 43.94585, -24.2645333 ], [ 43.9092735, -24.131944 ] ] ], [ [ [ 43.743978, -24.0814341 ], [ 43.744072, -24.0816147 ], [ 43.74436, -24.0818519 ], [ 43.7445932, -24.0819018 ], [ 43.7448457, -24.0818138 ], [ 43.7449197, -24.0814794 ], [ 43.7449149, -24.0808324 ], [ 43.744872099999981, -24.0805834 ], [ 43.7446818, -24.0803415 ], [ 43.7446876, -24.0800432 ], [ 43.7446649, -24.0795355 ], [ 43.7446035, -24.0787853 ], [ 43.7442651, -24.0783652 ], [ 43.7439831, -24.0778234 ], [ 43.7438407, -24.0775907 ], [ 43.7437822, -24.0771599 ], [ 43.7440004, -24.0769285 ], [ 43.744231299999988, -24.0767532 ], [ 43.7443481, -24.0764322 ], [ 43.7443714, -24.0760948 ], [ 43.7443302, -24.0756335 ], [ 43.7442337, -24.0754324 ], [ 43.7439018, -24.0753041 ], [ 43.7438391, -24.0750882 ], [ 43.743817, -24.0745044 ], [ 43.7435036, -24.0740556 ], [ 43.7431897, -24.0734834 ], [ 43.7427668, -24.0735064 ], [ 43.7425376, -24.0735921 ], [ 43.7424024, -24.0738585 ], [ 43.7423328, -24.0740961 ], [ 43.7422933, -24.0744535 ], [ 43.7423845, -24.0747833 ], [ 43.742317, -24.0751093 ], [ 43.7422744, -24.0755846 ], [ 43.7420221, -24.0756572 ], [ 43.7419472, -24.0760705 ], [ 43.7417791, -24.0761138 ], [ 43.7415553, -24.0764479 ], [ 43.7414018, -24.0765989 ], [ 43.741329, -24.0769048 ], [ 43.7414228, -24.0772441 ], [ 43.7416389, -24.077309 ], [ 43.7418803, -24.0773116 ], [ 43.7425302, -24.0773222 ], [ 43.7427565, -24.0773856 ], [ 43.743012899999989, -24.0775688 ], [ 43.7432665, -24.0779012 ], [ 43.7433895, -24.0782613 ], [ 43.7434104, -24.0788585 ], [ 43.7435021, -24.0791584 ], [ 43.7438224, -24.0794024 ], [ 43.7438132, -24.0798797 ], [ 43.7434163, -24.0802313 ], [ 43.7433489, -24.0805304 ], [ 43.7434053, -24.0807981 ], [ 43.7435318, -24.0809792 ], [ 43.7437215, -24.0812509 ], [ 43.743978, -24.0814341 ] ] ] ] } }
]
}
