{
"type": "FeatureCollection",
"name": "MDG-2312-NODATE-secondary_zoning-001",
"crs": { "type": "name", "properties": { "name": "urn:ogc:def:crs:OGC:1.3:CRS84" } },
"features": [
{ "type": "Feature", "properties": { }, "geometry": { "type": "MultiPolygon", "coordinates": [ [ [ [ 45.3194496, -22.453057 ], [ 45.3175051, -22.4455569 ], [ 45.3208386, -22.4438902 ], [ 45.3166717, -22.4397234 ], [ 45.316394, -22.4327788 ], [ 45.313616, -22.4305566 ], [ 45.3044489, -22.4333344 ], [ 45.2972263, -22.4333344 ], [ 45.2913926, -22.4350011 ], [ 45.290837, -22.4355566 ], [ 45.2883369, -22.4375011 ], [ 45.2847256, -22.4383345 ], [ 45.2827811, -22.4408345 ], [ 45.2808365, -22.4416678 ], [ 45.277503, -22.4433345 ], [ 45.2758362, -22.4444457 ], [ 45.2711138, -22.4447234 ], [ 45.2687525, -22.44164 ], [ 45.2695581, -22.4461401 ], [ 45.2746695, -22.4500846 ], [ 45.2740028, -22.456307 ], [ 45.2716138, -22.4570848 ], [ 45.2739472, -22.4633071 ], [ 45.2799197, -22.4652794 ], [ 45.2843089, -22.4638349 ], [ 45.2886146, -22.4651405 ], [ 45.2891424, -22.4689461 ], [ 45.290837, -22.470585 ], [ 45.289725800000014, -22.4724184 ], [ 45.2845866, -22.4738351 ], [ 45.2856145, -22.4772518 ], [ 45.2915592, -22.481113 ], [ 45.290198, -22.4832519 ], [ 45.2887257, -22.4923077 ], [ 45.2848088, -22.4974744 ], [ 45.2852811, -22.4995578 ], [ 45.2909202, -22.5046968 ], [ 45.2912258, -22.5089746 ], [ 45.3021708, -22.5071691 ], [ 45.3110324, -22.509558 ], [ 45.3100324, -22.5026134 ], [ 45.3139215, -22.5039468 ], [ 45.320144, -22.507308 ], [ 45.3230608, -22.5066691 ], [ 45.3266721, -22.5052802 ], [ 45.3266721, -22.5008357 ], [ 45.3291723, -22.4997245 ], [ 45.3263944, -22.4958356 ], [ 45.3275055, -22.4941689 ], [ 45.3280611, -22.4922244 ], [ 45.3297279, -22.4908355 ], [ 45.329727899999988, -22.488891 ], [ 45.3313946, -22.4855576 ], [ 45.33139460000001, -22.4836131 ], [ 45.3313946, -22.4813909 ], [ 45.3286167, -22.4802797 ], [ 45.3263944, -22.4763908 ], [ 45.3252832, -22.4744463 ], [ 45.325561, -22.4727796 ], [ 45.3272278, -22.4711129 ], [ 45.3250054, -22.4680573 ], [ 45.329172299999989, -22.465835 ], [ 45.3211164, -22.4619461 ], [ 45.321672, -22.4586127 ], [ 45.3225053, -22.4575015 ], [ 45.3177829, -22.4552793 ], [ 45.3194496, -22.453057 ] ] ], [ [ [ 45.3830061, -22.3795316 ], [ 45.3830088, -22.3795266 ], [ 45.3839551, -22.3779913 ], [ 45.3785207, -22.3769591 ], [ 45.3780406, -22.3697289 ], [ 45.3774006, -22.3696389 ], [ 45.3774006, -22.3696089 ], [ 45.3762506, -22.3691589 ], [ 45.3748705, -22.3693689 ], [ 45.3731204, -22.3715689 ], [ 45.3678201, -22.375969 ], [ 45.3668, -22.376019 ], [ 45.36506, -22.375819 ], [ 45.3629098, -22.375839 ], [ 45.3616298, -22.375469 ], [ 45.3598597, -22.375779 ], [ 45.356289499999988, -22.377119 ], [ 45.3543894, -22.377549 ], [ 45.3529893, -22.378719 ], [ 45.3543794, -22.3799691 ], [ 45.3559895, -22.3811891 ], [ 45.3573195, -22.3823191 ], [ 45.3580196, -22.3834491 ], [ 45.3573395, -22.3850992 ], [ 45.3553394, -22.3857892 ], [ 45.355449400000012, -22.3862292 ], [ 45.356579499999988, -22.3868592 ], [ 45.3552794, -22.3882992 ], [ 45.3551494, -22.3885192 ], [ 45.3568295, -22.3882992 ], [ 45.3584396, -22.3891392 ], [ 45.3600497, -22.3901093 ], [ 45.358919600000014, -22.3915893 ], [ 45.3580996, -22.3933093 ], [ 45.3562295, -22.3927293 ], [ 45.3550094, -22.3914893 ], [ 45.3532093, -22.3917593 ], [ 45.3514592, -22.3930793 ], [ 45.3503491, -22.3941193 ], [ 45.3513092, -22.3959693 ], [ 45.3502991, -22.3975494 ], [ 45.3508692, -22.3994294 ], [ 45.3498291, -22.4011594 ], [ 45.3497691, -22.4027895 ], [ 45.3493591, -22.4048895 ], [ 45.348799, -22.4067095 ], [ 45.3504691, -22.4069395 ], [ 45.3526092, -22.4071596 ], [ 45.3544993, -22.4078796 ], [ 45.3525392, -22.4087696 ], [ 45.3537693, -22.4099796 ], [ 45.3537293, -22.4117996 ], [ 45.3527892, -22.4133997 ], [ 45.3516292, -22.4120896 ], [ 45.3510592, -22.4101596 ], [ 45.3491691, -22.4098996 ], [ 45.348509, -22.4116696 ], [ 45.348039, -22.4121396 ], [ 45.3470489, -22.4119296 ], [ 45.3469489, -22.4138097 ], [ 45.3470989, -22.4137097 ], [ 45.349579, -22.4250399 ], [ 45.3547293, -22.4296 ], [ 45.3611996, -22.43053 ], [ 45.3620697, -22.42929 ], [ 45.3709102, -22.4228799 ], [ 45.3743366, -22.4202225 ], [ 45.3761594, -22.4152754 ], [ 45.376161100000012, -22.4152729 ], [ 45.3761618, -22.41527 ], [ 45.3786774, -22.41055 ], [ 45.3812644, -22.4030317 ], [ 45.3801984, -22.398037 ], [ 45.3801975, -22.3980279 ], [ 45.3801979, -22.3980261 ], [ 45.3801976, -22.3980246 ], [ 45.380614, -22.3931475 ], [ 45.3806661, -22.3900638 ], [ 45.3806662, -22.3900634 ], [ 45.3806661, -22.3900631 ], [ 45.3807697, -22.3868862 ], [ 45.3807697, -22.3868859 ], [ 45.3807699, -22.3868827 ], [ 45.3811986, -22.383178 ], [ 45.3812021, -22.3831653 ], [ 45.3812032, -22.3831638 ], [ 45.3812035, -22.3831625 ], [ 45.3823615, -22.3810308 ], [ 45.382362, -22.3810302 ], [ 45.3823634, -22.3810276 ], [ 45.3832982, -22.3796037 ], [ 45.3830489, -22.3795942 ], [ 45.383032, -22.3795907 ], [ 45.3830163, -22.3795808 ], [ 45.3830059, -22.3795661 ], [ 45.3830023, -22.3795488 ], [ 45.3830061, -22.3795316 ] ] ], [ [ [ 45.2474042, -22.2604581 ], [ 45.2459707, -22.2614292 ], [ 45.2459666, -22.2614314 ], [ 45.2459591, -22.2614327 ], [ 45.2459517, -22.2614313 ], [ 45.2459455, -22.2614273 ], [ 45.2459421, -22.2614231 ], [ 45.2446795, -22.259201 ], [ 45.2435389, -22.2572811 ], [ 45.2419536, -22.255867 ], [ 45.239496799999984, -22.2553868 ], [ 45.2374706, -22.2558506 ], [ 45.2359852, -22.2563434 ], [ 45.2345229, -22.256928 ], [ 45.2321898, -22.2584009 ], [ 45.2312689, -22.25956 ], [ 45.2312288, -22.2610719 ], [ 45.231654, -22.2629377 ], [ 45.2321088, -22.2642525 ], [ 45.2329571, -22.265894400000011 ], [ 45.2329572, -22.2658949 ], [ 45.2329576, -22.2658954 ], [ 45.2329588, -22.2659001 ], [ 45.2331415, -22.2673524 ], [ 45.23314160000001, -22.2673546 ], [ 45.2331414, -22.2673572 ], [ 45.2329048, -22.2688058 ], [ 45.232904100000013, -22.2688082 ], [ 45.2329039, -22.2688091 ], [ 45.2323203, -22.2703234 ], [ 45.23188649999998, -22.2717449 ], [ 45.2315295, -22.2752639 ], [ 45.231529, -22.2752658 ], [ 45.2315286, -22.2752678 ], [ 45.2308663, -22.2771499 ], [ 45.2308657, -22.2771513 ], [ 45.2308615, -22.2771572 ], [ 45.2308613, -22.2771573 ], [ 45.230861199999985, -22.2771574 ], [ 45.2292899, -22.2785479 ], [ 45.2292897, -22.278548 ], [ 45.2292896, -22.2785481 ], [ 45.2270498, -22.2804595 ], [ 45.2264695, -22.281965 ], [ 45.2273452, -22.285342 ], [ 45.2290078, -22.2857683 ], [ 45.2311072, -22.2857512 ], [ 45.2311073, -22.2857512 ], [ 45.2311075, -22.2857512 ], [ 45.2311149, -22.2857526 ], [ 45.2311212, -22.2857566 ], [ 45.2311253, -22.2857625 ], [ 45.2311267, -22.2857694 ], [ 45.2311259, -22.2857745 ], [ 45.2300807, -22.2889527 ], [ 45.2304069, -22.2907941 ], [ 45.2304072, -22.2907972 ], [ 45.230406599999988, -22.2908013 ], [ 45.2298148, -22.2930752 ], [ 45.2298138, -22.293078 ], [ 45.2298108, -22.2930826 ], [ 45.2288411, -22.2941511 ], [ 45.2289257, -22.2955222 ], [ 45.2299179, -22.2973475 ], [ 45.230696, -22.2985977 ], [ 45.2306972, -22.2986 ], [ 45.2306986, -22.2986069 ], [ 45.2306971, -22.2986138 ], [ 45.230697, -22.298614 ], [ 45.2306969, -22.2986141 ], [ 45.2301181, -22.2998248 ], [ 45.2302228, -22.3016384 ], [ 45.2309436, -22.3035774 ], [ 45.2309446, -22.3035834 ], [ 45.2309431, -22.3035903 ], [ 45.230943, -22.3035904 ], [ 45.230943, -22.3035906 ], [ 45.2301351, -22.3052873 ], [ 45.230131, -22.3052929 ], [ 45.2301254, -22.3052964 ], [ 45.227567799999989, -22.3063784 ], [ 45.2275675, -22.3063784 ], [ 45.2275671, -22.3063787 ], [ 45.227559700000015, -22.30638 ], [ 45.227552200000012, -22.3063786 ], [ 45.227546, -22.3063746 ], [ 45.227542, -22.306369 ], [ 45.2268165, -22.3047964 ], [ 45.2268165, -22.3047962 ], [ 45.2268164, -22.3047961 ], [ 45.2268156, -22.3047938 ], [ 45.2262928, -22.3029081 ], [ 45.224562400000011, -22.3019554 ], [ 45.22291640000001, -22.3024657 ], [ 45.2218161, -22.3042867 ], [ 45.2220411, -22.3063755 ], [ 45.2226948, -22.3075986 ], [ 45.2226949, -22.3075987 ], [ 45.2236401, -22.3094032 ], [ 45.2251007, -22.3115114 ], [ 45.2251012, -22.3115123 ], [ 45.2251015, -22.3115127 ], [ 45.2264864, -22.3139203 ], [ 45.2264867, -22.3139209 ], [ 45.2264868, -22.313921 ], [ 45.2273107, -22.3155172 ], [ 45.2281363, -22.3168815 ], [ 45.2294779, -22.318666 ], [ 45.2308434, -22.3203572 ], [ 45.2322648, -22.3212668 ], [ 45.2322676, -22.321269 ], [ 45.2322705, -22.3212724 ], [ 45.2331464, -22.3226394 ], [ 45.233147699999989, -22.3226418 ], [ 45.2331483, -22.3226433 ], [ 45.2336518, -22.3241655 ], [ 45.2349664, -22.3259475 ], [ 45.2360891, -22.3274088 ], [ 45.2383108, -22.3302289 ], [ 45.2383131, -22.3302328 ], [ 45.2383145, -22.3302397 ], [ 45.238313, -22.3302466 ], [ 45.2383087, -22.3302524 ], [ 45.2383024, -22.3302563 ], [ 45.2383018, -22.3302564 ], [ 45.2383014, -22.3302567 ], [ 45.2362477, -22.3309138 ], [ 45.234983, -22.3323633 ], [ 45.2357279, -22.3338305 ], [ 45.237489, -22.3354568 ], [ 45.2374891, -22.3354569 ], [ 45.2374892, -22.335457 ], [ 45.2374933, -22.3354629 ], [ 45.2374941, -22.335465 ], [ 45.2379479, -22.3370349 ], [ 45.2379486, -22.3370397 ], [ 45.2379483, -22.3370427 ], [ 45.2373739, -22.340075 ], [ 45.2375276, -22.3419858 ], [ 45.2375277, -22.3419873 ], [ 45.237527299999982, -22.3419908 ], [ 45.236931, -22.3447027 ], [ 45.2369299, -22.3447062 ], [ 45.2369272, -22.3447104 ], [ 45.2347323, -22.3472846 ], [ 45.2349885, -22.3478702 ], [ 45.2350091, -22.3479175 ], [ 45.2352836, -22.3485451 ], [ 45.2361825, -22.3500258 ], [ 45.2361836, -22.3500279 ], [ 45.236185, -22.3500349 ], [ 45.2361843, -22.3500397 ], [ 45.2354175, -22.3525434 ], [ 45.235416699999988, -22.3525455 ], [ 45.2354124, -22.3525513 ], [ 45.2354067, -22.352555 ], [ 45.2339413, -22.3531628 ], [ 45.2319298, -22.3540884 ], [ 45.2302158, -22.3549704 ], [ 45.2287479, -22.3559698 ], [ 45.2287467, -22.3559704 ], [ 45.2287458, -22.355971 ], [ 45.226358900000015, -22.3571925 ], [ 45.2263569, -22.3571934 ], [ 45.2263494, -22.3571947 ], [ 45.2247935, -22.3571803 ], [ 45.2230115, -22.3574867 ], [ 45.2199412, -22.3580568 ], [ 45.216715, -22.359293 ], [ 45.2157121, -22.3594585 ], [ 45.2181523, -22.3624485 ], [ 45.2164522, -22.3648686 ], [ 45.2196023, -22.3669686 ], [ 45.2167122, -22.3701587 ], [ 45.2179122, -22.3744887 ], [ 45.2174722, -22.3792388 ], [ 45.2185122, -22.3815189 ], [ 45.2156021, -22.3850389 ], [ 45.2177022, -22.387039 ], [ 45.2164621, -22.389559 ], [ 45.2205523, -22.390619 ], [ 45.2243125, -22.3915591 ], [ 45.2223124, -22.3940691 ], [ 45.2214924, -22.3950691 ], [ 45.2218724, -22.3985892 ], [ 45.2214924, -22.3996192 ], [ 45.2251625, -22.4031093 ], [ 45.2216923, -22.4072693 ], [ 45.215162, -22.4076293 ], [ 45.2272026, -22.4110694 ], [ 45.2251625, -22.4157795 ], [ 45.226162599999988, -22.4166595 ], [ 45.2287727, -22.4207996 ], [ 45.2295627, -22.4221696 ], [ 45.2293327, -22.4242697 ], [ 45.2297627, -22.4264597 ], [ 45.2285527, -22.4280597 ], [ 45.2278326, -22.4303898 ], [ 45.2280826, -22.4324098 ], [ 45.2273726, -22.4356899 ], [ 45.2259825, -22.4372299 ], [ 45.2255725, -22.4405899 ], [ 45.2278926, -22.4497301 ], [ 45.2301127, -22.44513 ], [ 45.230732699999983, -22.4482601 ], [ 45.2307727, -22.4497101 ], [ 45.228042599999988, -22.4522802 ], [ 45.2251824, -22.4524102 ], [ 45.2218623, -22.4517701 ], [ 45.2186021, -22.4503001 ], [ 45.2135018, -22.4503001 ], [ 45.216102, -22.4515301 ], [ 45.2150819, -22.4529502 ], [ 45.2126118, -22.4530201 ], [ 45.2106317, -22.4554102 ], [ 45.2090016, -22.4563702 ], [ 45.2085816, -22.4582702 ], [ 45.2077715, -22.4590103 ], [ 45.2107917, -22.4523101 ], [ 45.2101817, -22.4496701 ], [ 45.2087716, -22.4486101 ], [ 45.2057014, -22.4499301 ], [ 45.2045214, -22.4516601 ], [ 45.2026012, -22.4561802 ], [ 45.2014912, -22.4579902 ], [ 45.1992511, -22.4606803 ], [ 45.1962709, -22.4613003 ], [ 45.1952209, -22.4605503 ], [ 45.1939908, -22.4563202 ], [ 45.1920207, -22.4538601 ], [ 45.1911895, -22.4519553 ], [ 45.189107, -22.4528777 ], [ 45.1871533, -22.4556614 ], [ 45.1868572, -22.4579097 ], [ 45.1870327, -22.4600497 ], [ 45.1874846, -22.461637 ], [ 45.1886786, -22.463026 ], [ 45.190517499999984, -22.4643991 ], [ 45.1926063, -22.4653142 ], [ 45.1955171, -22.4654565 ], [ 45.197128, -22.4648056 ], [ 45.1971282, -22.4648055 ], [ 45.1971284, -22.4648054 ], [ 45.1971359, -22.4648041 ], [ 45.1971433, -22.4648055 ], [ 45.1971486, -22.4648086 ], [ 45.1993819, -22.4666487 ], [ 45.1993823, -22.4666491 ], [ 45.1993829, -22.4666495 ], [ 45.1993871, -22.4666554 ], [ 45.1993877, -22.4666571 ], [ 45.1999147, -22.4683431 ], [ 45.199915, -22.4683455 ], [ 45.1999154, -22.468347 ], [ 45.200000499999987, -22.4696831 ], [ 45.2001745, -22.4719399 ], [ 45.2007484, -22.4736898 ], [ 45.2025556, -22.4758224 ], [ 45.2025583, -22.4758268 ], [ 45.2025597, -22.4758337 ], [ 45.2025582, -22.4758406 ], [ 45.2025549, -22.4758455 ], [ 45.2014583, -22.4770055 ], [ 45.2013655, -22.4789226 ], [ 45.2026565, -22.4798485 ], [ 45.204109, -22.4802525 ], [ 45.2058124, -22.4807289 ], [ 45.2058143, -22.4807296 ], [ 45.2058206, -22.4807336 ], [ 45.2058209, -22.480734 ], [ 45.2058213, -22.4807343 ], [ 45.2069715, -22.4819423 ], [ 45.206975, -22.4819475 ], [ 45.2069764, -22.4819544 ], [ 45.2069748, -22.4819613 ], [ 45.2069732, -22.4819642 ], [ 45.2057173, -22.4837489 ], [ 45.2057146, -22.4837519 ], [ 45.2057083, -22.4837557 ], [ 45.205700799999988, -22.4837571 ], [ 45.2056988, -22.483757 ], [ 45.2042405, -22.4836057 ], [ 45.2042395, -22.4836055 ], [ 45.2042379, -22.4836053 ], [ 45.2022865, -22.4831489 ], [ 45.202285800000013, -22.4831487 ], [ 45.2022855, -22.4831486 ], [ 45.2008873, -22.4827469 ], [ 45.1996275, -22.4834437 ], [ 45.1983305, -22.4847634 ], [ 45.1976009, -22.4861568 ], [ 45.1971856, -22.4880593 ], [ 45.1973133, -22.4899371 ], [ 45.1986318, -22.4906111 ], [ 45.200231299999984, -22.4909239 ], [ 45.2033753, -22.4906084 ], [ 45.2033776, -22.4906082 ], [ 45.203385, -22.4906097 ], [ 45.2033899, -22.4906125 ], [ 45.2050354, -22.4918944 ], [ 45.205036799999988, -22.4918956 ], [ 45.205041, -22.4919015 ], [ 45.2050424, -22.4919084 ], [ 45.2050409, -22.4919153 ], [ 45.2050366, -22.4919211 ], [ 45.2050306, -22.4919249 ], [ 45.202821, -22.4928009 ], [ 45.2011832, -22.494136 ], [ 45.2015817, -22.496131 ], [ 45.2025457, -22.4985342 ], [ 45.202546899999987, -22.4985407 ], [ 45.2025455, -22.4985472 ], [ 45.2017594, -22.5003824 ], [ 45.2017592, -22.5003825 ], [ 45.2017592, -22.5003827 ], [ 45.2017549, -22.5003886 ], [ 45.2017489, -22.5003923 ], [ 45.2004318, -22.5009093 ], [ 45.199095, -22.5015616 ], [ 45.1980669, -22.5036087 ], [ 45.199062, -22.5047608 ], [ 45.1990648, -22.5047653 ], [ 45.1990662, -22.5047711 ], [ 45.19915, -22.5061992 ], [ 45.1991499, -22.5061997 ], [ 45.19915, -22.5062003 ], [ 45.1991485, -22.5062072 ], [ 45.1991442, -22.5062131 ], [ 45.1991379, -22.5062169 ], [ 45.1991355, -22.5062177 ], [ 45.1973249, -22.5066618 ], [ 45.1956546, -22.5072146 ], [ 45.1965658, -22.5094163 ], [ 45.1965671, -22.5094229 ], [ 45.1965655, -22.5094298 ], [ 45.1965638, -22.5094328 ], [ 45.1956343, -22.5107149 ], [ 45.1956318, -22.5107176 ], [ 45.1956301, -22.510719 ], [ 45.1934763, -22.512275 ], [ 45.1958878, -22.5146089 ], [ 45.1958881, -22.5146092 ], [ 45.1958906, -22.5146124 ], [ 45.1968898, -22.5162104 ], [ 45.196891, -22.5162127 ], [ 45.196892499999983, -22.5162196 ], [ 45.196892, -22.5162234 ], [ 45.1961436, -22.519316 ], [ 45.1991932, -22.5218914 ], [ 45.199082, -22.5237247 ], [ 45.1980542, -22.5254191 ], [ 45.1987765, -22.5271415 ], [ 45.198582, -22.5290303 ], [ 45.2001376, -22.5303915 ], [ 45.198304199999988, -22.5314748 ], [ 45.1987209, -22.5332804 ], [ 45.1985264, -22.5351138 ], [ 45.2005543, -22.5353082 ], [ 45.2024989, -22.5346416 ], [ 45.2019433, -22.5364749 ], [ 45.2018044, -22.5382805 ], [ 45.2027766, -22.5398639 ], [ 45.2044712, -22.5385861 ], [ 45.2064435, -22.537725 ], [ 45.207915799999988, -22.5365583 ], [ 45.2095548, -22.5348082 ], [ 45.2093048, -22.5331693 ], [ 45.2112493, -22.531586 ], [ 45.2134994, -22.5322527 ], [ 45.214944, -22.5337804 ], [ 45.2166385, -22.5324749 ], [ 45.2190831, -22.5325027 ], [ 45.222111, -22.5317527 ], [ 45.2241389, -22.531586 ], [ 45.2261668, -22.5317804 ], [ 45.2280002, -22.5314749 ], [ 45.2300559, -22.5323082 ], [ 45.2347506, -22.5301138 ], [ 45.2352506, -22.5314193 ], [ 45.2374452, -22.5301971 ], [ 45.2380563, -22.5322804 ], [ 45.2396675, -22.5332528 ], [ 45.2431399, -22.5323082 ], [ 45.2451678, -22.533225 ], [ 45.2487513, -22.5330028 ], [ 45.2506958, -22.5328361 ], [ 45.253779300000012, -22.532975 ], [ 45.2559183, -22.5321972 ], [ 45.2583351, -22.5326417 ], [ 45.2655855, -22.5326417 ], [ 45.267669, -22.5319472 ], [ 45.2698357, -22.5325861 ], [ 45.273836, -22.532975 ], [ 45.274752700000015, -22.5329194 ], [ 45.2771417, -22.531475 ], [ 45.2792529, -22.5303361 ], [ 45.2818919, -22.5260304 ], [ 45.2820308, -22.5260304 ], [ 45.28255859999998, -22.5259193 ], [ 45.2855032, -22.5232527 ], [ 45.2884756, -22.521947 ], [ 45.2902535, -22.5222803 ], [ 45.2919481, -22.516058 ], [ 45.2926425, -22.5144747 ], [ 45.2928092, -22.5131969 ], [ 45.2913647, -22.5129747 ], [ 45.2903369, -22.5106968 ], [ 45.2891146, -22.509169 ], [ 45.2877256, -22.5079468 ], [ 45.2870311, -22.5066135 ], [ 45.2860033, -22.5057245 ], [ 45.2819476, -22.5005299 ], [ 45.2813086, -22.4993355 ], [ 45.2812253, -22.4944743 ], [ 45.2838366, -22.4885853 ], [ 45.2820865, -22.4874186 ], [ 45.2788363, -22.4866686 ], [ 45.2749194, -22.4842519 ], [ 45.2737805, -22.4810019 ], [ 45.273586, -22.4803908 ], [ 45.2729749, -22.4788073 ], [ 45.2733916, -22.4766684 ], [ 45.2749195, -22.4749462 ], [ 45.2746139, -22.4744183 ], [ 45.2755306, -22.4720572 ], [ 45.2735305, -22.470835 ], [ 45.2732805, -22.4699461 ], [ 45.2693247, -22.4613004 ], [ 45.2689347, -22.4595804 ], [ 45.268934699999988, -22.4578003 ], [ 45.2687147, -22.4552803 ], [ 45.2676147, -22.4544303 ], [ 45.2668246, -22.4532802 ], [ 45.2660446, -22.4532002 ], [ 45.2652646, -22.4525402 ], [ 45.2651846, -22.4516002 ], [ 45.265094499999982, -22.4514702 ], [ 45.2646745, -22.4505202 ], [ 45.2643445, -22.4496202 ], [ 45.2658546, -22.4483402 ], [ 45.2649946, -22.4461301 ], [ 45.2641145, -22.4451901 ], [ 45.2627644, -22.4445401 ], [ 45.2608143, -22.4429801 ], [ 45.2602043, -22.4417 ], [ 45.2590743, -22.44 ], [ 45.2567241, -22.4372699 ], [ 45.2589242, -22.43789 ], [ 45.2612644, -22.4372099 ], [ 45.2623544, -22.4365999 ], [ 45.2633245, -22.4361999 ], [ 45.2639245, -22.4354299 ], [ 45.2632745, -22.4346899 ], [ 45.2633345, -22.4337499 ], [ 45.263684499999989, -22.4330999 ], [ 45.2648046, -22.4328799 ], [ 45.2656946, -22.4323699 ], [ 45.2673647, -22.4316099 ], [ 45.2683048, -22.4306398 ], [ 45.2690648, -22.4294198 ], [ 45.2692748, -22.4284898 ], [ 45.2696748, -22.4268798 ], [ 45.2696448, -22.4250797 ], [ 45.2684448, -22.4238597 ], [ 45.268714800000012, -22.4216297 ], [ 45.2689748, -22.4205197 ], [ 45.2694648, -22.4190796 ], [ 45.2697249, -22.4174696 ], [ 45.2701749, -22.4157996 ], [ 45.2704549, -22.4141395 ], [ 45.2699349, -22.4128195 ], [ 45.2690048, -22.4111595 ], [ 45.2677048, -22.4097795 ], [ 45.2689248, -22.4080194 ], [ 45.2698349, -22.4076694 ], [ 45.271745, -22.4071894 ], [ 45.2734351, -22.4061294 ], [ 45.2747651, -22.4050994 ], [ 45.2762452, -22.4053194 ], [ 45.2774453, -22.4049694 ], [ 45.2786254, -22.4050394 ], [ 45.2798554, -22.4046494 ], [ 45.2808955, -22.4042494 ], [ 45.2820055, -22.4042694 ], [ 45.284535699999985, -22.4033594 ], [ 45.285105699999988, -22.4025694 ], [ 45.285775699999988, -22.4014093 ], [ 45.2853657, -22.4003593 ], [ 45.2849957, -22.3995093 ], [ 45.2849657, -22.3984893 ], [ 45.2844157, -22.3968993 ], [ 45.2835056, -22.3956592 ], [ 45.2832956, -22.3943792 ], [ 45.2822456, -22.3932492 ], [ 45.2817955, -22.3923892 ], [ 45.2814755, -22.3911991 ], [ 45.2805455, -22.3904391 ], [ 45.2792154, -22.3898791 ], [ 45.2783154, -22.3891191 ], [ 45.2777753, -22.3888491 ], [ 45.2767253, -22.3882591 ], [ 45.2755352, -22.3883491 ], [ 45.274205200000011, -22.3882691 ], [ 45.2727651, -22.3874891 ], [ 45.272055, -22.386499 ], [ 45.271585, -22.385369 ], [ 45.271205, -22.384929 ], [ 45.270805, -22.383629 ], [ 45.270335, -22.382679 ], [ 45.2695449, -22.382089 ], [ 45.268314900000014, -22.3788489 ], [ 45.2694149, -22.3785489 ], [ 45.270725, -22.3779989 ], [ 45.2723651, -22.3780489 ], [ 45.2742152, -22.3782489 ], [ 45.2753152, -22.3786589 ], [ 45.2765853, -22.3792889 ], [ 45.2775453, -22.3800089 ], [ 45.2789054, -22.3803889 ], [ 45.2800155, -22.380639 ], [ 45.28186560000001, -22.3801689 ], [ 45.2827656, -22.380989 ], [ 45.2840257, -22.380509 ], [ 45.2855758, -22.3798289 ], [ 45.287365900000012, -22.3792489 ], [ 45.2888759, -22.3790089 ], [ 45.289806, -22.3785489 ], [ 45.2910961, -22.3782989 ], [ 45.2921461, -22.3780089 ], [ 45.2940862, -22.3755289 ], [ 45.2946763, -22.3741789 ], [ 45.2951463, -22.3724988 ], [ 45.2922461, -22.3713288 ], [ 45.2913761, -22.3700988 ], [ 45.290516, -22.3688688 ], [ 45.290396, -22.3675587 ], [ 45.290346, -22.3663987 ], [ 45.289486, -22.3648087 ], [ 45.2883959, -22.3636587 ], [ 45.2873159, -22.3627386 ], [ 45.2861458, -22.3617086 ], [ 45.2845357, -22.3610886 ], [ 45.2833257, -22.3598686 ], [ 45.283265700000015, -22.3587186 ], [ 45.2831657, -22.3568385 ], [ 45.2827457, -22.3547585 ], [ 45.2834857, -22.3525684 ], [ 45.2835957, -22.3507784 ], [ 45.2846658, -22.3497784 ], [ 45.2852558, -22.3483984 ], [ 45.2857458, -22.3464383 ], [ 45.2859559, -22.3449683 ], [ 45.2867059, -22.3436283 ], [ 45.2872959, -22.3427983 ], [ 45.288736, -22.3408782 ], [ 45.289176, -22.3397482 ], [ 45.2905361, -22.3387182 ], [ 45.2914562, -22.3381382 ], [ 45.2919862, -22.3359782 ], [ 45.2921562, -22.3345881 ], [ 45.2926462, -22.3337681 ], [ 45.2934563, -22.3328081 ], [ 45.2940563, -22.3318681 ], [ 45.2945763, -22.3310181 ], [ 45.2961364, -22.3302381 ], [ 45.2961664, -22.3298181 ], [ 45.2952864, -22.328898 ], [ 45.2946363, -22.328728 ], [ 45.2934463, -22.328418 ], [ 45.2922062, -22.327988 ], [ 45.2916562, -22.327008 ], [ 45.2915662, -22.325848 ], [ 45.2909962, -22.324888 ], [ 45.2902861, -22.3234579 ], [ 45.2902061, -22.3224679 ], [ 45.2898361, -22.3213479 ], [ 45.2900361, -22.3202879 ], [ 45.2905361, -22.3195679 ], [ 45.2903061, -22.3182278 ], [ 45.2901361, -22.3171878 ], [ 45.2903661, -22.3156978 ], [ 45.2896261, -22.3145278 ], [ 45.2888161, -22.3137078 ], [ 45.2888461, -22.3132077 ], [ 45.288106, -22.3122177 ], [ 45.286846, -22.3124077 ], [ 45.2857559, -22.3123277 ], [ 45.2845958, -22.3127377 ], [ 45.2839658, -22.3128577 ], [ 45.2827758, -22.3122377 ], [ 45.2822557, -22.3114777 ], [ 45.2818357, -22.3102977 ], [ 45.2821557, -22.3093077 ], [ 45.2826157, -22.3086376 ], [ 45.2830358, -22.3077276 ], [ 45.2827358, -22.3058176 ], [ 45.2829258, -22.3050376 ], [ 45.2829558, -22.3039876 ], [ 45.2831658, -22.3030075 ], [ 45.2840258, -22.3019875 ], [ 45.2843059, -22.3008575 ], [ 45.2850159, -22.2996775 ], [ 45.2855959, -22.2987875 ], [ 45.286376, -22.2981875 ], [ 45.286856, -22.2972975 ], [ 45.286926, -22.2963974 ], [ 45.287666, -22.2954774 ], [ 45.2887361, -22.2945874 ], [ 45.2898862, -22.2942274 ], [ 45.2912062, -22.2937474 ], [ 45.2887361, -22.2933874 ], [ 45.2878761, -22.2914773 ], [ 45.286776, -22.2905373 ], [ 45.286086, -22.2894873 ], [ 45.2841559, -22.2883573 ], [ 45.2847559, -22.2856772 ], [ 45.2807957, -22.2834872 ], [ 45.2779056, -22.2803971 ], [ 45.2767755, -22.2797871 ], [ 45.2766255, -22.2779371 ], [ 45.2751654, -22.275547 ], [ 45.2719153, -22.273437 ], [ 45.2689051, -22.272397 ], [ 45.266775, -22.2703169 ], [ 45.2474042, -22.2604581 ] ] ], [ [ [ 45.3197378, -22.2495066 ], [ 45.3154476, -22.2485166 ], [ 45.3148176, -22.2464866 ], [ 45.3137375, -22.2466666 ], [ 45.3080272, -22.2459666 ], [ 45.3088072, -22.2475066 ], [ 45.3089973, -22.2493266 ], [ 45.308437200000014, -22.2512667 ], [ 45.304707, -22.2496666 ], [ 45.303737, -22.2494366 ], [ 45.302606900000015, -22.2488766 ], [ 45.3022169, -22.2483466 ], [ 45.3017369, -22.2475966 ], [ 45.3008468, -22.2478566 ], [ 45.2989467, -22.2491166 ], [ 45.2985967, -22.2503566 ], [ 45.2986267, -22.2515666 ], [ 45.2989867, -22.2523567 ], [ 45.2991667, -22.2536467 ], [ 45.2984367, -22.2543167 ], [ 45.2969266, -22.2544767 ], [ 45.2909063, -22.2572367 ], [ 45.2904663, -22.2588668 ], [ 45.2895862, -22.2618868 ], [ 45.2940164, -22.2679469 ], [ 45.2948465, -22.269447 ], [ 45.2903362, -22.2684869 ], [ 45.2908963, -22.270837 ], [ 45.2916863, -22.272707 ], [ 45.2919263, -22.2748171 ], [ 45.2917963, -22.2766671 ], [ 45.291766300000013, -22.2797871 ], [ 45.290246200000013, -22.2820972 ], [ 45.2896262, -22.2831472 ], [ 45.2935864, -22.2830872 ], [ 45.2947264, -22.2806672 ], [ 45.2957065, -22.2810772 ], [ 45.2979866, -22.2821072 ], [ 45.2997367, -22.2831172 ], [ 45.30022670000001, -22.2841372 ], [ 45.3007067, -22.2856873 ], [ 45.3011768, -22.2871873 ], [ 45.3034269, -22.2877373 ], [ 45.3040569, -22.2886073 ], [ 45.3083071, -22.2923074 ], [ 45.3097972, -22.2922674 ], [ 45.3101872, -22.2944274 ], [ 45.3102472, -22.2963975 ], [ 45.3104372, -22.2979275 ], [ 45.3143074, -22.2957575 ], [ 45.3163675, -22.2967975 ], [ 45.3185877, -22.2966975 ], [ 45.3204478, -22.2963775 ], [ 45.3222979, -22.2967875 ], [ 45.3233779, -22.2969075 ], [ 45.324858, -22.2961475 ], [ 45.325018, -22.2914774 ], [ 45.3260381, -22.2931174 ], [ 45.3271981, -22.2919774 ], [ 45.3263681, -22.2902174 ], [ 45.3264081, -22.2890374 ], [ 45.3277482, -22.2877873 ], [ 45.3281282, -22.2862973 ], [ 45.3282382, -22.2853673 ], [ 45.3288982, -22.2840373 ], [ 45.3277582, -22.2827073 ], [ 45.3292183, -22.2789172 ], [ 45.3283082, -22.2753171 ], [ 45.3279982, -22.2724471 ], [ 45.3294583, -22.2727371 ], [ 45.3302483, -22.2734571 ], [ 45.3308984, -22.2749971 ], [ 45.3324884, -22.2762271 ], [ 45.3342385, -22.2768472 ], [ 45.3362586, -22.2771272 ], [ 45.3367087, -22.2757571 ], [ 45.3388488, -22.2759772 ], [ 45.3406489, -22.2758072 ], [ 45.3412789, -22.2775772 ], [ 45.342419, -22.2793272 ], [ 45.3422889, -22.2805472 ], [ 45.343589, -22.2809973 ], [ 45.345429100000011, -22.2805572 ], [ 45.3470992, -22.2803472 ], [ 45.3486993, -22.2793972 ], [ 45.3502094, -22.2788072 ], [ 45.3515694, -22.2789472 ], [ 45.3527795, -22.2787372 ], [ 45.3541496, -22.2784772 ], [ 45.3559497, -22.2777472 ], [ 45.356709699999989, -22.2774872 ], [ 45.3574597, -22.2777472 ], [ 45.3585298, -22.2766372 ], [ 45.3601099, -22.2755872 ], [ 45.3597499, -22.2747472 ], [ 45.3612199, -22.2744672 ], [ 45.36155, -22.2744872 ], [ 45.3659002, -22.2715471 ], [ 45.36273, -22.263557 ], [ 45.3587298, -22.2605769 ], [ 45.3567697, -22.2585069 ], [ 45.3568498, -22.2563868 ], [ 45.3548596, -22.2575568 ], [ 45.3497294, -22.2604069 ], [ 45.3477993, -22.2594369 ], [ 45.3458492, -22.2613869 ], [ 45.3437591, -22.2625569 ], [ 45.341869, -22.2594369 ], [ 45.3378388, -22.2564268 ], [ 45.334858600000011, -22.2563868 ], [ 45.3397489, -22.2537267 ], [ 45.3408689, -22.2514267 ], [ 45.3279182, -22.2584368 ], [ 45.3247281, -22.2513867 ], [ 45.322898, -22.2523967 ], [ 45.3197378, -22.2495066 ] ] ] ] } }
]
}
