{
"type": "FeatureCollection",
"name": "MDG-5037-2015-boundary_modification-001",
"crs": { "type": "name", "properties": { "name": "urn:ogc:def:crs:OGC:1.3:CRS84" } },
"features": [
{ "type": "Feature", "properties": { }, "geometry": { "type": "Polygon", "coordinates": [ [ [ 49.2247035, -16.5978666 ], [ 49.2222345, -16.5977966 ], [ 49.2199024, -16.5978587 ], [ 49.2181183, -16.5981856 ], [ 49.2161294, -16.5981164 ], [ 49.2143458, -16.5982453 ], [ 49.2126309, -16.5983084 ], [ 49.2112587, -16.5985039 ], [ 49.2101608, -16.5986999 ], [ 49.2098851, -16.5992271 ], [ 49.2094714, -16.6000838 ], [ 49.2092634, -16.6010068 ], [ 49.20891730000001, -16.6022593 ], [ 49.208435699999988, -16.602852 ], [ 49.2078854, -16.6034446 ], [ 49.2073342, -16.604433 ], [ 49.2059571, -16.6065411 ], [ 49.2054766, -16.6066722 ], [ 49.2046532, -16.6068027 ], [ 49.2038989, -16.6067355 ], [ 49.2029395, -16.6064041 ], [ 49.2023922, -16.6058096 ], [ 49.2015006, -16.605808 ], [ 49.2009505, -16.6063347 ], [ 49.2004004, -16.6068614 ], [ 49.1995077, -16.6072555 ], [ 49.1990952, -16.6076505 ], [ 49.1988183, -16.6086393 ], [ 49.1990904, -16.6094972 ], [ 49.1989511, -16.6103543 ], [ 49.198539, -16.6105515 ], [ 49.1978526, -16.6107481 ], [ 49.1973733, -16.6104175 ], [ 49.1966877, -16.6102845 ], [ 49.195521599999985, -16.6102824 ], [ 49.1951096, -16.6104795 ], [ 49.194491, -16.6109401 ], [ 49.1935295, -16.6114001 ], [ 49.1925675, -16.6120579 ], [ 49.1917448, -16.6119246 ], [ 49.1911288, -16.6113959 ], [ 49.1902379, -16.6110646 ], [ 49.1891413, -16.6107328 ], [ 49.1882489, -16.6109951 ], [ 49.1872876, -16.6113891 ], [ 49.1861193, -16.6122443 ], [ 49.1848811, -16.6135612 ], [ 49.1847424, -16.6141545 ], [ 49.1848766, -16.615276 ], [ 49.184873, -16.6166609 ], [ 49.185280899999988, -16.6180466 ], [ 49.1852775, -16.6193657 ], [ 49.1852053, -16.6207505 ], [ 49.1853388, -16.6221358 ], [ 49.1857478, -16.6231258 ], [ 49.1861566, -16.6241818 ], [ 49.1860165, -16.6253027 ], [ 49.1863569, -16.6262926 ], [ 49.1868337, -16.6276124 ], [ 49.1875848, -16.6289328 ], [ 49.1883358, -16.6303192 ], [ 49.1889495, -16.6317712 ], [ 49.189495, -16.6330252 ], [ 49.190107, -16.6351367 ], [ 49.1902103, -16.6357013 ], [ 49.1900079, -16.6372977 ], [ 49.1912694, -16.6406823 ], [ 49.1915345, -16.6437826 ], [ 49.1926482, -16.6446085 ], [ 49.1930304, -16.6481207 ], [ 49.1945861, -16.6489503 ], [ 49.1965796, -16.6495613 ], [ 49.1971523, -16.6510418 ], [ 49.1980557, -16.6525178 ], [ 49.1980149, -16.6536851 ], [ 49.1975364, -16.6540777 ], [ 49.1966431, -16.6546038 ], [ 49.1956828, -16.6545363 ], [ 49.195269800000013, -16.6550631 ], [ 49.1952, -16.6555246 ], [ 49.1947884, -16.6555239 ], [ 49.1934137, -16.6565108 ], [ 49.191352, -16.6578263 ], [ 49.1895651, -16.6590103 ], [ 49.18716, -16.660457 ], [ 49.1864707, -16.6617089 ], [ 49.1862632, -16.6623681 ], [ 49.1866723, -16.663358 ], [ 49.1870117, -16.6647436 ], [ 49.187078, -16.665667 ], [ 49.1869377, -16.6668539 ], [ 49.1863174, -16.667908 ], [ 49.1852864, -16.6686317 ], [ 49.1838422, -16.6698823 ], [ 49.182054199999989, -16.6714618 ], [ 49.1813647, -16.6727137 ], [ 49.181635899999989, -16.6739673 ], [ 49.1818411, -16.6742315 ], [ 49.1824564, -16.6750899 ], [ 49.1833462, -16.6759488 ], [ 49.1838237, -16.6770049 ], [ 49.1839577, -16.6782583 ], [ 49.1838862, -16.6793793 ], [ 49.1839519, -16.6805005 ], [ 49.184019, -16.6810943 ], [ 49.1838805, -16.6815557 ], [ 49.1833968, -16.6828738 ], [ 49.1830532, -16.683071 ], [ 49.1825036, -16.6833339 ], [ 49.1816108, -16.6835961 ], [ 49.1802387, -16.6835278 ], [ 49.1795521, -16.6836584 ], [ 49.178796, -16.6841847 ], [ 49.1783832, -16.6845797 ], [ 49.1781061, -16.6855684 ], [ 49.1775529, -16.6872162 ], [ 49.1773862, -16.6878949 ], [ 49.1747282, -16.6868443 ], [ 49.177539, -16.692015 ], [ 49.1804456, -16.6947399 ], [ 49.1797284, -16.6954556 ], [ 49.1783673, -16.6959369 ], [ 49.1769292, -16.6956371 ], [ 49.1739412, -16.6949329 ], [ 49.1708704, -16.696143 ], [ 49.170094, -16.6958344 ], [ 49.1697768, -16.6967953 ], [ 49.1686167, -16.6971222 ], [ 49.1663493, -16.6962031 ], [ 49.1650276, -16.6963269 ], [ 49.1626107, -16.6969967 ], [ 49.1603871, -16.6957507 ], [ 49.1581817, -16.6957799 ], [ 49.1566717, -16.6948999 ], [ 49.1578251, -16.6939776 ], [ 49.1582434, -16.6923776 ], [ 49.1567721, -16.6897397 ], [ 49.1563898, -16.6861307 ], [ 49.1543748, -16.6840314 ], [ 49.1529096, -16.6818185 ], [ 49.153328, -16.6802185 ], [ 49.153275400000012, -16.680128 ], [ 49.1532808, -16.6801145 ], [ 49.1534897, -16.6789938 ], [ 49.1528066, -16.6778712 ], [ 49.1521246, -16.676353 ], [ 49.1520582, -16.6755615 ], [ 49.152131, -16.6740447 ], [ 49.150970199999982, -16.6719979 ], [ 49.1502212, -16.669886 ], [ 49.1502948, -16.6681055 ], [ 49.1498851, -16.6673792 ], [ 49.1491349, -16.6657289 ], [ 49.1488625, -16.6650029 ], [ 49.1484572, -16.6626938 ], [ 49.1482552, -16.6613084 ], [ 49.1478531, -16.6578781 ], [ 49.1481307, -16.6567574 ], [ 49.1482721, -16.6552408 ], [ 49.148207, -16.6539875 ], [ 49.1484198, -16.6514817 ], [ 49.1488386, -16.6489103 ], [ 49.1493268, -16.6460754 ], [ 49.1498111, -16.6446253 ], [ 49.1505017, -16.6429779 ], [ 49.1513959, -16.6421222 ], [ 49.1520825, -16.6419257 ], [ 49.1525635, -16.6416628 ], [ 49.152702, -16.6412014 ], [ 49.1531835, -16.6407406 ], [ 49.1538031, -16.6399504 ], [ 49.1546264, -16.639952 ], [ 49.1556553, -16.6400199 ], [ 49.1570268, -16.6402204 ], [ 49.1573027, -16.6396933 ], [ 49.156688499999987, -16.638505 ], [ 49.1558023, -16.6364587 ], [ 49.155531, -16.635337 ], [ 49.1555342, -16.6341499 ], [ 49.1559477, -16.6334911 ], [ 49.156841799999988, -16.6326354 ], [ 49.1573233, -16.6321747 ], [ 49.157736, -16.6317798 ], [ 49.1583563, -16.6307257 ], [ 49.1587017, -16.629869 ], [ 49.1580843, -16.6298678 ], [ 49.1569874, -16.6296019 ], [ 49.1559597, -16.6291382 ], [ 49.1547944, -16.6288062 ], [ 49.1534236, -16.628342 ], [ 49.153422, -16.6289355 ], [ 49.1536949, -16.6294637 ], [ 49.154103799999987, -16.6304537 ], [ 49.1536231, -16.6306507 ], [ 49.152387, -16.63111 ], [ 49.152316, -16.6319672 ], [ 49.1526579, -16.6323636 ], [ 49.153819899999981, -16.6338827 ], [ 49.1539544, -16.6348723 ], [ 49.1534736, -16.6350693 ], [ 49.1530609, -16.6354642 ], [ 49.1525812, -16.6352654 ], [ 49.1520332, -16.6350005 ], [ 49.151621, -16.6351975 ], [ 49.1508654, -16.6355258 ], [ 49.1502465, -16.6360523 ], [ 49.1494914, -16.6362487 ], [ 49.1492181, -16.6358524 ], [ 49.1492892, -16.6349292 ], [ 49.149635, -16.6339406 ], [ 49.149706, -16.6330833 ], [ 49.1493652, -16.6322912 ], [ 49.1489536, -16.6322904 ], [ 49.1482668, -16.6325529 ], [ 49.1476485, -16.6328815 ], [ 49.1468245, -16.6331436 ], [ 49.1460699, -16.6331422 ], [ 49.1458645, -16.6330098 ], [ 49.1459346, -16.6324824 ], [ 49.1455923, -16.6322179 ], [ 49.1451139, -16.6315574 ], [ 49.144839200000014, -16.6316888 ], [ 49.1446322, -16.6320841 ], [ 49.1444255, -16.6324135 ], [ 49.1439453, -16.6324125 ], [ 49.1435326, -16.6328074 ], [ 49.1431198, -16.6332023 ], [ 49.142571, -16.6332012 ], [ 49.1421607, -16.6327387 ], [ 49.1415455, -16.6319461 ], [ 49.1409274, -16.6322087 ], [ 49.1402395, -16.6328668 ], [ 49.139964, -16.633262 ], [ 49.1402372, -16.6336583 ], [ 49.1411967, -16.63399 ], [ 49.1412622, -16.6351113 ], [ 49.1409863, -16.6356384 ], [ 49.1411212, -16.6364301 ], [ 49.1409818, -16.6372212 ], [ 49.1409799, -16.6378808 ], [ 49.1403625, -16.6378795 ], [ 49.1397447, -16.6380103 ], [ 49.1395379, -16.6383396 ], [ 49.1389882, -16.6386682 ], [ 49.1389228, -16.6386681 ], [ 49.1386154, -16.6376765 ], [ 49.1367149, -16.6400974 ], [ 49.1349896, -16.6389902 ], [ 49.131754, -16.6401624 ], [ 49.1288787, -16.6395622 ], [ 49.1274591, -16.6405375 ], [ 49.1262419, -16.6402345 ], [ 49.1251499, -16.6409928 ], [ 49.1243708, -16.6404715 ], [ 49.1217339, -16.6411437 ], [ 49.120408, -16.6409484 ], [ 49.1203171, -16.6423315 ], [ 49.1186262, -16.6396961 ], [ 49.1168787, -16.6408881 ], [ 49.11093, -16.6412844 ], [ 49.1104623, -16.6393771 ], [ 49.1084374, -16.6388719 ], [ 49.106685399999989, -16.6397451 ], [ 49.1056754, -16.6384826 ], [ 49.103361799999981, -16.6386189 ], [ 49.100066299999988, -16.639512 ], [ 49.0988241, -16.637402 ], [ 49.0977113, -16.6366723 ], [ 49.096807200000015, -16.6350895 ], [ 49.0970011, -16.6331736 ], [ 49.0958854, -16.6322313 ], [ 49.0957456, -16.6301071 ], [ 49.0943828, -16.6272546 ], [ 49.0935441, -16.6272418 ], [ 49.0905407, -16.6284735 ], [ 49.088884199999988, -16.6282823 ], [ 49.0842557, -16.6284482 ], [ 49.0834987, -16.6295209 ], [ 49.0782146, -16.6301203 ], [ 49.0775664, -16.6310854 ], [ 49.0722865, -16.6320035 ], [ 49.069751, -16.6320359 ], [ 49.0672286, -16.6330249 ], [ 49.0658998, -16.6326167 ], [ 49.0644755, -16.6332727 ], [ 49.059192599999989, -16.633978 ], [ 49.0539096, -16.6346831 ], [ 49.0512754, -16.635567 ], [ 49.0483061, -16.6361363 ], [ 49.045637, -16.6344693 ], [ 49.0436337, -16.6331128 ], [ 49.0405651, -16.6326442 ], [ 49.0392258, -16.6334516 ], [ 49.0385996, -16.633506 ], [ 49.0383393, -16.6332725 ], [ 49.0371229, -16.6342196 ], [ 49.0364351, -16.6347456 ], [ 49.0357477, -16.6351396 ], [ 49.0345114, -16.6355323 ], [ 49.0336873, -16.6357941 ], [ 49.0326582, -16.6357914 ], [ 49.0319721, -16.6357898 ], [ 49.0308735, -16.6360508 ], [ 49.0302552, -16.6363131 ], [ 49.029569099999989, -16.6363114 ], [ 49.0286077, -16.6365728 ], [ 49.0283315, -16.6370998 ], [ 49.0282602, -16.6378911 ], [ 49.0277102, -16.6382195 ], [ 49.027093, -16.638152 ], [ 49.0265446, -16.6380187 ], [ 49.0254478, -16.6377521 ], [ 49.0242119, -16.6380128 ], [ 49.0236626, -16.6381433 ], [ 49.0227707, -16.6381411 ], [ 49.0216732, -16.6380724 ], [ 49.0205746, -16.6383333 ], [ 49.0200925, -16.6388597 ], [ 49.0198161, -16.6394527 ], [ 49.0196082, -16.6400458 ], [ 49.0187815, -16.641033 ], [ 49.018162, -16.6416251 ], [ 49.0179543, -16.6421522 ], [ 49.0177455, -16.6430091 ], [ 49.0173984, -16.6441954 ], [ 49.0169163, -16.6447219 ], [ 49.0161595, -16.6453135 ], [ 49.0153353, -16.6455752 ], [ 49.0146494, -16.6455075 ], [ 49.0138956, -16.6452417 ], [ 49.0133467, -16.6452404 ], [ 49.0127281, -16.6455685 ], [ 49.0113534, -16.6462905 ], [ 49.010321, -16.6472112 ], [ 49.0101808, -16.6480683 ], [ 49.0101787, -16.6486619 ], [ 49.009901299999989, -16.6495186 ], [ 49.0093512, -16.649847 ], [ 49.0090763, -16.6499782 ], [ 49.0088014, -16.6501094 ], [ 49.008319799999981, -16.6505039 ], [ 49.0075643, -16.6506998 ], [ 49.0067412, -16.6506317 ], [ 49.0062595, -16.6510262 ], [ 49.0061877, -16.6519494 ], [ 49.0064585, -16.6530054 ], [ 49.0061829, -16.6533345 ], [ 49.0050832, -16.6538593 ], [ 49.0046687, -16.6546497 ], [ 49.0041847, -16.6557038 ], [ 49.0039777, -16.6560329 ], [ 49.0033583, -16.656559 ], [ 49.0026699, -16.6572168 ], [ 49.0016374, -16.6581375 ], [ 49.00033, -16.6591894 ], [ 48.9998464, -16.6601115 ], [ 48.999431, -16.6611657 ], [ 48.9992212, -16.6622864 ], [ 48.9992175, -16.6633417 ], [ 48.999008599999982, -16.6641986 ], [ 48.9985953, -16.6646593 ], [ 48.9987309, -16.6651213 ], [ 48.9985915, -16.6657145 ], [ 48.9983836, -16.6663076 ], [ 48.997968099999987, -16.6673619 ], [ 48.9974841, -16.6684159 ], [ 48.9975499, -16.6692075 ], [ 48.9976834, -16.6702632 ], [ 48.9978874, -16.6707915 ], [ 48.998368400000011, -16.6705948 ], [ 48.9988502, -16.6702003 ], [ 48.9994005, -16.669806 ], [ 48.9998146, -16.6691476 ], [ 49.0005708, -16.6687538 ], [ 49.0013935, -16.6689538 ], [ 49.0020092, -16.6694831 ], [ 49.0025552, -16.670342 ], [ 49.0030332, -16.6710028 ], [ 49.0035114, -16.6715976 ], [ 49.004126, -16.6724567 ], [ 49.0052184, -16.6740425 ], [ 49.0058318, -16.6752313 ], [ 49.0063787, -16.6758264 ], [ 49.0075421, -16.6767528 ], [ 49.0081555, -16.6779416 ], [ 49.0082207, -16.6789311 ], [ 49.0079423, -16.6800517 ], [ 49.0078696, -16.6812387 ], [ 49.0081438, -16.6813053 ], [ 49.0088975, -16.6816371 ], [ 49.0097878, -16.6821671 ], [ 49.0109528, -16.6826317 ], [ 49.0127347, -16.6832959 ], [ 49.0136923, -16.6842217 ], [ 49.0143755, -16.6850809 ], [ 49.0150613, -16.6852146 ], [ 49.0154738, -16.6850178 ], [ 49.0154762, -16.6842923 ], [ 49.0152045, -16.6835001 ], [ 49.0152081, -16.6824448 ], [ 49.015212, -16.6813236 ], [ 49.0152158, -16.6802023 ], [ 49.015356299999986, -16.6792793 ], [ 49.0157014, -16.6786865 ], [ 49.0159786, -16.6778958 ], [ 49.0171477, -16.6771732 ], [ 49.018865899999987, -16.6763861 ], [ 49.0207202, -16.6759291 ], [ 49.022024, -16.6759324 ], [ 49.0222308, -16.6756691 ], [ 49.0226437, -16.6753403 ], [ 49.0227147, -16.674615 ], [ 49.0227876, -16.6733621 ], [ 49.0229271, -16.6727028 ], [ 49.0232032, -16.6722418 ], [ 49.0236873, -16.6711217 ], [ 49.0240995, -16.6709909 ], [ 49.024717699999982, -16.6707946 ], [ 49.0251292, -16.6708616 ], [ 49.0258132, -16.6715229 ], [ 49.0267718, -16.6721189 ], [ 49.0281402, -16.6733095 ], [ 49.0284844, -16.6729806 ], [ 49.0287607, -16.6724536 ], [ 49.029242300000014, -16.6720591 ], [ 49.0298608, -16.6717968 ], [ 49.030342, -16.6715342 ], [ 49.0307551, -16.6711395 ], [ 49.0315783, -16.6712075 ], [ 49.0323997, -16.6718031 ], [ 49.0334279, -16.6721354 ], [ 49.0340454, -16.672137 ], [ 49.0349359, -16.6726009 ], [ 49.0363055, -16.6734616 ], [ 49.0380849, -16.6748511 ], [ 49.0402753, -16.6765054 ], [ 49.0427397, -16.6782921 ], [ 49.0446561, -16.6798137 ], [ 49.0457519, -16.680476 ], [ 49.0464379, -16.6805436 ], [ 49.0473308, -16.6802819 ], [ 49.0478811, -16.6798875 ], [ 49.0489806, -16.6794284 ], [ 49.0504909, -16.6792342 ], [ 49.0510398, -16.6792355 ], [ 49.0519995, -16.6795676 ], [ 49.0528197, -16.6805588 ], [ 49.0534349, -16.6812858 ], [ 49.054051, -16.6817489 ], [ 49.0544642, -16.6812882 ], [ 49.0552195, -16.6811581 ], [ 49.05563, -16.6815548 ], [ 49.0569973, -16.683141 ], [ 49.05775, -16.6838022 ], [ 49.0582293, -16.6841332 ], [ 49.0578845, -16.68466 ], [ 49.0573334, -16.6853183 ], [ 49.0563707, -16.6859096 ], [ 49.0544476, -16.6864327 ], [ 49.0539653, -16.6870252 ], [ 49.0534832, -16.6875517 ], [ 49.0523164, -16.6876148 ], [ 49.0509418, -16.6882711 ], [ 49.0501172, -16.688599 ], [ 49.0501815, -16.6899182 ], [ 49.0494907, -16.6913016 ], [ 49.0489411, -16.6914982 ], [ 49.0477065, -16.6912973 ], [ 49.0455791, -16.6912922 ], [ 49.0454403, -16.6917536 ], [ 49.0457114, -16.6928096 ], [ 49.046324699999985, -16.6941301 ], [ 49.0460472, -16.6950528 ], [ 49.0457705, -16.6957117 ], [ 49.0448086, -16.6960392 ], [ 49.0441897, -16.6964334 ], [ 49.0435004, -16.6973551 ], [ 49.0432226, -16.6983438 ], [ 49.0428098, -16.6986725 ], [ 49.0419849, -16.6990663 ], [ 49.0412973, -16.6994604 ], [ 49.040951600000014, -16.700251 ], [ 49.0408781, -16.7017018 ], [ 49.0416976, -16.702957 ], [ 49.04197030000001, -16.7034853 ], [ 49.042447, -16.7046077 ], [ 49.0427893, -16.7048723 ], [ 49.0431987, -16.7055988 ], [ 49.0439502, -16.7066559 ], [ 49.0447688, -16.7081748 ], [ 49.0455224, -16.7085724 ], [ 49.0468215, -16.7100925 ], [ 49.047367099999981, -16.7111491 ], [ 49.0476399, -16.7116774 ], [ 49.048187, -16.7122723 ], [ 49.0493499, -16.7134622 ], [ 49.0492789, -16.7141876 ], [ 49.049070799999988, -16.7148466 ], [ 49.0491363, -16.7158361 ], [ 49.0488544, -16.7180779 ], [ 49.0484362, -16.7200556 ], [ 49.0483602, -16.7222978 ], [ 49.0483547, -16.7240126 ], [ 49.048902, -16.7245416 ], [ 49.0497922, -16.7252032 ], [ 49.0502692, -16.7262596 ], [ 49.050196299999982, -16.7275786 ], [ 49.0500571, -16.7281718 ], [ 49.04978, -16.7289626 ], [ 49.0490921, -16.7294227 ], [ 49.0488152, -16.7301475 ], [ 49.0484677, -16.7314658 ], [ 49.0487395, -16.7323238 ], [ 49.049286, -16.7331166 ], [ 49.049765900000011, -16.7333156 ], [ 49.05052, -16.7335812 ], [ 49.0514098, -16.7343747 ], [ 49.0516829, -16.7348371 ], [ 49.0517492, -16.7355627 ], [ 49.0512672, -16.7360233 ], [ 49.0507839, -16.7368795 ], [ 49.050782, -16.7374731 ], [ 49.0513294, -16.7380021 ], [ 49.0520836, -16.7382676 ], [ 49.0527666, -16.7393246 ], [ 49.0535168, -16.7408433 ], [ 49.0544714, -16.7428241 ], [ 49.0548807, -16.7436166 ], [ 49.0549443, -16.7451996 ], [ 49.055420599999984, -16.7465198 ], [ 49.0558981, -16.7474442 ], [ 49.0573344, -16.7490965 ], [ 49.0580876, -16.7496918 ], [ 49.0588418, -16.7499573 ], [ 49.0597338, -16.7500913 ], [ 49.0604196, -16.7502907 ], [ 49.0604866, -16.7508185 ], [ 49.060143, -16.7509496 ], [ 49.0596612, -16.7513443 ], [ 49.0590404, -16.7522662 ], [ 49.0589691, -16.7531235 ], [ 49.0591727, -16.7538494 ], [ 49.0592401, -16.7542453 ], [ 49.0593049, -16.7554326 ], [ 49.0593014, -16.7565538 ], [ 49.058955, -16.7575423 ], [ 49.0590908, -16.7580043 ], [ 49.0592249, -16.7589939 ], [ 49.0590849, -16.759851 ], [ 49.0584662, -16.7601134 ], [ 49.0579175, -16.7599802 ], [ 49.0567505, -16.7599775 ], [ 49.0553078, -16.7603039 ], [ 49.0542077, -16.760829 ], [ 49.0541378, -16.7612246 ], [ 49.0534462, -16.7628059 ], [ 49.0531653, -16.7647838 ], [ 49.0528175, -16.766168 ], [ 49.052333, -16.76742 ], [ 49.0514384, -16.7680775 ], [ 49.0503382, -16.7686025 ], [ 49.0497865, -16.7693926 ], [ 49.0493729, -16.7699193 ], [ 49.0488226, -16.7702478 ], [ 49.0483424, -16.7701148 ], [ 49.0476574, -16.7696515 ], [ 49.0469709, -16.7696499 ], [ 49.0462833, -16.769978 ], [ 49.044913, -16.7708838 ], [ 49.0462811, -16.7712397 ], [ 49.0496957, -16.772128 ], [ 49.0460483, -16.771634 ], [ 49.0451109, -16.7720342 ], [ 49.0436225, -16.7730268 ], [ 49.0436262, -16.7732981 ], [ 49.0439144, -16.7737767 ], [ 49.044403, -16.7747946 ], [ 49.0452961, -16.7761275 ], [ 49.045674600000012, -16.7771966 ], [ 49.0454202, -16.7783212 ], [ 49.0453378, -16.7791588 ], [ 49.0456236, -16.7794604 ], [ 49.0460327, -16.7802013 ], [ 49.0462915, -16.7811012 ], [ 49.0464717, -16.7814042 ], [ 49.0470633, -16.7817584 ], [ 49.04778, -16.7818171 ], [ 49.0483334, -16.7819524 ], [ 49.0486498, -16.7827736 ], [ 49.0491516, -16.7834229 ], [ 49.049658099999988, -16.784418 ], [ 49.0504512, -16.7852557 ], [ 49.0511351, -16.7857191 ], [ 49.0518188, -16.785713 ], [ 49.0526872, -16.7859405 ], [ 49.0533199, -16.7864388 ], [ 49.0544148, -16.7868601 ], [ 49.0554187, -16.7870432 ], [ 49.0567877, -16.7875851 ], [ 49.0574163, -16.7884927 ], [ 49.0577258, -16.7897527 ], [ 49.0579541, -16.7910658 ], [ 49.0593557, -16.79088 ], [ 49.0613112, -16.7908065 ], [ 49.063399, -16.7905118 ], [ 49.0656929, -16.7894373 ], [ 49.0661394, -16.7895387 ], [ 49.0670606, -16.789768 ], [ 49.068618, -16.789748 ], [ 49.070364299999987, -16.7892968 ], [ 49.0708322, -16.7889425 ], [ 49.0719173, -16.7889553 ], [ 49.0727772, -16.7887834 ], [ 49.0741195, -16.7882261 ], [ 49.074336700000011, -16.7887295 ], [ 49.0754624, -16.7910173 ], [ 49.0769116, -16.7932836 ], [ 49.0785773, -16.7953662 ], [ 49.0794656, -16.7973594 ], [ 49.0793211, -16.7982204 ], [ 49.079492200000011, -16.7992672 ], [ 49.0799749, -16.8002256 ], [ 49.080476, -16.8002493 ], [ 49.0813398, -16.8004793 ], [ 49.0824295, -16.8000733 ], [ 49.0830974, -16.799718 ], [ 49.0838759, -16.7994367 ], [ 49.0849567, -16.7995131 ], [ 49.0857912, -16.7999148 ], [ 49.0870266, -16.8002896 ], [ 49.0873025, -16.8005651 ], [ 49.0883917, -16.8008726 ], [ 49.0894606, -16.8009177 ], [ 49.0896875, -16.8004953 ], [ 49.0904798, -16.8008328 ], [ 49.0911888, -16.8011632 ], [ 49.0926616, -16.801974 ], [ 49.095712400000011, -16.8019027 ], [ 49.0974661, -16.8005967 ], [ 49.0980075, -16.7994201 ], [ 49.0986442, -16.7980211 ], [ 49.0996408, -16.7965541 ], [ 49.1007084, -16.7954655 ], [ 49.1014005, -16.7956778 ], [ 49.1022961, -16.7963615 ], [ 49.1033061, -16.7981816 ], [ 49.1040532, -16.7999736 ], [ 49.1046156, -16.800359 ], [ 49.1048511, -16.8012848 ], [ 49.1045314, -16.8022893 ], [ 49.1036274, -16.8039445 ], [ 49.1026622, -16.8053245 ], [ 49.1018814, -16.8065638 ], [ 49.1018959, -16.8082488 ], [ 49.102369599999989, -16.8103618 ], [ 49.1012916, -16.8112118 ], [ 49.1006016, -16.8123873 ], [ 49.1000092, -16.8133282 ], [ 49.0997367, -16.8134717 ], [ 49.0992229, -16.8142561 ], [ 49.098852, -16.8151552 ], [ 49.0979591, -16.816831 ], [ 49.0953177, -16.8170404 ], [ 49.09501740000001, -16.8172192 ], [ 49.0942601, -16.8179095 ], [ 49.0935771, -16.8181517 ], [ 49.0929317, -16.8181912 ], [ 49.0931248, -16.8190052 ], [ 49.093436, -16.8196039 ], [ 49.0933582, -16.8212574 ], [ 49.0930553, -16.8218252 ], [ 49.0928603, -16.8223137 ], [ 49.0920971, -16.8225958 ], [ 49.0916932, -16.8225816 ], [ 49.091554, -16.822373 ], [ 49.0904522, -16.821527 ], [ 49.0903199, -16.8207267 ], [ 49.0900214, -16.8199578 ], [ 49.0894727, -16.8196879 ], [ 49.08831, -16.8199071 ], [ 49.0873719, -16.8199484 ], [ 49.0873109, -16.8199157 ], [ 49.0868985, -16.8196585 ], [ 49.0856498, -16.8191352 ], [ 49.0845202, -16.818902 ], [ 49.0831294, -16.8190512 ], [ 49.0821135, -16.8193705 ], [ 49.0817894, -16.8200163 ], [ 49.0814318, -16.8204292 ], [ 49.0809507, -16.8206687 ], [ 49.0806023, -16.8206587 ], [ 49.0805563, -16.8206155 ], [ 49.0802762, -16.8202838 ], [ 49.0797412, -16.8188325 ], [ 49.0792602, -16.817993 ], [ 49.0782191, -16.8171608 ], [ 49.0777388, -16.8174586 ], [ 49.077625, -16.817985 ], [ 49.0772876, -16.8187622 ], [ 49.0768461, -16.8196705 ], [ 49.077003700000013, -16.8201204 ], [ 49.077047, -16.8210531 ], [ 49.077338499999989, -16.82242 ], [ 49.077077900000013, -16.823269 ], [ 49.0768575, -16.8248394 ], [ 49.0770652, -16.8256241 ], [ 49.0774653, -16.8260855 ], [ 49.0775368, -16.826872 ], [ 49.0773047, -16.827669 ], [ 49.076621, -16.8283116 ], [ 49.0766276, -16.8287881 ], [ 49.0769656, -16.8294327 ], [ 49.076825, -16.8313537 ], [ 49.0763219, -16.8316993 ], [ 49.0755793, -16.8331895 ], [ 49.0740262, -16.8340331 ], [ 49.07505, -16.8341956 ], [ 49.0756381, -16.8356506 ], [ 49.0758576, -16.8364927 ], [ 49.0758525, -16.8377846 ], [ 49.075963, -16.8382612 ], [ 49.0765124, -16.8395771 ], [ 49.0772974, -16.8411852 ], [ 49.0783827, -16.8420398 ], [ 49.0787172, -16.8429777 ], [ 49.0787765, -16.8437368 ], [ 49.0789238, -16.8445237 ], [ 49.0790506, -16.845932 ], [ 49.0788454, -16.8465814 ], [ 49.078429, -16.8474591 ], [ 49.0786042, -16.8484957 ], [ 49.0788342, -16.8496208 ], [ 49.079333, -16.8501161 ], [ 49.079508, -16.8502513 ], [ 49.08045, -16.851006 ], [ 49.0806992, -16.8512194 ], [ 49.0820467, -16.8523902 ], [ 49.0824674, -16.8529581 ], [ 49.083084, -16.8537937 ], [ 49.0833561, -16.8544486 ], [ 49.0838922, -16.8546457 ], [ 49.084448200000011, -16.8546477 ], [ 49.0848694, -16.8552507 ], [ 49.0856175, -16.8559769 ], [ 49.0857473, -16.8569011 ], [ 49.0855401, -16.8585387 ], [ 49.085049, -16.8594699 ], [ 49.0841404, -16.8601279 ], [ 49.0826277, -16.8606266 ], [ 49.0809399, -16.8611381 ], [ 49.0807961, -16.8611649 ], [ 49.0803776, -16.8614268 ], [ 49.0796805, -16.86229 ], [ 49.0783038, -16.8634141 ], [ 49.077731, -16.8633277 ], [ 49.0770612, -16.8630737 ], [ 49.0763727, -16.8630701 ], [ 49.0758471, -16.8632016 ], [ 49.0749415, -16.8627978 ], [ 49.0744017, -16.8632133 ], [ 49.0745947, -16.8636446 ], [ 49.0746613, -16.8644432 ], [ 49.0745676, -16.8651781 ], [ 49.0743828, -16.8668314 ], [ 49.0741663, -16.8680674 ], [ 49.073709, -16.8694341 ], [ 49.0732114, -16.870391 ], [ 49.074024, -16.8709058 ], [ 49.0746992, -16.8715141 ], [ 49.0754049, -16.8714466 ], [ 49.0760809, -16.8708626 ], [ 49.0767198, -16.8707293 ], [ 49.0770333, -16.8707335 ], [ 49.0787938, -16.8709192 ], [ 49.0797184, -16.8711259 ], [ 49.0807267, -16.8708596 ], [ 49.0818566, -16.8706726 ], [ 49.0824784, -16.8701513 ], [ 49.082752, -16.8689782 ], [ 49.0831691, -16.8677188 ], [ 49.0837968, -16.8663424 ], [ 49.0839333, -16.8649511 ], [ 49.0846941, -16.8629783 ], [ 49.0855279, -16.8618489 ], [ 49.0873834, -16.8614476 ], [ 49.0875536, -16.8606136 ], [ 49.08774, -16.8595444 ], [ 49.088345, -16.8586923 ], [ 49.0905502, -16.8577592 ], [ 49.0915323, -16.8579751 ], [ 49.0925935, -16.8581618 ], [ 49.0935018, -16.8582274 ], [ 49.0944607, -16.8585614 ], [ 49.0954334, -16.8585611 ], [ 49.095835199999989, -16.8583026 ], [ 49.0969351, -16.8581722 ], [ 49.0976401, -16.8579062 ], [ 49.0985954, -16.8579729 ], [ 49.0996206, -16.8588375 ], [ 49.0999596, -16.8600849 ], [ 49.0994737, -16.8615522 ], [ 49.09961, -16.8629316 ], [ 49.1000903, -16.8645294 ], [ 49.1002812, -16.8656342 ], [ 49.0999997, -16.8667476 ], [ 49.0991753, -16.8670069 ], [ 49.0985591, -16.866485 ], [ 49.0980885, -16.866613 ], [ 49.0965794, -16.8666749 ], [ 49.095608, -16.8668733 ], [ 49.0948595, -16.8673338 ], [ 49.0951272, -16.867928 ], [ 49.0957437, -16.868124 ], [ 49.0967851, -16.8686623 ], [ 49.0975372, -16.8696712 ], [ 49.0979309, -16.8709071 ], [ 49.0978597, -16.871563 ], [ 49.0973766, -16.8725436 ], [ 49.0977292, -16.8732848 ], [ 49.0978542, -16.8742052 ], [ 49.0975014, -16.8747515 ], [ 49.0970924, -16.8755283 ], [ 49.0970269, -16.8767038 ], [ 49.0978411, -16.8773619 ], [ 49.0983886, -16.8775619 ], [ 49.0987368, -16.877961 ], [ 49.0992887, -16.8780958 ], [ 49.0994267, -16.8777774 ], [ 49.0994294, -16.8770352 ], [ 49.099978, -16.8766441 ], [ 49.1008062, -16.8764503 ], [ 49.1017338, -16.8769448 ], [ 49.1029323, -16.8776398 ], [ 49.1043103, -16.8775057 ], [ 49.1059445, -16.877706 ], [ 49.1075931, -16.8774496 ], [ 49.1085029, -16.8767865 ], [ 49.1092566, -16.8763971 ], [ 49.1115903, -16.8763982 ], [ 49.1128288, -16.8761428 ], [ 49.1143418, -16.8767488 ], [ 49.1150236, -16.8775973 ], [ 49.1154332, -16.8786659 ], [ 49.1154987, -16.8798512 ], [ 49.1156269, -16.8803044 ], [ 49.1154134, -16.8805674 ], [ 49.1155538, -16.8825375 ], [ 49.1145665, -16.8831424 ], [ 49.1137063, -16.8841626 ], [ 49.1132042, -16.8849079 ], [ 49.1128118, -16.8853299 ], [ 49.1121455, -16.8859807 ], [ 49.1114269, -16.8866071 ], [ 49.1116426, -16.8871621 ], [ 49.1122179, -16.8874297 ], [ 49.1127495, -16.8875394 ], [ 49.1132863, -16.8875324 ], [ 49.1136937, -16.8875604 ], [ 49.1142002, -16.8872453 ], [ 49.1145695, -16.8870236 ], [ 49.1148872, -16.886836 ], [ 49.1150077, -16.8867844 ], [ 49.1152751, -16.8867059 ], [ 49.1154046, -16.8866792 ], [ 49.1156556, -16.8866675 ], [ 49.1159671, -16.8866468 ], [ 49.1163229, -16.8867005 ], [ 49.1168456, -16.8867937 ], [ 49.1172971, -16.8868794 ], [ 49.1178358, -16.8870058 ], [ 49.1183401, -16.8871492 ], [ 49.1191881, -16.8870964 ], [ 49.1198715, -16.8870457 ], [ 49.1205025, -16.8869624 ], [ 49.1208401, -16.8869496 ], [ 49.122178299999987, -16.886907 ], [ 49.1224543, -16.8868284 ], [ 49.1230142, -16.8866125 ], [ 49.1234877, -16.8864145 ], [ 49.1236404, -16.8861958 ], [ 49.1238206, -16.8860767 ], [ 49.124162, -16.885722 ], [ 49.1244509, -16.8851342 ], [ 49.1246098, -16.8846097 ], [ 49.1249052, -16.8842723 ], [ 49.1252724, -16.8841118 ], [ 49.1257905, -16.8840049 ], [ 49.1264703, -16.883907 ], [ 49.1273495, -16.8840177 ], [ 49.1278038, -16.8843008 ], [ 49.128003500000013, -16.8845427 ], [ 49.1284846, -16.8850811 ], [ 49.1287321, -16.8854336 ], [ 49.1291906, -16.885737 ], [ 49.1295465, -16.8858657 ], [ 49.1305613, -16.8862081 ], [ 49.1319136, -16.8860272 ], [ 49.1326977, -16.8859575 ], [ 49.1332042, -16.8858471 ], [ 49.1338016, -16.8856341 ], [ 49.1343743, -16.8854882 ], [ 49.1350102, -16.8854601 ], [ 49.1360963, -16.8853271 ], [ 49.1369768, -16.8851771 ], [ 49.1378141, -16.8848696 ], [ 49.1384758, -16.8847324 ], [ 49.1389193, -16.8844806 ], [ 49.1400758, -16.8836923 ], [ 49.1407456, -16.883578 ], [ 49.1407125, -16.8710352 ], [ 49.1485619, -16.8713177 ], [ 49.1590622, -16.8737495 ], [ 49.1593819, -16.8730569 ], [ 49.1588682, -16.8717149 ], [ 49.1582886, -16.8715243 ], [ 49.1574803, -16.8697498 ], [ 49.1571726, -16.868405 ], [ 49.1572024, -16.8676112 ], [ 49.1575561, -16.8664163 ], [ 49.1571219, -16.8648749 ], [ 49.1565259, -16.8635339 ], [ 49.155259300000012, -16.8633194 ], [ 49.1544256, -16.8626428 ], [ 49.1540809, -16.8615895 ], [ 49.1530709, -16.8598593 ], [ 49.1574469, -16.8594024 ], [ 49.1584962, -16.8596415 ], [ 49.1590464, -16.8593787 ], [ 49.1600073, -16.8595783 ], [ 49.1609677, -16.8600417 ], [ 49.1617197, -16.861362 ], [ 49.1626093, -16.8626166 ], [ 49.1633634, -16.8631455 ], [ 49.1645968, -16.8642688 ], [ 49.1649386, -16.8648629 ], [ 49.1655545, -16.8657213 ], [ 49.1659658, -16.8660518 ], [ 49.1663772, -16.8663163 ], [ 49.1673398, -16.8659223 ], [ 49.1680954, -16.8658577 ], [ 49.1682321, -16.8661217 ], [ 49.1685053, -16.8667157 ], [ 49.1690529, -16.8674421 ], [ 49.1700136, -16.8677735 ], [ 49.1711141, -16.8671819 ], [ 49.1719396, -16.8666558 ], [ 49.1726284, -16.8658655 ], [ 49.1728357, -16.8654043 ], [ 49.1734551, -16.8648777 ], [ 49.1745562, -16.8640223 ], [ 49.1752439, -16.8636937 ], [ 49.176068, -16.8636952 ], [ 49.1764121, -16.8634319 ], [ 49.17607, -16.8629038 ], [ 49.1754538, -16.8621772 ], [ 49.1746323, -16.8611207 ], [ 49.1747021, -16.8606591 ], [ 49.1751861, -16.859407 ], [ 49.1758749, -16.8586168 ], [ 49.1760132, -16.8582213 ], [ 49.1760149, -16.8575619 ], [ 49.176291, -16.8570348 ], [ 49.1767062, -16.8557824 ], [ 49.1767087, -16.8547932 ], [ 49.1758183, -16.8538684 ], [ 49.175339400000013, -16.8531422 ], [ 49.175291, -16.8527632 ], [ 49.175602800000014, -16.8516546 ], [ 49.1760163, -16.8509994 ], [ 49.1767046, -16.8504778 ], [ 49.1782672, -16.850219 ], [ 49.1789122, -16.8500067 ], [ 49.1791822, -16.8496155 ], [ 49.1794253, -16.8494414 ], [ 49.1798521, -16.8492262 ], [ 49.1802079, -16.8488397 ], [ 49.1801415, -16.8484924 ], [ 49.1801529, -16.8469209 ], [ 49.179667, -16.8460563 ], [ 49.1793445, -16.8459292 ], [ 49.178282, -16.8460485 ], [ 49.177598, -16.8459198 ], [ 49.1768671, -16.8458573 ], [ 49.1758775, -16.8459231 ], [ 49.1746345, -16.845447 ], [ 49.1738172, -16.84478 ], [ 49.1732207, -16.8426792 ], [ 49.1725416, -16.8424202 ], [ 49.1723065, -16.8419175 ], [ 49.171866, -16.8411679 ], [ 49.171362, -16.8402812 ], [ 49.171442, -16.8382563 ], [ 49.1716539, -16.8371857 ], [ 49.1718553, -16.8360075 ], [ 49.1712445, -16.8352834 ], [ 49.1708578, -16.8349557 ], [ 49.169802600000011, -16.8340165 ], [ 49.1699545, -16.8327765 ], [ 49.169957, -16.8321108 ], [ 49.1699614, -16.8315735 ], [ 49.1702286, -16.8307582 ], [ 49.1701634, -16.8304438 ], [ 49.1698078, -16.8293273 ], [ 49.1693929, -16.8283051 ], [ 49.1691277, -16.8275729 ], [ 49.1690441, -16.826816 ], [ 49.1692527, -16.8261475 ], [ 49.1694786, -16.8258292 ], [ 49.169477, -16.8257241 ], [ 49.1683332, -16.8211395 ], [ 49.1685033, -16.8209739 ], [ 49.1758408, -16.815544 ], [ 49.1801913, -16.8142677 ], [ 49.18273330000001, -16.8131539 ], [ 49.1859946, -16.8073243 ], [ 49.1910867, -16.805678 ], [ 49.1955168, -16.8059506 ], [ 49.1937834, -16.8092959 ], [ 49.1949789, -16.8098426 ], [ 49.1953457, -16.8113322 ], [ 49.1951943, -16.8121839 ], [ 49.1954039, -16.8134616 ], [ 49.1954708, -16.8143104 ], [ 49.1954681, -16.8153782 ], [ 49.1956712, -16.8165921 ], [ 49.196349, -16.8181771 ], [ 49.1960157, -16.8196453 ], [ 49.1963899, -16.8203673 ], [ 49.1969317, -16.8213498 ], [ 49.1973878, -16.8220698 ], [ 49.1978722, -16.8222384 ], [ 49.1982737, -16.8223293 ], [ 49.1996408, -16.8222759 ], [ 49.2003865, -16.8222746 ], [ 49.200996, -16.8222839 ], [ 49.2018173, -16.8224742 ], [ 49.202435099999988, -16.8228066 ], [ 49.203407, -16.8243439 ], [ 49.2040085, -16.8250549 ], [ 49.2058741, -16.8255248 ], [ 49.2075447, -16.825724 ], [ 49.2080178, -16.8257982 ], [ 49.2084222, -16.8271025 ], [ 49.2087559, -16.828232 ], [ 49.2090799, -16.8289345 ], [ 49.2093054, -16.8294281 ], [ 49.2097262, -16.8299539 ], [ 49.2105448, -16.8304155 ], [ 49.2115703, -16.8315323 ], [ 49.2115669, -16.8318259 ], [ 49.2112854, -16.8328688 ], [ 49.2118312, -16.8345115 ], [ 49.2116223, -16.8345685 ], [ 49.2112762, -16.8350393 ], [ 49.2107291, -16.8355571 ], [ 49.2104534, -16.836293 ], [ 49.2105211, -16.8370785 ], [ 49.2107313, -16.8378043 ], [ 49.2105998, -16.8386121 ], [ 49.210443899999987, -16.8398485 ], [ 49.2100495, -16.8401642 ], [ 49.2095429, -16.8405061 ], [ 49.2085837, -16.8407586 ], [ 49.2077652, -16.8406268 ], [ 49.206911, -16.8403624 ], [ 49.205297699999988, -16.8402413 ], [ 49.2051592, -16.8405684 ], [ 49.2052819, -16.8412672 ], [ 49.2056178, -16.8418473 ], [ 49.2061884, -16.8426122 ], [ 49.2067982, -16.8432674 ], [ 49.207431, -16.8440879 ], [ 49.2077608, -16.8451845 ], [ 49.208189, -16.846013 ], [ 49.209269, -16.8478404 ], [ 49.2096418, -16.8490769 ], [ 49.2099409, -16.84994 ], [ 49.2095957, -16.8505951 ], [ 49.2091177, -16.8511816 ], [ 49.2087679, -16.8527674 ], [ 49.2095052, -16.854045 ], [ 49.2100045, -16.8552259 ], [ 49.2094998, -16.8565405 ], [ 49.2093918, -16.8574529 ], [ 49.2098215, -16.8578091 ], [ 49.210056, -16.8589154 ], [ 49.2107477, -16.8602365 ], [ 49.2112186, -16.8631544 ], [ 49.211237, -16.8633713 ], [ 49.2113569, -16.8650415 ], [ 49.2116773, -16.8654905 ], [ 49.2122482, -16.866086 ], [ 49.2131254, -16.8669719 ], [ 49.2129752, -16.8672805 ], [ 49.212765900000015, -16.8672746 ], [ 49.2123791, -16.866947 ], [ 49.2121609, -16.8669587 ], [ 49.2118383, -16.8672872 ], [ 49.2118965, -16.8675404 ], [ 49.212111, -16.8678966 ], [ 49.2125086, -16.8683379 ], [ 49.2132621, -16.8700961 ], [ 49.2136689, -16.8713936 ], [ 49.213868299999987, -16.8728272 ], [ 49.2138183, -16.8732516 ], [ 49.2147124, -16.8745559 ], [ 49.2148483, -16.875101 ], [ 49.2147571, -16.8762118 ], [ 49.2145641, -16.8770076 ], [ 49.2143265, -16.8785998 ], [ 49.214202, -16.8798845 ], [ 49.2143107, -16.8803166 ], [ 49.2144446, -16.8803739 ], [ 49.2144805, -16.880406 ], [ 49.2154874, -16.8812449 ], [ 49.2158883, -16.8812862 ], [ 49.216152, -16.881237 ], [ 49.2165405, -16.8812629 ], [ 49.2167043, -16.8814008 ], [ 49.2168232, -16.8817885 ], [ 49.2169389, -16.8819566 ], [ 49.2172177, -16.8833231 ], [ 49.2177053, -16.8834878 ], [ 49.2184348, -16.8836024 ], [ 49.219067, -16.8837028 ], [ 49.2193924, -16.8838386 ], [ 49.2195398, -16.8839611 ], [ 49.2201062, -16.8839846 ], [ 49.220521399999988, -16.8836208 ], [ 49.2208557, -16.8832581 ], [ 49.2211515, -16.8824755 ], [ 49.2213669, -16.8817251 ], [ 49.2216217, -16.8814569 ], [ 49.2221689, -16.8812782 ], [ 49.222557, -16.8812729 ], [ 49.2229294, -16.881299 ], [ 49.2236759, -16.8814756 ], [ 49.2247476, -16.8828625 ], [ 49.2256648, -16.8832081 ], [ 49.2265612, -16.8836786 ], [ 49.2269992, -16.883766 ], [ 49.2273755, -16.8840568 ], [ 49.2278519, -16.8845641 ], [ 49.2284901, -16.8850693 ], [ 49.2291396, -16.8859755 ], [ 49.2304709, -16.8872865 ], [ 49.2311465, -16.8874525 ], [ 49.2323193, -16.8877693 ], [ 49.233556799999988, -16.887959 ], [ 49.2340762, -16.8880869 ], [ 49.234858, -16.8882951 ], [ 49.2354084, -16.8888473 ], [ 49.2357931, -16.889026 ], [ 49.2360486, -16.8892029 ], [ 49.236752900000013, -16.8891684 ], [ 49.2382576, -16.8892062 ], [ 49.2386351, -16.8893062 ], [ 49.2403756, -16.8893757 ], [ 49.2414454, -16.8895362 ], [ 49.2434283, -16.889613 ], [ 49.2443441, -16.8896202 ], [ 49.2451655, -16.8897994 ], [ 49.2471475, -16.8902911 ], [ 49.2480524, -16.8909488 ], [ 49.2492173, -16.8912809 ], [ 49.250841600000015, -16.8920001 ], [ 49.2525049, -16.8923984 ], [ 49.2537848, -16.8924793 ], [ 49.2549879, -16.8921671 ], [ 49.2557916, -16.8918867 ], [ 49.2565631, -16.8910024 ], [ 49.2567212, -16.8906198 ], [ 49.2567017, -16.890226 ], [ 49.2564781, -16.8894171 ], [ 49.2559219, -16.8889038 ], [ 49.2523064, -16.886795 ], [ 49.2516296, -16.8856751 ], [ 49.2520143, -16.8840094 ], [ 49.2521916, -16.8835458 ], [ 49.252585, -16.8831581 ], [ 49.2536032, -16.8826681 ], [ 49.25407, -16.8824011 ], [ 49.2544741, -16.8820457 ], [ 49.2541732, -16.881769 ], [ 49.2540425, -16.8812387 ], [ 49.2531907, -16.8793546 ], [ 49.253014699999987, -16.8781864 ], [ 49.2529598, -16.877591 ], [ 49.2529393, -16.8772425 ], [ 49.2529447, -16.8765723 ], [ 49.2529496, -16.8755229 ], [ 49.2529377, -16.8750653 ], [ 49.2528, -16.874407 ], [ 49.2526706, -16.8739629 ], [ 49.2526734, -16.8734653 ], [ 49.253103, -16.8731036 ], [ 49.2531657, -16.8728466 ], [ 49.2531706, -16.8724868 ], [ 49.2531216, -16.8722904 ], [ 49.252875, -16.871877 ], [ 49.2524317, -16.8713165 ], [ 49.2520304, -16.8704776 ], [ 49.2524563, -16.8695258 ], [ 49.2526633, -16.8689908 ], [ 49.2531662, -16.8677138 ], [ 49.2531794, -16.8675658 ], [ 49.2531809, -16.8673243 ], [ 49.2531516, -16.8670705 ], [ 49.2531212, -16.8667458 ], [ 49.2530693, -16.8658933 ], [ 49.2530985, -16.8655644 ], [ 49.253146099999988, -16.8650908 ], [ 49.253276399999983, -16.8646778 ], [ 49.2534296, -16.8640108 ], [ 49.2534283, -16.8638795 ], [ 49.2532857, -16.8625466 ], [ 49.2530826, -16.8617348 ], [ 49.2526934, -16.8612475 ], [ 49.2529361, -16.8605938 ], [ 49.253287, -16.8601515 ], [ 49.2537859, -16.8597505 ], [ 49.2540196, -16.8594122 ], [ 49.2540941, -16.8590694 ], [ 49.255048300000013, -16.857951 ], [ 49.2557766, -16.8571064 ], [ 49.256323, -16.8564604 ], [ 49.2567144, -16.8560152 ], [ 49.2573454, -16.8554831 ], [ 49.2579369, -16.8547325 ], [ 49.2585561, -16.85419 ], [ 49.2592445, -16.8539188 ], [ 49.2597027, -16.8535808 ], [ 49.2597827, -16.8534446 ], [ 49.2598549, -16.8532335 ], [ 49.259913, -16.853014 ], [ 49.2599114, -16.8523895 ], [ 49.260221, -16.8520468 ], [ 49.2609928, -16.8515669 ], [ 49.2611366, -16.8515037 ], [ 49.2621673, -16.8510888 ], [ 49.262377699999988, -16.8510136 ], [ 49.2634688, -16.8506058 ], [ 49.2636733, -16.8502804 ], [ 49.2638131, -16.8498129 ], [ 49.2638351, -16.849749 ], [ 49.2638397, -16.8494787 ], [ 49.2638325, -16.8492828 ], [ 49.2637979, -16.8491365 ], [ 49.2637831, -16.8488667 ], [ 49.2639175, -16.84879 ], [ 49.2640049, -16.8486317 ], [ 49.264083, -16.8482241 ], [ 49.2640906, -16.8478619 ], [ 49.2642432, -16.8475272 ], [ 49.2646783, -16.8473537 ], [ 49.2651297, -16.8472872 ], [ 49.2655227, -16.8473349 ], [ 49.266001, -16.8472535 ], [ 49.2661951, -16.8471744 ], [ 49.266450299999988, -16.8468795 ], [ 49.2665977, -16.8463378 ], [ 49.2665882, -16.8461604 ], [ 49.2671544, -16.8459567 ], [ 49.2673986, -16.8457513 ], [ 49.267599, -16.8451796 ], [ 49.267755, -16.844849 ], [ 49.2680532, -16.8445843 ], [ 49.2681064, -16.8444811 ], [ 49.2683682, -16.844555 ], [ 49.2685929, -16.8446129 ], [ 49.269042, -16.8447009 ], [ 49.2693241, -16.8448162 ], [ 49.269697, -16.8451203 ], [ 49.2700654, -16.8460924 ], [ 49.270162, -16.8466645 ], [ 49.2703631, -16.8468307 ], [ 49.270767600000013, -16.8471088 ], [ 49.2708604, -16.8474106 ], [ 49.2708693, -16.8474917 ], [ 49.2708645, -16.8479411 ], [ 49.2709581, -16.8480987 ], [ 49.2711495, -16.84817 ], [ 49.2716012, -16.8481489 ], [ 49.2720162, -16.8480323 ], [ 49.2726824, -16.8475221 ], [ 49.2729893, -16.8470537 ], [ 49.2734505, -16.8461804 ], [ 49.2735976, -16.8454948 ], [ 49.2737463, -16.8451768 ], [ 49.2742439, -16.8444666 ], [ 49.274557800000011, -16.8433718 ], [ 49.275029499999988, -16.8429843 ], [ 49.2759712, -16.84241 ], [ 49.2766595, -16.8416196 ], [ 49.2771403, -16.8415542 ], [ 49.2774823, -16.8422141 ], [ 49.2782361, -16.8430063 ], [ 49.2788524, -16.8438644 ], [ 49.2798141, -16.8436678 ], [ 49.2802272, -16.8431408 ], [ 49.2803664, -16.8422177 ], [ 49.2806414, -16.8420861 ], [ 49.2810529, -16.8423504 ], [ 49.2815334, -16.842417 ], [ 49.2820142, -16.8423516 ], [ 49.282222, -16.8414946 ], [ 49.282566400000015, -16.8409675 ], [ 49.2833226, -16.8405067 ], [ 49.2841472, -16.8402439 ], [ 49.2846287, -16.8398488 ], [ 49.2849733, -16.8391898 ], [ 49.2853863, -16.8387287 ], [ 49.2857308, -16.8381356 ], [ 49.2860072, -16.8372786 ], [ 49.2862835, -16.8364217 ], [ 49.2866969, -16.8357628 ], [ 49.2871792, -16.8349061 ], [ 49.2873869, -16.834049 ], [ 49.287595199999984, -16.8329282 ], [ 49.2877325, -16.8329284 ], [ 49.2884192, -16.8329292 ], [ 49.2886266, -16.832204 ], [ 49.2889034, -16.8311493 ], [ 49.2893176, -16.8300287 ], [ 49.2901426, -16.8295021 ], [ 49.2907616, -16.8289753 ], [ 49.2909005, -16.8281841 ], [ 49.2913135, -16.827657 ], [ 49.292001, -16.8272622 ], [ 49.2926193, -16.8270651 ], [ 49.2935818, -16.8264727 ], [ 49.2942013, -16.8256821 ], [ 49.2948203, -16.8251552 ], [ 49.2955085, -16.8243647 ], [ 49.295853, -16.8237717 ], [ 49.2958537, -16.823376 ], [ 49.2964042, -16.8227831 ], [ 49.2965425, -16.8222557 ], [ 49.2969541, -16.822454 ], [ 49.2975711, -16.8229823 ], [ 49.2981198, -16.8232467 ], [ 49.2987379, -16.8231815 ], [ 49.2994931, -16.8232483 ], [ 49.3001112, -16.8231831 ], [ 49.3003866, -16.8227877 ], [ 49.3006628, -16.8219967 ], [ 49.3011448, -16.8212718 ], [ 49.3016943, -16.8211406 ], [ 49.3025184, -16.8210756 ], [ 49.3038232, -16.8209452 ], [ 49.3049218, -16.8209464 ], [ 49.3059509, -16.8214091 ], [ 49.3077357, -16.821609 ], [ 49.3082852, -16.8214777 ], [ 49.3089037, -16.8212146 ], [ 49.3095222, -16.8208856 ], [ 49.3112398, -16.8203599 ], [ 49.3128208, -16.8193725 ], [ 49.3131646, -16.819109 ], [ 49.3135088, -16.8186479 ], [ 49.3137848, -16.8179227 ], [ 49.3138551, -16.8169996 ], [ 49.3140624, -16.8163403 ], [ 49.314407, -16.8156153 ], [ 49.3148192, -16.8154839 ], [ 49.3155748, -16.8152869 ], [ 49.3163295, -16.8156175 ], [ 49.3169465, -16.8160797 ], [ 49.3174251, -16.8172013 ], [ 49.3176988, -16.8177291 ], [ 49.3183158, -16.8181914 ], [ 49.3188645, -16.8185216 ], [ 49.3193442, -16.8190498 ], [ 49.3203047, -16.8194464 ], [ 49.3217456, -16.8199755 ], [ 49.3225011, -16.8198444 ], [ 49.3229134, -16.819647 ], [ 49.3233951, -16.819054 ], [ 49.3239455, -16.8184611 ], [ 49.3244955, -16.818066 ], [ 49.325114, -16.8177369 ], [ 49.3253889, -16.8176053 ], [ 49.3257323, -16.8175397 ], [ 49.3271061, -16.8172114 ], [ 49.3286173, -16.8168173 ], [ 49.329373, -16.8165542 ], [ 49.330403, -16.8164894 ], [ 49.3314328, -16.8165563 ], [ 49.3318441, -16.8168864 ], [ 49.3326674, -16.817283 ], [ 49.3333528, -16.8179431 ], [ 49.3340391, -16.8180756 ], [ 49.3346577, -16.8177465 ], [ 49.33507, -16.8175491 ], [ 49.3359649, -16.8161651 ], [ 49.3363089, -16.8157698 ], [ 49.3366544, -16.8145172 ], [ 49.3371366, -16.8135945 ], [ 49.3377548, -16.8134632 ], [ 49.3385099, -16.8135299 ], [ 49.339746, -16.8133992 ], [ 49.3410506, -16.8133345 ], [ 49.3420808, -16.8131376 ], [ 49.3422874, -16.8127422 ], [ 49.3424946, -16.8120171 ], [ 49.3426329, -16.8114896 ], [ 49.3433208, -16.8106989 ], [ 49.3433898, -16.8105011 ], [ 49.3433223, -16.8098417 ], [ 49.3431867, -16.8088524 ], [ 49.3429145, -16.8074014 ], [ 49.3431215, -16.8068081 ], [ 49.3435346, -16.8061491 ], [ 49.343947, -16.8058857 ], [ 49.3444969, -16.8054906 ], [ 49.3455952, -16.8055575 ], [ 49.3462818, -16.8055582 ], [ 49.3466258, -16.8050969 ], [ 49.3476577, -16.8039109 ], [ 49.348608899999988, -16.8032873 ], [ 49.348963499999989, -16.8030548 ], [ 49.349651, -16.8025279 ], [ 49.3504753, -16.8022649 ], [ 49.3507501, -16.8021333 ], [ 49.3510253, -16.8018038 ], [ 49.3515748, -16.8016065 ], [ 49.351988, -16.8008815 ], [ 49.3522637, -16.8002223 ], [ 49.352196, -16.7996287 ], [ 49.3519221, -16.7992329 ], [ 49.3513734, -16.7989026 ], [ 49.3509623, -16.7984407 ], [ 49.3505506, -16.7983084 ], [ 49.3497273, -16.7979779 ], [ 49.3496607, -16.7967909 ], [ 49.3497313, -16.7956039 ], [ 49.3496637, -16.7950104 ], [ 49.3493222, -16.793955 ], [ 49.3492544, -16.7934933 ], [ 49.3493923, -16.7930978 ], [ 49.349737, -16.7922408 ], [ 49.3495317, -16.7919109 ], [ 49.348984, -16.7909873 ], [ 49.3488477, -16.7903936 ], [ 49.3487796, -16.7900639 ], [ 49.3491238, -16.7895366 ], [ 49.3496741, -16.7888777 ], [ 49.3500855, -16.7891419 ], [ 49.3506344, -16.7893402 ], [ 49.3509092, -16.7892085 ], [ 49.3511843, -16.788945 ], [ 49.3512536, -16.7885494 ], [ 49.3513233, -16.7878901 ], [ 49.3515293, -16.7878903 ], [ 49.3520782, -16.7880226 ], [ 49.352558900000012, -16.7879572 ], [ 49.352971, -16.7878256 ], [ 49.3533838, -16.7872984 ], [ 49.3537279, -16.7867712 ], [ 49.35414, -16.7866397 ], [ 49.3553075, -16.786377 ], [ 49.3564751, -16.7859824 ], [ 49.3571617, -16.7859171 ], [ 49.3583287, -16.7859181 ], [ 49.358602, -16.7867097 ], [ 49.3586699, -16.7871714 ], [ 49.359013, -16.7872376 ], [ 49.3592881, -16.7869082 ], [ 49.3597696, -16.786381 ], [ 49.3603192, -16.7861177 ], [ 49.3606632, -16.7856564 ], [ 49.3605955, -16.7850629 ], [ 49.3603226, -16.7840076 ], [ 49.360391899999989, -16.783612 ], [ 49.3608728, -16.7834145 ], [ 49.3614225, -16.7830853 ], [ 49.361835199999987, -16.7825581 ], [ 49.3619045, -16.7821625 ], [ 49.3621121, -16.7811736 ], [ 49.3624556, -16.780976 ], [ 49.3630736, -16.7809107 ], [ 49.3637598, -16.7810431 ], [ 49.3639663, -16.7807135 ], [ 49.3642415, -16.7803182 ], [ 49.3644483, -16.7797908 ], [ 49.3647918, -16.7795933 ], [ 49.3652041, -16.7793299 ], [ 49.3658908, -16.7791986 ], [ 49.3665781, -16.7786716 ], [ 49.3674025, -16.7782767 ], [ 49.3683641, -16.7778818 ], [ 49.3693946, -16.7773551 ], [ 49.3701504, -16.7769601 ], [ 49.370632, -16.7762352 ], [ 49.371045500000015, -16.7752464 ], [ 49.3713892, -16.7749169 ], [ 49.3720766, -16.774324 ], [ 49.3726952, -16.773797 ], [ 49.3731072, -16.7737314 ], [ 49.373725199999988, -16.7736 ], [ 49.3746863, -16.7735349 ], [ 49.3761271, -16.7739317 ], [ 49.3765386, -16.7741958 ], [ 49.377086, -16.7752514 ], [ 49.3772901, -16.7764385 ], [ 49.3775638, -16.7770322 ], [ 49.377905800000015, -16.7777578 ], [ 49.3783164, -16.7786154 ], [ 49.3787269, -16.779473 ], [ 49.3792751, -16.7800669 ], [ 49.3800989, -16.7800675 ], [ 49.3809228, -16.7799363 ], [ 49.3819522, -16.7801349 ], [ 49.3831878, -16.7801359 ], [ 49.3844917, -16.7803348 ], [ 49.3851099, -16.7800715 ], [ 49.3855907, -16.779874 ], [ 49.3852484, -16.7792803 ], [ 49.3847683, -16.7790161 ], [ 49.3842196, -16.778686 ], [ 49.3834655, -16.778092 ], [ 49.3831232, -16.7774982 ], [ 49.3833997, -16.7762455 ], [ 49.3839499, -16.7755206 ], [ 49.384431100000015, -16.7750594 ], [ 49.3845005, -16.7745978 ], [ 49.3842959, -16.7737404 ], [ 49.3836797, -16.7726848 ], [ 49.383201, -16.7714975 ], [ 49.383476800000011, -16.7707064 ], [ 49.3836841, -16.7698493 ], [ 49.3838219, -16.7694538 ], [ 49.3848526, -16.7687952 ], [ 49.3853337, -16.7683998 ], [ 49.3862953, -16.767939 ], [ 49.3871878, -16.7678078 ], [ 49.3877376, -16.7674126 ], [ 49.3886997, -16.766622 ], [ 49.3900053, -16.7656998 ], [ 49.3906921, -16.7653706 ], [ 49.391654, -16.7647778 ], [ 49.3926158, -16.764185 ], [ 49.3936463, -16.7635924 ], [ 49.394608, -16.7630655 ], [ 49.3949512, -16.7630658 ], [ 49.3955691, -16.7629343 ], [ 49.3964621, -16.7624734 ], [ 49.3967375, -16.7618801 ], [ 49.3969443, -16.7612868 ], [ 49.3970144, -16.7602977 ], [ 49.3968093, -16.75977 ], [ 49.3960567, -16.7581209 ], [ 49.3965375, -16.7579234 ], [ 49.3972931, -16.7574623 ], [ 49.3977742, -16.7570671 ], [ 49.3981177, -16.7568035 ], [ 49.3984618, -16.7562103 ], [ 49.3985311, -16.7557488 ], [ 49.398189, -16.7550232 ], [ 49.3977094, -16.7544294 ], [ 49.3972301, -16.7537036 ], [ 49.3968195, -16.7528461 ], [ 49.397095299999989, -16.751989 ], [ 49.3973017, -16.7516595 ], [ 49.3979198, -16.7513962 ], [ 49.3984692, -16.7511988 ], [ 49.3988128, -16.7508693 ], [ 49.399020099999987, -16.7499462 ], [ 49.3993645, -16.7490892 ], [ 49.3996402, -16.7482981 ], [ 49.3993669, -16.7474406 ], [ 49.398339, -16.7463848 ], [ 49.3979974, -16.7453295 ], [ 49.3977923, -16.7448018 ], [ 49.3984111, -16.7440109 ], [ 49.3986178, -16.7434835 ], [ 49.3991684, -16.7424289 ], [ 49.3994438, -16.7418356 ], [ 49.3997887, -16.7406489 ], [ 49.3996521, -16.7401872 ], [ 49.3992414, -16.7394615 ], [ 49.3987635, -16.7378126 ], [ 49.3989709, -16.7367577 ], [ 49.3993161, -16.7353731 ], [ 49.3995916, -16.7347139 ], [ 49.4001406, -16.7347143 ], [ 49.4009647, -16.7343192 ], [ 49.4013772, -16.733858 ], [ 49.4019963, -16.7328693 ], [ 49.402752299999989, -16.7320785 ], [ 49.4030279, -16.7313534 ], [ 49.4033025, -16.7312876 ], [ 49.4039205, -16.7310243 ], [ 49.4045389, -16.7304971 ], [ 49.4052947, -16.7299042 ], [ 49.406325100000011, -16.7291795 ], [ 49.4075607, -16.7289826 ], [ 49.4077678, -16.7281255 ], [ 49.4081119, -16.7274663 ], [ 49.4081141, -16.7259496 ], [ 49.408391, -16.7242353 ], [ 49.4079107, -16.724235 ], [ 49.4076363, -16.7241688 ], [ 49.4072256, -16.7234432 ], [ 49.4068145, -16.7229813 ], [ 49.4061976, -16.7224533 ], [ 49.4050323, -16.7215952 ], [ 49.4030437, -16.7206047 ], [ 49.4027011, -16.7202088 ], [ 49.4021529, -16.7196808 ], [ 49.4012625, -16.7185591 ], [ 49.4007137, -16.7184269 ], [ 49.4005077, -16.7184927 ], [ 49.3999589, -16.7184263 ], [ 49.3996158, -16.7184261 ], [ 49.399272, -16.7188214 ], [ 49.3985853, -16.7191506 ], [ 49.3978988, -16.719348 ], [ 49.3972121, -16.7196772 ], [ 49.3957708, -16.719808 ], [ 49.3948105, -16.7195435 ], [ 49.39385, -16.7194109 ], [ 49.3930267, -16.7192784 ], [ 49.3919291, -16.7190138 ], [ 49.390969099999985, -16.7185514 ], [ 49.3895279, -16.7186163 ], [ 49.3888422, -16.7182859 ], [ 49.3878129, -16.7182852 ], [ 49.3853421, -16.718481 ], [ 49.3822542, -16.7184126 ], [ 49.3819114, -16.7182144 ], [ 49.381432, -16.7176206 ], [ 49.3802664, -16.7169602 ], [ 49.3783461, -16.7162332 ], [ 49.377112, -16.7155727 ], [ 49.3763573, -16.7155062 ], [ 49.3753965, -16.7155054 ], [ 49.374848, -16.7152411 ], [ 49.3736818, -16.7149763 ], [ 49.3727898, -16.7149755 ], [ 49.3724459, -16.7154369 ], [ 49.3719649, -16.7158321 ], [ 49.371483800000014, -16.7162933 ], [ 49.37134720000001, -16.7158975 ], [ 49.3710728, -16.7158313 ], [ 49.3705921, -16.7160287 ], [ 49.3701802, -16.7161602 ], [ 49.3696992, -16.7165555 ], [ 49.369425, -16.7163574 ], [ 49.3690825, -16.7159615 ], [ 49.3686022, -16.715961 ], [ 49.3680534, -16.7158286 ], [ 49.3671614, -16.7157619 ], [ 49.3663384, -16.7154974 ], [ 49.3655835, -16.7154968 ], [ 49.3647598, -16.7156279 ], [ 49.3641417, -16.715957 ], [ 49.3646622, -16.7166382 ], [ 49.3639243, -16.7196719 ], [ 49.360831, -16.7225501 ], [ 49.3607479, -16.7227508 ], [ 49.3601489, -16.723471 ], [ 49.3593936, -16.7237342 ], [ 49.35857, -16.7237334 ], [ 49.3573344, -16.7239301 ], [ 49.3568538, -16.7240615 ], [ 49.3561666, -16.7246543 ], [ 49.3557542, -16.7249837 ], [ 49.355137, -16.7247853 ], [ 49.3542459, -16.724125 ], [ 49.353356299999987, -16.7226734 ], [ 49.353768200000012, -16.7226078 ], [ 49.3545918, -16.7225427 ], [ 49.3550728, -16.7221474 ], [ 49.3550743, -16.7212902 ], [ 49.3554189, -16.7204332 ], [ 49.3562445, -16.7191811 ], [ 49.3571385, -16.7180609 ], [ 49.3576884, -16.7175338 ], [ 49.3581013, -16.7168747 ], [ 49.3583777, -16.7157539 ], [ 49.3583809, -16.7138416 ], [ 49.3584516, -16.7126546 ], [ 49.3588644, -16.7119956 ], [ 49.3590716, -16.7112044 ], [ 49.3587295, -16.7106105 ], [ 49.3579756, -16.7100823 ], [ 49.3570843, -16.7096199 ], [ 49.3568796, -16.7089602 ], [ 49.3570177, -16.7084328 ], [ 49.3574991, -16.7078397 ], [ 49.3579807, -16.7070901 ], [ 49.357981799999983, -16.7064554 ], [ 49.357365, -16.7059932 ], [ 49.356611, -16.7055308 ], [ 49.3557191, -16.7053981 ], [ 49.3544839, -16.7054629 ], [ 49.3535233, -16.705396 ], [ 49.352425, -16.7055928 ], [ 49.3516702, -16.7055921 ], [ 49.3512582, -16.7057895 ], [ 49.3506402, -16.7059867 ], [ 49.3502287, -16.7058544 ], [ 49.3497483, -16.7059199 ], [ 49.3489932, -16.7060511 ], [ 49.3486497, -16.7063145 ], [ 49.3477575, -16.7063796 ], [ 49.3464631, -16.7061258 ], [ 49.3446673, -16.7040726 ], [ 49.3440275, -16.7006805 ], [ 49.3383057, -16.6983047 ], [ 49.3361695, -16.6996575 ], [ 49.3341808, -16.7001785 ], [ 49.33282, -16.6985709 ], [ 49.3294962, -16.6991844 ], [ 49.3252915, -16.7012896 ], [ 49.3251805, -16.7029296 ], [ 49.323459, -16.7057881 ], [ 49.3211836, -16.7109218 ], [ 49.3190899, -16.7151081 ], [ 49.3153879, -16.7166716 ], [ 49.3122983, -16.7141634 ], [ 49.3094811, -16.7150535 ], [ 49.3064853, -16.7116974 ], [ 49.3041541, -16.7128603 ], [ 49.3036997, -16.7087096 ], [ 49.3044271, -16.7049203 ], [ 49.3043417, -16.7048973 ], [ 49.3043932, -16.7042221 ], [ 49.3040534, -16.7025731 ], [ 49.304123, -16.7020457 ], [ 49.3044676, -16.7013206 ], [ 49.3049493, -16.7005958 ], [ 49.3052937, -16.6999368 ], [ 49.3055698, -16.6991457 ], [ 49.3061213, -16.6978274 ], [ 49.3060548, -16.6967722 ], [ 49.3063303, -16.6962449 ], [ 49.3067432, -16.6956518 ], [ 49.3074998, -16.6947296 ], [ 49.3079139, -16.693477 ], [ 49.3079842, -16.6926198 ], [ 49.3079176, -16.6916305 ], [ 49.3076446, -16.6908389 ], [ 49.3073029, -16.6901789 ], [ 49.3066867, -16.6894528 ], [ 49.3062064, -16.6894523 ], [ 49.3055204, -16.6893855 ], [ 49.3051765, -16.6897808 ], [ 49.3046962, -16.6897802 ], [ 49.3043539, -16.6893841 ], [ 49.303669500000012, -16.6885259 ], [ 49.3030527, -16.6881295 ], [ 49.3016809, -16.6878641 ], [ 49.301062599999987, -16.688259 ], [ 49.3001, -16.689247 ], [ 49.2997565, -16.6894445 ], [ 49.2985898, -16.6895749 ], [ 49.2966001, -16.6895065 ], [ 49.2955022, -16.6895053 ], [ 49.2945412, -16.6897018 ], [ 49.2937182, -16.689503 ], [ 49.2929635, -16.6894361 ], [ 49.2924139, -16.6897652 ], [ 49.2915216, -16.689896 ], [ 49.2911794, -16.6894999 ], [ 49.2910432, -16.6889721 ], [ 49.2905638, -16.6885098 ], [ 49.2897405, -16.6885088 ], [ 49.2894655, -16.6887723 ], [ 49.288848, -16.6887055 ], [ 49.288024600000014, -16.6887045 ], [ 49.2874761, -16.6885059 ], [ 49.2871341, -16.6879779 ], [ 49.2867243, -16.6870541 ], [ 49.2859019, -16.6865914 ], [ 49.2852163, -16.6863267 ], [ 49.2848042, -16.686524 ], [ 49.2843917, -16.6869192 ], [ 49.283841, -16.6877758 ], [ 49.2835651, -16.688435 ], [ 49.2832887, -16.6893578 ], [ 49.2830134, -16.6897532 ], [ 49.2824641, -16.6899503 ], [ 49.2820516, -16.6903455 ], [ 49.2814339, -16.6904106 ], [ 49.2808163, -16.6904098 ], [ 49.280130199999988, -16.6904089 ], [ 49.279788, -16.6899468 ], [ 49.2789655, -16.68955 ], [ 49.2778008, -16.6886912 ], [ 49.2776633, -16.6888229 ], [ 49.2767025, -16.6888876 ], [ 49.2756747, -16.6882267 ], [ 49.2747842, -16.6875001 ], [ 49.2743043, -16.6873016 ], [ 49.2734124, -16.6872345 ], [ 49.2724524, -16.6869694 ], [ 49.2710812, -16.6864399 ], [ 49.2697098, -16.6859765 ], [ 49.2695047, -16.6856465 ], [ 49.2690946, -16.6849205 ], [ 49.26861610000001, -16.6840625 ], [ 49.2686863, -16.6833371 ], [ 49.2689625, -16.6825461 ], [ 49.26917, -16.681755 ], [ 49.2694457, -16.6812278 ], [ 49.2691031, -16.6809636 ], [ 49.269104, -16.6805679 ], [ 49.269310599999983, -16.6802384 ], [ 49.2696542, -16.6799751 ], [ 49.2696563, -16.6789859 ], [ 49.2698635, -16.6783926 ], [ 49.270278, -16.6770742 ], [ 49.2704864, -16.6758874 ], [ 49.2710367, -16.6752287 ], [ 49.271315, -16.6734485 ], [ 49.2715929, -16.6718661 ], [ 49.2718, -16.6712729 ], [ 49.2715271, -16.670547 ], [ 49.2703624, -16.6697541 ], [ 49.269267, -16.6686974 ], [ 49.2679649, -16.6679702 ], [ 49.2670747, -16.6671776 ], [ 49.2661177, -16.6655935 ], [ 49.2654326, -16.6651308 ], [ 49.264885, -16.6645365 ], [ 49.2639268, -16.6634801 ], [ 49.2634483, -16.662688 ], [ 49.262218299999986, -16.660444 ], [ 49.2613296, -16.6589919 ], [ 49.2603718, -16.6578035 ], [ 49.259004600000011, -16.6555592 ], [ 49.2583895, -16.6545032 ], [ 49.2581858, -16.6535796 ], [ 49.2577761, -16.6527216 ], [ 49.25716, -16.6521272 ], [ 49.257161, -16.6516656 ], [ 49.2574373, -16.6508086 ], [ 49.2575077, -16.6500174 ], [ 49.2572353, -16.6490937 ], [ 49.256755899999987, -16.6487632 ], [ 49.2563451, -16.648367 ], [ 49.2561399, -16.6481028 ], [ 49.2557987, -16.647311 ], [ 49.2553202, -16.6465189 ], [ 49.2551162, -16.6457272 ], [ 49.255255, -16.645002 ], [ 49.2555335, -16.6432217 ], [ 49.2558806, -16.6413756 ], [ 49.2560891, -16.6401889 ], [ 49.2565032, -16.6390683 ], [ 49.2567126, -16.6374858 ], [ 49.2565776, -16.6364964 ], [ 49.2558921, -16.6362975 ], [ 49.2546583, -16.6358341 ], [ 49.2541112, -16.6351079 ], [ 49.2539755, -16.6344481 ], [ 49.2544576, -16.6335915 ], [ 49.255008, -16.6328668 ], [ 49.2551466, -16.6322735 ], [ 49.2552863, -16.6311526 ], [ 49.2544649, -16.63036 ], [ 49.2537115, -16.6298313 ], [ 49.2538504, -16.629106 ], [ 49.2540586, -16.6280512 ], [ 49.2544035, -16.6271943 ], [ 49.2548161, -16.6267333 ], [ 49.2552979, -16.6260086 ], [ 49.2555762, -16.6242943 ], [ 49.2556481, -16.6228435 ], [ 49.2555155, -16.6207988 ], [ 49.2552423, -16.6202708 ], [ 49.2540775, -16.6197415 ], [ 49.2533232, -16.6196085 ], [ 49.2526376, -16.6194756 ], [ 49.2515404, -16.619342 ], [ 49.2513355, -16.6189461 ], [ 49.2515428, -16.6182869 ], [ 49.2520249, -16.6174303 ], [ 49.2522326, -16.6165732 ], [ 49.252371800000013, -16.6157161 ], [ 49.2522363, -16.6149904 ], [ 49.252580099999989, -16.6145952 ], [ 49.2529929, -16.6140682 ], [ 49.2534735, -16.6138711 ], [ 49.2541595, -16.6138062 ], [ 49.2548455, -16.6138072 ], [ 49.2555995, -16.6140061 ], [ 49.2563536, -16.6142051 ], [ 49.2567656, -16.6140078 ], [ 49.256768, -16.6129526 ], [ 49.2567013, -16.6120951 ], [ 49.2560865, -16.6109731 ], [ 49.2558137, -16.6103132 ], [ 49.2555417, -16.6092576 ], [ 49.255201799999988, -16.6079381 ], [ 49.2546526, -16.6081352 ], [ 49.2543104, -16.6078049 ], [ 49.2539682, -16.6074746 ], [ 49.2530073, -16.6077371 ], [ 49.2527343, -16.6071431 ], [ 49.2524624, -16.6060875 ], [ 49.2514357, -16.6051627 ], [ 49.250407100000011, -16.6050293 ], [ 49.2502021, -16.6046992 ], [ 49.2495162, -16.6046981 ], [ 49.2484187, -16.6047625 ], [ 49.2473901, -16.604629 ], [ 49.2462246, -16.6044294 ], [ 49.2449211, -16.6045593 ], [ 49.2439618, -16.6041621 ], [ 49.2414944, -16.603367 ], [ 49.2407406, -16.603102 ], [ 49.2395079, -16.6023087 ], [ 49.2381362, -16.6022406 ], [ 49.2369024, -16.601909 ], [ 49.235805, -16.6019072 ], [ 49.2347775, -16.6013781 ], [ 49.2335418, -16.6018378 ], [ 49.2328557, -16.6019026 ], [ 49.2314837, -16.6020324 ], [ 49.230249099999988, -16.6020304 ], [ 49.2291534, -16.6013032 ], [ 49.2285375, -16.6007086 ], [ 49.2279221, -16.5999163 ], [ 49.227031800000013, -16.5993872 ], [ 49.2262792, -16.5985946 ], [ 49.2253204, -16.5979995 ], [ 49.2247035, -16.5978666 ] ] ] } }
]
}
