{
"type": "FeatureCollection",
"name": "MDG-555790237-NODATE-secondary_zoning-001",
"crs": { "type": "name", "properties": { "name": "urn:ogc:def:crs:OGC:1.3:CRS84" } },
"features": [
{ "type": "Feature", "properties": { }, "geometry": { "type": "MultiPolygon", "coordinates": [ [ [ [ 48.6245923, -17.5773954 ], [ 48.6242451, -17.5775363 ], [ 48.6243329, -17.5775682 ], [ 48.6244238, -17.5776577 ], [ 48.6244885, -17.577776 ], [ 48.624524, -17.5778922 ], [ 48.6245854, -17.5780317 ], [ 48.624673, -17.578169 ], [ 48.6247877, -17.5782791 ], [ 48.6247076, -17.5783881 ], [ 48.6245707, -17.5784688 ], [ 48.6244619, -17.5785499 ], [ 48.6243821, -17.5786586 ], [ 48.6243304, -17.5787675 ], [ 48.6242787, -17.5788763 ], [ 48.6242304, -17.5790666 ], [ 48.6241558, -17.5792576 ], [ 48.6241067, -17.5793676 ], [ 48.624113, -17.5795296 ], [ 48.6241172, -17.5796374 ], [ 48.6241236, -17.5798248 ], [ 48.6241269, -17.5799574 ], [ 48.624131600000013, -17.5801686 ], [ 48.6241333, -17.5802478 ], [ 48.6241351, -17.5803268 ], [ 48.6241637, -17.5804573 ], [ 48.6241923, -17.5805877 ], [ 48.6242742, -17.5806651 ], [ 48.6243821, -17.5807158 ], [ 48.6245174, -17.5807923 ], [ 48.6245989, -17.5808695 ], [ 48.6246276, -17.5809741 ], [ 48.6246297, -17.5810792 ], [ 48.6246333, -17.5812628 ], [ 48.6246343, -17.5813152 ], [ 48.6246364, -17.58142 ], [ 48.6246408, -17.5816294 ], [ 48.624644, -17.5817862 ], [ 48.6246466, -17.5819166 ], [ 48.624623, -17.5820991 ], [ 48.6246239, -17.5821511 ], [ 48.6245476, -17.5823598 ], [ 48.6244684, -17.5823865 ], [ 48.6243647, -17.5824913 ], [ 48.6242343, -17.5825446 ], [ 48.624104300000013, -17.5826234 ], [ 48.6239994, -17.5826501 ], [ 48.6238188, -17.5827807 ], [ 48.6237431, -17.5827818 ], [ 48.623593, -17.5828608 ], [ 48.623391100000013, -17.5829142 ], [ 48.6232394, -17.5829922 ], [ 48.6231896, -17.5830947 ], [ 48.6231909, -17.5832476 ], [ 48.6231915, -17.5833241 ], [ 48.6231671, -17.5834261 ], [ 48.6230407, -17.5834267 ], [ 48.6229405, -17.5835033 ], [ 48.6228908, -17.5835797 ], [ 48.6227908, -17.583656 ], [ 48.6226907, -17.5837069 ], [ 48.6225655, -17.5837324 ], [ 48.6224923, -17.5838083 ], [ 48.6225492, -17.5839595 ], [ 48.6226026, -17.5840603 ], [ 48.6227064, -17.5841107 ], [ 48.6228882, -17.5841104 ], [ 48.6229891, -17.5841106 ], [ 48.6231148, -17.584111 ], [ 48.6232409, -17.5841114 ], [ 48.6233926, -17.5841118 ], [ 48.6235717, -17.5841121 ], [ 48.6236988, -17.5840615 ], [ 48.6237452, -17.58396 ], [ 48.6237917, -17.5838582 ], [ 48.623866, -17.5837816 ], [ 48.6240756, -17.5837812 ], [ 48.6241294, -17.5838066 ], [ 48.6242875, -17.5838319 ], [ 48.6244432, -17.5838061 ], [ 48.624572600000015, -17.5837546 ], [ 48.6246505, -17.583703 ], [ 48.6248066, -17.5835996 ], [ 48.6249123, -17.5835735 ], [ 48.6250465, -17.5836505 ], [ 48.6251272, -17.5837019 ], [ 48.625156, -17.5838308 ], [ 48.6251848, -17.5839337 ], [ 48.6252679, -17.584088 ], [ 48.6252966, -17.5841908 ], [ 48.625326, -17.5842933 ], [ 48.62533, -17.5844211 ], [ 48.6253344, -17.5846 ], [ 48.6253351, -17.584677 ], [ 48.6252837, -17.5847534 ], [ 48.6251803, -17.5848034 ], [ 48.6250771, -17.5848534 ], [ 48.6249746, -17.5849543 ], [ 48.6249756, -17.5850564 ], [ 48.6249766, -17.5851585 ], [ 48.6249257, -17.5852342 ], [ 48.6247202, -17.5852562 ], [ 48.6245411, -17.5852531 ], [ 48.624465, -17.5853026 ], [ 48.6244663, -17.5854293 ], [ 48.6244673, -17.5855307 ], [ 48.6244689, -17.5856827 ], [ 48.6245204, -17.5857345 ], [ 48.624648699999987, -17.5857881 ], [ 48.6247284, -17.5859413 ], [ 48.6248584, -17.58602 ], [ 48.6249373, -17.5860463 ], [ 48.6250447, -17.5861479 ], [ 48.6250732, -17.5862488 ], [ 48.6250223, -17.5863236 ], [ 48.6248144, -17.5863452 ], [ 48.6247132, -17.5863923 ], [ 48.6246909, -17.5865162 ], [ 48.6246937, -17.5866157 ], [ 48.6247224, -17.5867156 ], [ 48.6247264, -17.5868137 ], [ 48.6247316, -17.5869106 ], [ 48.6247632, -17.5870071 ], [ 48.624871, -17.5870556 ], [ 48.6250289, -17.587056 ], [ 48.6250779, -17.5869839 ], [ 48.6251259, -17.5868874 ], [ 48.62525320000001, -17.586791 ], [ 48.6252762, -17.5867182 ], [ 48.6253245, -17.5866211 ], [ 48.6253996, -17.5865237 ], [ 48.6255582, -17.5864993 ], [ 48.6256369, -17.5864494 ], [ 48.6256876, -17.5863497 ], [ 48.625790599999988, -17.5861998 ], [ 48.6257879, -17.5860999 ], [ 48.625812, -17.5859997 ], [ 48.6258631, -17.5858992 ], [ 48.6260229, -17.5858485 ], [ 48.6262109, -17.5858479 ], [ 48.6262372, -17.5858227 ], [ 48.626262, -17.5857218 ], [ 48.6262588, -17.5855704 ], [ 48.6263381, -17.5854943 ], [ 48.626420399999986, -17.5855698 ], [ 48.6264771, -17.5857211 ], [ 48.6264791, -17.5858219 ], [ 48.6265085, -17.5859473 ], [ 48.6265369, -17.5860224 ], [ 48.6266733, -17.5860957 ], [ 48.6268092, -17.5861693 ], [ 48.6268895, -17.5861947 ], [ 48.6269979, -17.5862692 ], [ 48.6270278, -17.5864426 ], [ 48.6270554, -17.5864919 ], [ 48.627058, -17.5866401 ], [ 48.6270869, -17.5867631 ], [ 48.6271411, -17.5868118 ], [ 48.6272227, -17.5869093 ], [ 48.6273302, -17.5870596 ], [ 48.6273318, -17.5872083 ], [ 48.6272269, -17.5872299 ], [ 48.6271215, -17.5872284 ], [ 48.6269899, -17.5873028 ], [ 48.626992099999988, -17.5874244 ], [ 48.6269939, -17.5875216 ], [ 48.6270226, -17.5876424 ], [ 48.6270503, -17.5877661 ], [ 48.6270773, -17.5878405 ], [ 48.6270788, -17.587963 ], [ 48.6271328, -17.5881117 ], [ 48.62716, -17.5882105 ], [ 48.6271612, -17.5883081 ], [ 48.6271626, -17.5884305 ], [ 48.6271894, -17.5885048 ], [ 48.6272686, -17.5885805 ], [ 48.6273218, -17.58868 ], [ 48.6272708, -17.5888007 ], [ 48.6272717, -17.5888984 ], [ 48.627351, -17.5889985 ], [ 48.6274301, -17.5890742 ], [ 48.6275871, -17.5891043 ], [ 48.6277715, -17.5891027 ], [ 48.6278508, -17.5891246 ], [ 48.6279567, -17.5891946 ], [ 48.6280108, -17.5893857 ], [ 48.628064, -17.5894793 ], [ 48.628117, -17.5895491 ], [ 48.628953, -17.5893091 ], [ 48.6288747, -17.5891687 ], [ 48.6288747, -17.5890263 ], [ 48.6288744, -17.588905 ], [ 48.6288218, -17.5887851 ], [ 48.6287429, -17.5886905 ], [ 48.6286639, -17.5885958 ], [ 48.6285849, -17.5885494 ], [ 48.6284792, -17.5884551 ], [ 48.6284264, -17.5884321 ], [ 48.6284259, -17.5883106 ], [ 48.6284253, -17.5881889 ], [ 48.6284246, -17.5880181 ], [ 48.6284243, -17.5879448 ], [ 48.6284237, -17.5878225 ], [ 48.6284498, -17.5877239 ], [ 48.6285558, -17.5877706 ], [ 48.628609, -17.5878673 ], [ 48.6286358, -17.5879644 ], [ 48.6287678, -17.5880346 ], [ 48.6288733, -17.5880566 ], [ 48.6289785, -17.5880541 ], [ 48.62911, -17.5880754 ], [ 48.6292413, -17.588121 ], [ 48.629346, -17.5882156 ], [ 48.6293982, -17.5882871 ], [ 48.6295288, -17.5882834 ], [ 48.6297112, -17.588277 ], [ 48.6298152, -17.588249 ], [ 48.6297895, -17.5881525 ], [ 48.62979, -17.5880061 ], [ 48.6297903, -17.5879084 ], [ 48.6297907, -17.5877861 ], [ 48.629817, -17.5877118 ], [ 48.6298954, -17.5876359 ], [ 48.6300512, -17.5876304 ], [ 48.6303353, -17.5876187 ], [ 48.630284, -17.5875966 ], [ 48.6302066, -17.587476 ], [ 48.6299994, -17.587459 ], [ 48.6298955, -17.5874133 ], [ 48.6297654, -17.5874181 ], [ 48.6296611, -17.587422 ], [ 48.6294516, -17.5874282 ], [ 48.6293993, -17.5873312 ], [ 48.6293468, -17.587234 ], [ 48.6292939, -17.5870362 ], [ 48.6292676, -17.5870121 ], [ 48.6291884, -17.5869147 ], [ 48.6291092, -17.5868421 ], [ 48.6290298, -17.5867694 ], [ 48.6289238, -17.5866974 ], [ 48.6288176, -17.5866253 ], [ 48.6286579, -17.5865293 ], [ 48.6284709, -17.5864086 ], [ 48.6284168, -17.5862592 ], [ 48.6283895, -17.5861341 ], [ 48.6283355, -17.5860347 ], [ 48.6282546, -17.585935 ], [ 48.6282006, -17.5858597 ], [ 48.628119500000011, -17.585759 ], [ 48.6280918, -17.5856068 ], [ 48.6280108, -17.5855314 ], [ 48.6279031, -17.585507 ], [ 48.627768, -17.5854319 ], [ 48.6278219, -17.5854314 ], [ 48.6279297, -17.5854558 ], [ 48.6280375, -17.5854795 ], [ 48.628172199999987, -17.5855283 ], [ 48.6283066, -17.585577 ], [ 48.6284138, -17.585575 ], [ 48.6285476, -17.5855724 ], [ 48.6286544, -17.5855704 ], [ 48.6287877, -17.5855678 ], [ 48.6289472, -17.5855642 ], [ 48.6291326, -17.5855597 ], [ 48.629291, -17.5855558 ], [ 48.6293437, -17.5855546 ], [ 48.6295543, -17.5855501 ], [ 48.629633, -17.5855484 ], [ 48.6297902, -17.5855449 ], [ 48.629946, -17.5855401 ], [ 48.6300758, -17.5854868 ], [ 48.630233, -17.5854348 ], [ 48.6303374, -17.5854333 ], [ 48.6304163, -17.5853827 ], [ 48.6305205, -17.5853812 ], [ 48.6306506, -17.5853793 ], [ 48.6308065, -17.585377 ], [ 48.630782599999982, -17.585254 ], [ 48.630627299999986, -17.5852067 ], [ 48.6306017, -17.5851823 ], [ 48.6303671, -17.5851608 ], [ 48.6301316, -17.5851639 ], [ 48.6300529, -17.5851399 ], [ 48.6298429, -17.5851428 ], [ 48.6298416, -17.5850408 ], [ 48.6298137, -17.5849388 ], [ 48.629629, -17.5849403 ], [ 48.6295764, -17.5849409 ], [ 48.6294449, -17.5849429 ], [ 48.6293919, -17.584918 ], [ 48.6293111, -17.5847909 ], [ 48.6292317, -17.5847663 ], [ 48.6291517, -17.5846906 ], [ 48.6290975, -17.5845634 ], [ 48.629096, -17.5844359 ], [ 48.6290948, -17.5843341 ], [ 48.6291195, -17.584207 ], [ 48.6291183, -17.5841057 ], [ 48.6292213, -17.5839537 ], [ 48.629246, -17.5838278 ], [ 48.6292192, -17.5837778 ], [ 48.6290621, -17.5837536 ], [ 48.6288791, -17.5837798 ], [ 48.6288008, -17.5838056 ], [ 48.628696, -17.5838316 ], [ 48.6285386, -17.5839338 ], [ 48.6284598, -17.5840105 ], [ 48.6285397, -17.5841364 ], [ 48.6285934, -17.5842629 ], [ 48.628594, -17.5843649 ], [ 48.6286215, -17.584518 ], [ 48.628675400000013, -17.5846455 ], [ 48.6286765, -17.5847997 ], [ 48.6285708, -17.5849043 ], [ 48.6284378, -17.584958 ], [ 48.6283576, -17.5849592 ], [ 48.6282508, -17.5850127 ], [ 48.6281168, -17.5850927 ], [ 48.6279826, -17.5851983 ], [ 48.6278748, -17.5852001 ], [ 48.6277668, -17.5852018 ], [ 48.6276048, -17.5852039 ], [ 48.6275506, -17.585179 ], [ 48.6274149, -17.5851039 ], [ 48.6273334, -17.5850535 ], [ 48.627279, -17.5850027 ], [ 48.6271973, -17.5849007 ], [ 48.6271967, -17.5847722 ], [ 48.6271963, -17.5846693 ], [ 48.6271146, -17.5845929 ], [ 48.6270057, -17.5845167 ], [ 48.6268698, -17.5844405 ], [ 48.626788300000015, -17.5843636 ], [ 48.6267068, -17.5842611 ], [ 48.6266238, -17.584159 ], [ 48.6265409, -17.5840826 ], [ 48.6264575, -17.5839802 ], [ 48.6263462, -17.5838521 ], [ 48.6262909, -17.5838267 ], [ 48.6262345, -17.583672 ], [ 48.6262333, -17.5835426 ], [ 48.6262324, -17.5834391 ], [ 48.6261766, -17.583284 ], [ 48.62612080000001, -17.5831547 ], [ 48.6260926, -17.583077 ], [ 48.6260904, -17.5828694 ], [ 48.6261445, -17.5828173 ], [ 48.6262262, -17.5827911 ], [ 48.6263368, -17.5827396 ], [ 48.6263355, -17.5826098 ], [ 48.626334, -17.5824539 ], [ 48.626305499999987, -17.5824017 ], [ 48.6262485, -17.5822971 ], [ 48.6262472, -17.5821669 ], [ 48.6262451, -17.5819584 ], [ 48.6262449, -17.5819323 ], [ 48.6262433, -17.5817757 ], [ 48.6262423, -17.5816973 ], [ 48.6261855, -17.581592 ], [ 48.6261014, -17.5815127 ], [ 48.6259619, -17.581433 ], [ 48.625851199999985, -17.5814324 ], [ 48.6257129, -17.5814318 ], [ 48.6257097, -17.5812472 ], [ 48.6256802, -17.5811414 ], [ 48.6256506, -17.5810355 ], [ 48.6257334, -17.5809315 ], [ 48.6258164, -17.5808798 ], [ 48.6258992, -17.580776 ], [ 48.6260094, -17.5806724 ], [ 48.626064600000014, -17.5805947 ], [ 48.6261759, -17.5805188 ], [ 48.6262872, -17.5804692 ], [ 48.6263988, -17.5804981 ], [ 48.6264546, -17.5806288 ], [ 48.6265104, -17.5807337 ], [ 48.6266209, -17.5808386 ], [ 48.6267314, -17.580892 ], [ 48.6269245, -17.5808954 ], [ 48.627117, -17.5808989 ], [ 48.6271719, -17.5808998 ], [ 48.6273909, -17.5809037 ], [ 48.6275546, -17.5809066 ], [ 48.6276091, -17.5809076 ], [ 48.6277177, -17.5808327 ], [ 48.6279346, -17.5808367 ], [ 48.6281238, -17.5808402 ], [ 48.6281507, -17.5808407 ], [ 48.6282322, -17.580995 ], [ 48.6282324, -17.5810463 ], [ 48.628287, -17.5811541 ], [ 48.6284215, -17.5812634 ], [ 48.628502, -17.5813426 ], [ 48.6286887, -17.5813695 ], [ 48.6287688, -17.5814468 ], [ 48.6288223, -17.5815239 ], [ 48.628822600000014, -17.5816518 ], [ 48.6289025, -17.5817548 ], [ 48.628982, -17.5818066 ], [ 48.6290877, -17.5818844 ], [ 48.6290875, -17.581987 ], [ 48.6290873, -17.582115 ], [ 48.629087, -17.5822681 ], [ 48.6291656, -17.5823703 ], [ 48.6292707, -17.5823453 ], [ 48.6293495, -17.5822948 ], [ 48.6294024, -17.5821933 ], [ 48.629403, -17.5820658 ], [ 48.6293773, -17.5819379 ], [ 48.6293251, -17.581835 ], [ 48.6292464, -17.5817316 ], [ 48.6292464, -17.5816551 ], [ 48.6292462, -17.5814765 ], [ 48.629299, -17.5814516 ], [ 48.6293255, -17.5815794 ], [ 48.6294045, -17.5816056 ], [ 48.629536099999989, -17.5815815 ], [ 48.6295886, -17.5814802 ], [ 48.6295624, -17.5813525 ], [ 48.629536, -17.5812757 ], [ 48.6294829, -17.5811485 ], [ 48.629298, -17.5810697 ], [ 48.6292453, -17.5810686 ], [ 48.6291133, -17.5810658 ], [ 48.6290073, -17.5810898 ], [ 48.62882110000001, -17.5811138 ], [ 48.6287414, -17.5811119 ], [ 48.6286615, -17.5811099 ], [ 48.6285812, -17.5810029 ], [ 48.6285272, -17.5809 ], [ 48.6285, -17.5807978 ], [ 48.6284727, -17.5806955 ], [ 48.6284187, -17.5805925 ], [ 48.6283646, -17.5804894 ], [ 48.6282835, -17.5803856 ], [ 48.6281758, -17.5803326 ], [ 48.628041, -17.5803297 ], [ 48.627852, -17.580351 ], [ 48.627743500000015, -17.5802979 ], [ 48.6276078, -17.5802441 ], [ 48.6275262, -17.5802168 ], [ 48.6274445, -17.5801641 ], [ 48.6273628, -17.5800859 ], [ 48.6273082, -17.5799828 ], [ 48.6272809, -17.5798804 ], [ 48.627199, -17.579802 ], [ 48.6270893, -17.5797982 ], [ 48.6270071, -17.5798722 ], [ 48.6269798, -17.5799741 ], [ 48.6268419, -17.5799949 ], [ 48.626731299999982, -17.5799912 ], [ 48.6266206, -17.5799621 ], [ 48.626509600000013, -17.5799071 ], [ 48.6263983, -17.5798518 ], [ 48.6263425, -17.5797208 ], [ 48.6263425, -17.5796433 ], [ 48.6263703, -17.5795411 ], [ 48.6263702, -17.5794379 ], [ 48.6262587, -17.5793821 ], [ 48.6262308, -17.5792264 ], [ 48.6262586, -17.5791499 ], [ 48.6262864, -17.5790479 ], [ 48.6263142, -17.5789717 ], [ 48.6264809, -17.5789274 ], [ 48.6265641, -17.5789053 ], [ 48.6266747, -17.5788844 ], [ 48.6268126, -17.5788391 ], [ 48.6268951, -17.578817 ], [ 48.6270322, -17.5787972 ], [ 48.6271691, -17.5788029 ], [ 48.6273328, -17.5788098 ], [ 48.6274687, -17.5787398 ], [ 48.6274958, -17.5786902 ], [ 48.6275769, -17.5785924 ], [ 48.6276308, -17.5785189 ], [ 48.627766, -17.5785007 ], [ 48.6278743, -17.578608 ], [ 48.6279284, -17.5786869 ], [ 48.6279824, -17.5787402 ], [ 48.6280898, -17.5787689 ], [ 48.6282236, -17.5787735 ], [ 48.6284105, -17.5787805 ], [ 48.6284372, -17.5787816 ], [ 48.6286498, -17.5787901 ], [ 48.6287559, -17.5787943 ], [ 48.6288352, -17.5787975 ], [ 48.6289673, -17.5788025 ], [ 48.629230500000013, -17.5788124 ], [ 48.629283, -17.5788143 ], [ 48.6294656, -17.5787475 ], [ 48.629517400000012, -17.5787002 ], [ 48.6295954, -17.5786789 ], [ 48.6298028, -17.5786387 ], [ 48.6300354, -17.5786493 ], [ 48.6301895, -17.5786574 ], [ 48.6302663, -17.5786615 ], [ 48.630368, -17.5785927 ], [ 48.6305965, -17.578531 ], [ 48.6310764, -17.5785066 ], [ 48.6310758, -17.5784579 ], [ 48.6310741, -17.5783118 ], [ 48.6310736, -17.5781137 ], [ 48.6310483, -17.5780628 ], [ 48.631023, -17.5779867 ], [ 48.6308719, -17.5778529 ], [ 48.63077, -17.5777987 ], [ 48.6306925, -17.5777227 ], [ 48.630538200000011, -17.5776437 ], [ 48.6304611, -17.5776163 ], [ 48.6303581, -17.577588 ], [ 48.6302036, -17.577583 ], [ 48.6300756, -17.5776508 ], [ 48.6299216, -17.5777178 ], [ 48.6298182, -17.5777386 ], [ 48.6297144, -17.5777354 ], [ 48.6296104, -17.5777323 ], [ 48.6295063, -17.5777291 ], [ 48.6293505, -17.5777724 ], [ 48.6292991, -17.577843 ], [ 48.6292484, -17.5779602 ], [ 48.6291715, -17.5780758 ], [ 48.6290934, -17.5781201 ], [ 48.6289892, -17.5781874 ], [ 48.628937, -17.5782329 ], [ 48.628805400000012, -17.5782511 ], [ 48.6287267, -17.5783209 ], [ 48.6286212, -17.5783907 ], [ 48.6284353, -17.5783826 ], [ 48.6283286, -17.5783281 ], [ 48.628248299999981, -17.5782497 ], [ 48.628114600000011, -17.5782423 ], [ 48.6279806, -17.578235 ], [ 48.6279001, -17.5783049 ], [ 48.6276846, -17.57842 ], [ 48.6275764, -17.5784651 ], [ 48.6273864, -17.5784815 ], [ 48.6272503, -17.5785008 ], [ 48.6271686, -17.578548 ], [ 48.6271139, -17.5785711 ], [ 48.6269496, -17.5785638 ], [ 48.6268122, -17.5785575 ], [ 48.626701900000015, -17.5785524 ], [ 48.6265637, -17.5785715 ], [ 48.6264529, -17.5785663 ], [ 48.6262861, -17.5785586 ], [ 48.6261196, -17.5785268 ], [ 48.6259792, -17.578519 ], [ 48.6259229, -17.5785159 ], [ 48.6258099, -17.5784835 ], [ 48.6256966, -17.578451 ], [ 48.625555, -17.5784435 ], [ 48.6253854, -17.578358 ], [ 48.625299800000015, -17.5783272 ], [ 48.6251852, -17.5782422 ], [ 48.6250994, -17.5781592 ], [ 48.6249535, -17.578069 ], [ 48.6248369, -17.5780078 ], [ 48.6247508, -17.5779249 ], [ 48.6246913, -17.5777877 ], [ 48.6246852, -17.5776733 ], [ 48.6246811, -17.5775879 ], [ 48.624651, -17.5774791 ], [ 48.6245923, -17.5773954 ] ] ], [ [ [ 48.6269698, -17.5755326 ], [ 48.626880899999989, -17.5755749 ], [ 48.6270793, -17.5754933 ], [ 48.627052, -17.5754909 ], [ 48.6269698, -17.5755326 ] ] ], [ [ [ 48.624061600000012, -17.560082 ], [ 48.6239501, -17.5599438 ], [ 48.6238541, -17.5599149 ], [ 48.6238273, -17.5598804 ], [ 48.6237752, -17.5598866 ], [ 48.6237408, -17.5599103 ], [ 48.6237401, -17.5598768 ], [ 48.6237313, -17.5598765 ], [ 48.6236278, -17.5599392 ], [ 48.6236375, -17.5599814 ], [ 48.6236644, -17.5600075 ], [ 48.62364, -17.56009 ], [ 48.6236332, -17.5601731 ], [ 48.6236528, -17.5602652 ], [ 48.623419, -17.5606736 ], [ 48.6235261, -17.5606623 ], [ 48.6235611, -17.5606874 ], [ 48.6235644, -17.5607711 ], [ 48.6235597, -17.5608628 ], [ 48.6235643, -17.5609789 ], [ 48.6236176, -17.5610849 ], [ 48.6236452, -17.5611585 ], [ 48.6236665, -17.5612497 ], [ 48.6237038, -17.5613318 ], [ 48.623765, -17.561405 ], [ 48.623866, -17.5614608 ], [ 48.623931899999988, -17.5614995 ], [ 48.6240949, -17.5615116 ], [ 48.6242515, -17.561517 ], [ 48.6242857, -17.5615493 ], [ 48.6242861, -17.5615655 ], [ 48.6243194, -17.5615653 ], [ 48.6244033, -17.5615891 ], [ 48.6247777, -17.5617829 ], [ 48.6252424, -17.5625322 ], [ 48.6251101, -17.5627953 ], [ 48.6250195, -17.5629698 ], [ 48.6249181, -17.5638486 ], [ 48.6228183, -17.5643599 ], [ 48.6227965, -17.5643809 ], [ 48.6231212, -17.5653984 ], [ 48.6245574, -17.5645152 ], [ 48.6246277, -17.564708 ], [ 48.6248315, -17.5646255 ], [ 48.6250144, -17.5646478 ], [ 48.6250378, -17.5647336 ], [ 48.6251518, -17.5646906 ], [ 48.6253343, -17.5645614 ], [ 48.6255178, -17.5646042 ], [ 48.6260488, -17.5671323 ], [ 48.6254146, -17.5676274 ], [ 48.6261595, -17.5692204 ], [ 48.6266012, -17.5713234 ], [ 48.6272423, -17.5718526 ], [ 48.6281247, -17.5725372 ], [ 48.6332845, -17.5769237 ], [ 48.6358998, -17.5758469 ], [ 48.6320037, -17.571266 ], [ 48.628224499999988, -17.5673569 ], [ 48.6282656, -17.5667929 ], [ 48.6278225, -17.5664669 ], [ 48.6287793, -17.5661158 ], [ 48.6277511, -17.5657088 ], [ 48.6279478, -17.5653973 ], [ 48.6299104, -17.564735 ], [ 48.6294262, -17.563717 ], [ 48.6256861, -17.5628801 ], [ 48.625627599999987, -17.5625225 ], [ 48.6254932, -17.5623872 ], [ 48.6254931, -17.5623633 ], [ 48.6254928, -17.5622993 ], [ 48.6254421, -17.5622197 ], [ 48.6254417, -17.5621398 ], [ 48.6255086, -17.5620834 ], [ 48.6255921, -17.5620512 ], [ 48.625675, -17.5620357 ], [ 48.6257493, -17.5620044 ], [ 48.6257984, -17.5619332 ], [ 48.6257733, -17.5618454 ], [ 48.6257234, -17.5617891 ], [ 48.6256403, -17.5617404 ], [ 48.6255732, -17.5616522 ], [ 48.625514, -17.561557 ], [ 48.625455, -17.5614938 ], [ 48.6254711, -17.5614067 ], [ 48.6254206, -17.5613435 ], [ 48.6253784, -17.561264 ], [ 48.6253279, -17.5611749 ], [ 48.625294, -17.561087 ], [ 48.6252518, -17.5610244 ], [ 48.6252429, -17.5609317 ], [ 48.6252591, -17.5608398 ], [ 48.6252088, -17.5607851 ], [ 48.6251169, -17.5607583 ], [ 48.6250665, -17.5607096 ], [ 48.6250327, -17.5606303 ], [ 48.6250157, -17.5605361 ], [ 48.6250155, -17.5604584 ], [ 48.6249819, -17.5603734 ], [ 48.6249484, -17.5603032 ], [ 48.6248811, -17.560245 ], [ 48.6247803, -17.5602102 ], [ 48.6246876, -17.5601912 ], [ 48.6245776, -17.5601714 ], [ 48.6245012, -17.5601606 ], [ 48.6243375, -17.5601336 ], [ 48.6242241, -17.5601169 ], [ 48.6241041, -17.5600901 ], [ 48.624061600000012, -17.560082 ] ] ] ] } }
]
}
