{
"type": "FeatureCollection",
"name": "MDG-2306-NODATE-secondary_zoning-001",
"crs": { "type": "name", "properties": { "name": "urn:ogc:def:crs:OGC:1.3:CRS84" } },
"features": [
{ "type": "Feature", "properties": { }, "geometry": { "type": "Polygon", "coordinates": [ [ [ 48.872022699999988, -13.7497485 ], [ 48.867492899999988, -13.746942 ], [ 48.8629428, -13.7423773 ], [ 48.8608374, -13.7353677 ], [ 48.8512528, -13.7425075 ], [ 48.8315914, -13.7532749 ], [ 48.8258474, -13.7621296 ], [ 48.8108191, -13.7653717 ], [ 48.806149, -13.7699806 ], [ 48.7954888, -13.7654712 ], [ 48.7941487, -13.7649043 ], [ 48.7939309, -13.7648599 ], [ 48.7936812, -13.7650494 ], [ 48.7934083, -13.7653167 ], [ 48.7933629, -13.7653538 ], [ 48.7930391, -13.7657097 ], [ 48.7928996, -13.7658694 ], [ 48.7925328, -13.7661692 ], [ 48.7922079, -13.7664808 ], [ 48.7919319, -13.766661 ], [ 48.7916, -13.766893 ], [ 48.7913101, -13.7670935 ], [ 48.7911186, -13.7672089 ], [ 48.7908782, -13.7673657 ], [ 48.7901941, -13.7675881 ], [ 48.789894499999988, -13.7675784 ], [ 48.789395, -13.7676509 ], [ 48.7892959, -13.7676457 ], [ 48.7889883, -13.7678737 ], [ 48.788737, -13.7680016 ], [ 48.7886351, -13.7680913 ], [ 48.7882786, -13.7683154 ], [ 48.7880721, -13.7684555 ], [ 48.7877119, -13.7686879 ], [ 48.7874591, -13.768774 ], [ 48.7873574, -13.7688186 ], [ 48.7870036, -13.7689024 ], [ 48.7867444, -13.7690482 ], [ 48.7861916, -13.7690307 ], [ 48.7860909, -13.7690275 ], [ 48.7857819, -13.7691717 ], [ 48.7852152, -13.7694612 ], [ 48.7851649, -13.7694596 ], [ 48.7846992, -13.7696657 ], [ 48.7844432, -13.7697629 ], [ 48.7841337, -13.7700052 ], [ 48.784082, -13.7700534 ], [ 48.7838241, -13.7702945 ], [ 48.7836697, -13.7704389 ], [ 48.7835648, -13.7706766 ], [ 48.7835127, -13.7707717 ], [ 48.7835597, -13.7710078 ], [ 48.7835987, -13.7712296 ], [ 48.7836424, -13.7713432 ], [ 48.7837238, -13.7716774 ], [ 48.7837029, -13.7720598 ], [ 48.783829499999989, -13.7723978 ], [ 48.7837647, -13.7727101 ], [ 48.783971799999989, -13.7734476 ], [ 48.7840348, -13.7737182 ], [ 48.7842583, -13.7742161 ], [ 48.7845195, -13.7744586 ], [ 48.7846864, -13.7747073 ], [ 48.7848984, -13.7749049 ], [ 48.7852616, -13.775178 ], [ 48.78547, -13.7753725 ], [ 48.7856737, -13.7755105 ], [ 48.7858274, -13.7756411 ], [ 48.7860874, -13.7759046 ], [ 48.7862445, -13.7760962 ], [ 48.7863554, -13.7763348 ], [ 48.7866079, -13.7766732 ], [ 48.7868108, -13.7770475 ], [ 48.7873129, -13.7775635 ], [ 48.7876647, -13.7780479 ], [ 48.7879515, -13.7783335 ], [ 48.7882842, -13.7786347 ], [ 48.788791900000014, -13.7789812 ], [ 48.7892003, -13.7792077 ], [ 48.7896048, -13.7794684 ], [ 48.7900927, -13.7795858 ], [ 48.790490700000014, -13.7798291 ], [ 48.7906682, -13.7799902 ], [ 48.7908903, -13.7804852 ], [ 48.7911095, -13.7809195 ], [ 48.7913266, -13.7813515 ], [ 48.7914989, -13.781674 ], [ 48.791713, -13.7819551 ], [ 48.7918408, -13.7821003 ], [ 48.7920527, -13.7822995 ], [ 48.7923474, -13.7826316 ], [ 48.792557, -13.7827791 ], [ 48.7928072, -13.7829725 ], [ 48.7931382, -13.783257 ], [ 48.7935073, -13.783585 ], [ 48.7939234, -13.783875 ], [ 48.7944684, -13.7841103 ], [ 48.7948936, -13.7842918 ], [ 48.7953648, -13.7845085 ], [ 48.7958014, -13.7847564 ], [ 48.7960456, -13.7848946 ], [ 48.7962152, -13.7850537 ], [ 48.7965953, -13.7852937 ], [ 48.7966358, -13.7852963 ], [ 48.7970962, -13.7855824 ], [ 48.7975561, -13.7858682 ], [ 48.7979328, -13.786112 ], [ 48.798399, -13.7863899 ], [ 48.7987011, -13.786745 ], [ 48.7989618, -13.7870604 ], [ 48.7991776, -13.7872984 ], [ 48.7992657, -13.7874165 ], [ 48.799519, -13.7876184 ], [ 48.7997976, -13.7877919 ], [ 48.8003501, -13.7880975 ], [ 48.8008377, -13.7884109 ], [ 48.8012484, -13.7886351 ], [ 48.801436599999988, -13.7888033 ], [ 48.8017737, -13.7891754 ], [ 48.8019834, -13.7895063 ], [ 48.8021394, -13.7897997 ], [ 48.802381900000015, -13.7901794 ], [ 48.8023764, -13.7902588 ], [ 48.8025767, -13.7907084 ], [ 48.8026899, -13.7909897 ], [ 48.8027001, -13.7913796 ], [ 48.8026695, -13.7917294 ], [ 48.8026491, -13.7919616 ], [ 48.8026424, -13.7920388 ], [ 48.802612, -13.792385 ], [ 48.8025886, -13.792653 ], [ 48.8025371, -13.7928812 ], [ 48.8025197, -13.7931093 ], [ 48.8025116, -13.7934119 ], [ 48.8025139, -13.7939407 ], [ 48.8025489, -13.7942827 ], [ 48.8025723, -13.7945119 ], [ 48.8028584, -13.7951129 ], [ 48.802854, -13.7951454 ], [ 48.802832200000012, -13.7953081 ], [ 48.8028058, -13.795505 ], [ 48.8029448, -13.7957124 ], [ 48.8030124, -13.7958523 ], [ 48.803168799999987, -13.7959652 ], [ 48.803287, -13.7961568 ], [ 48.8034052, -13.7963485 ], [ 48.8033923, -13.7964874 ], [ 48.8033267, -13.7967676 ], [ 48.803231399999987, -13.7969451 ], [ 48.803134, -13.797161 ], [ 48.803129, -13.797273 ], [ 48.8030768, -13.7974567 ], [ 48.8030486, -13.7978189 ], [ 48.8030611, -13.7980243 ], [ 48.8030571, -13.7982157 ], [ 48.80319, -13.798537 ], [ 48.8034058, -13.7988983 ], [ 48.8035312, -13.7992122 ], [ 48.803660299999983, -13.7994122 ], [ 48.803788900000015, -13.7996114 ], [ 48.8039153, -13.7998475 ], [ 48.8040394, -13.8000816 ], [ 48.8040778, -13.8003118 ], [ 48.8041171, -13.8005041 ], [ 48.8041539, -13.8008108 ], [ 48.8041475, -13.8011549 ], [ 48.804141699999988, -13.8015388 ], [ 48.804223899999982, -13.8018098 ], [ 48.8043944, -13.8020439 ], [ 48.8045164, -13.8023139 ], [ 48.8046742, -13.8025447 ], [ 48.8047467, -13.8027365 ], [ 48.8049024, -13.8029676 ], [ 48.8050198, -13.8031605 ], [ 48.8052161, -13.8033536 ], [ 48.8053297, -13.8035473 ], [ 48.8054794, -13.8037811 ], [ 48.8056324, -13.8039378 ], [ 48.8056695, -13.8040163 ], [ 48.8058578, -13.8043318 ], [ 48.8060478, -13.8046104 ], [ 48.8061597, -13.8048508 ], [ 48.8061875, -13.8052925 ], [ 48.8061797, -13.8056148 ], [ 48.8061784, -13.8056951 ], [ 48.8061705, -13.8061783 ], [ 48.8061997, -13.8065893 ], [ 48.8062328, -13.8068386 ], [ 48.8063046, -13.8071737 ], [ 48.8063418, -13.8073002 ], [ 48.8064173, -13.807513 ], [ 48.806454099999982, -13.8076822 ], [ 48.8064921, -13.8079308 ], [ 48.8064894, -13.8081785 ], [ 48.806488, -13.808424 ], [ 48.806488, -13.8086668 ], [ 48.806488, -13.8087882 ], [ 48.806487, -13.8092354 ], [ 48.8064864, -13.8094392 ], [ 48.8064859, -13.809643 ], [ 48.8064833, -13.8098116 ], [ 48.8064762, -13.8101956 ], [ 48.8065938, -13.8105855 ], [ 48.8067127, -13.8109348 ], [ 48.806836, -13.8111502 ], [ 48.8069596, -13.8113661 ], [ 48.8070843, -13.8115795 ], [ 48.8072501, -13.8118002 ], [ 48.807458, -13.8120681 ], [ 48.8074998, -13.8121129 ], [ 48.8076671, -13.8123352 ], [ 48.8077935, -13.8124677 ], [ 48.8079618, -13.8127328 ], [ 48.8080881, -13.8129977 ], [ 48.8081294, -13.8132617 ], [ 48.808214, -13.813481 ], [ 48.8082138, -13.8135245 ], [ 48.8083842, -13.8138311 ], [ 48.8083828, -13.8143113 ], [ 48.808382500000015, -13.8148842 ], [ 48.8082833, -13.8153088 ], [ 48.8082678, -13.8158087 ], [ 48.808341, -13.8162176 ], [ 48.8084167, -13.8165431 ], [ 48.8088293, -13.8170112 ], [ 48.8089947, -13.817088 ], [ 48.8094882, -13.8174012 ], [ 48.809819, -13.8175549 ], [ 48.8099817, -13.8177145 ], [ 48.810394, -13.8179479 ], [ 48.8108066, -13.8181812 ], [ 48.8111434, -13.818406 ], [ 48.8114706, -13.8187224 ], [ 48.8117051, -13.8191305 ], [ 48.8116994, -13.8193733 ], [ 48.8112818, -13.8198532 ], [ 48.8108627, -13.8204134 ], [ 48.8104434, -13.8208955 ], [ 48.8102723, -13.8209828 ], [ 48.8099286, -13.8214727 ], [ 48.8095945, -13.8218725 ], [ 48.809426, -13.8221914 ], [ 48.8094149, -13.8225179 ], [ 48.8094836, -13.8229243 ], [ 48.8096291, -13.8234914 ], [ 48.809939, -13.8240553 ], [ 48.8100214, -13.8240543 ], [ 48.8101689, -13.824538 ], [ 48.8101591, -13.8249372 ], [ 48.8100726, -13.8255648 ], [ 48.8099839, -13.8259608 ], [ 48.8098968, -13.8262772 ], [ 48.8096426, -13.8267532 ], [ 48.8095489, -13.8270753 ], [ 48.809450100000014, -13.8275566 ], [ 48.8094398, -13.8278757 ], [ 48.8095125, -13.8281926 ], [ 48.8096655, -13.8285869 ], [ 48.8099015, -13.8289016 ], [ 48.8102845, -13.8293814 ], [ 48.810594899999984, -13.8296992 ], [ 48.8107497, -13.8298581 ], [ 48.8107247, -13.8304144 ], [ 48.8106204, -13.8309684 ], [ 48.8105304, -13.8312049 ], [ 48.8105093, -13.8316784 ], [ 48.8105772, -13.8319925 ], [ 48.8108895, -13.8323806 ], [ 48.8111184, -13.8326932 ], [ 48.8115135, -13.833232 ], [ 48.8116651, -13.8335422 ], [ 48.8115684, -13.8341614 ], [ 48.811094900000015, -13.8345413 ], [ 48.8110145, -13.834618 ], [ 48.810527500000013, -13.8350033 ], [ 48.8102817, -13.8351585 ], [ 48.8096281, -13.8354695 ], [ 48.8094648, -13.8355472 ], [ 48.808895, -13.8357804 ], [ 48.808571, -13.8358585 ], [ 48.8083275, -13.8358601 ], [ 48.8077528, -13.8358666 ], [ 48.8072612, -13.8358722 ], [ 48.8066889, -13.8358788 ], [ 48.8064441, -13.8358815 ], [ 48.8058838, -13.8356556 ], [ 48.8056385, -13.8355831 ], [ 48.8050545, -13.8355978 ], [ 48.8046392, -13.8356082 ], [ 48.8038977, -13.8352487 ], [ 48.8033191, -13.835116 ], [ 48.8029088, -13.8348281 ], [ 48.8025068, -13.8346857 ], [ 48.8021857, -13.8345424 ], [ 48.8017848, -13.8343264 ], [ 48.801465, -13.8341837 ], [ 48.8013055, -13.8341122 ], [ 48.8009902, -13.8338169 ], [ 48.8005238, -13.8334416 ], [ 48.8002887, -13.8331442 ], [ 48.7999728, -13.8329254 ], [ 48.7995001, -13.8326344 ], [ 48.7990276, -13.8325683 ], [ 48.7981724, -13.8325653 ], [ 48.797470200000014, -13.8323444 ], [ 48.7970013, -13.8316047 ], [ 48.7964558, -13.8315323 ], [ 48.7961441, -13.8315343 ], [ 48.7958319, -13.8317621 ], [ 48.7954422, -13.8320654 ], [ 48.7952079, -13.8323714 ], [ 48.794896, -13.8329039 ], [ 48.794741, -13.8334963 ], [ 48.7945089, -13.8338611 ], [ 48.7941209, -13.8340813 ], [ 48.793810300000011, -13.8343734 ], [ 48.7935769, -13.8347376 ], [ 48.7934208, -13.8350286 ], [ 48.793341399999989, -13.8355353 ], [ 48.7932621, -13.8358986 ], [ 48.793262, -13.8360467 ], [ 48.7930264, -13.8363404 ], [ 48.7928686, -13.8367842 ], [ 48.7926317, -13.8372279 ], [ 48.7924735, -13.8374498 ], [ 48.7923929, -13.8381212 ], [ 48.7923916, -13.8386451 ], [ 48.7923913, -13.8387949 ], [ 48.792390700000013, -13.8393208 ], [ 48.7923903, -13.8398474 ], [ 48.7919957, -13.8406002 ], [ 48.7918385, -13.8409017 ], [ 48.7916824, -13.8415041 ], [ 48.7912896, -13.8420309 ], [ 48.791055299999982, -13.8423313 ], [ 48.7908997, -13.8425562 ], [ 48.7907429, -13.8427815 ], [ 48.7904269, -13.8430829 ], [ 48.7899528, -13.8434601 ], [ 48.7884668, -13.8452162 ], [ 48.7878351, -13.8455126 ], [ 48.7864729, -13.8448655 ], [ 48.7846078, -13.8446789 ], [ 48.7829164, -13.8448628 ], [ 48.7823342, -13.8466262 ], [ 48.7829888, -13.8475096 ], [ 48.7842631, -13.8478681 ], [ 48.785373199999981, -13.8486834 ], [ 48.7853435, -13.8498006 ], [ 48.7847065, -13.8504798 ], [ 48.7834018, -13.8503182 ], [ 48.7819206, -13.8503756 ], [ 48.779675, -13.8502345 ], [ 48.778651, -13.8495423 ], [ 48.7771674, -13.8493929 ], [ 48.7763993, -13.8488634 ], [ 48.7762206, -13.848038 ], [ 48.7759497, -13.8465516 ], [ 48.775432300000013, -13.8457299 ], [ 48.774373, -13.8456586 ], [ 48.7734483, -13.8462478 ], [ 48.7727025, -13.8474427 ], [ 48.7718472, -13.8488132 ], [ 48.770193499999984, -13.8504612 ], [ 48.7686252, -13.8503126 ], [ 48.7681652, -13.850814 ], [ 48.7670377, -13.8521229 ], [ 48.7664206, -13.8528393 ], [ 48.7698489, -13.8555793 ], [ 48.7726381, -13.8583971 ], [ 48.7753522, -13.8615236 ], [ 48.777120100000012, -13.8645834 ], [ 48.7799927, -13.8677851 ], [ 48.782383, -13.8701453 ], [ 48.7815569, -13.8746138 ], [ 48.7794087, -13.8796186 ], [ 48.7826653, -13.8872576 ], [ 48.782504700000011, -13.894698 ], [ 48.7826914, -13.9016634 ], [ 48.7790225, -13.9062808 ], [ 48.7768679, -13.9107471 ], [ 48.7752844, -13.9169575 ], [ 48.7706473, -13.9220765 ], [ 48.7557349, -13.9179421 ], [ 48.7515267, -13.9200685 ], [ 48.747413, -13.9393807 ], [ 48.7360625, -13.9498604 ], [ 48.7277188, -13.966717 ], [ 48.7394882, -13.9735865 ], [ 48.740187099999986, -13.9795455 ], [ 48.7409497, -13.9818004 ], [ 48.7409844, -13.9848861 ], [ 48.7397676, -13.9891167 ], [ 48.7380069, -13.9918101 ], [ 48.7384467, -13.9934513 ], [ 48.7564383, -13.9914068 ], [ 48.7661783, -14.0176163 ], [ 48.7662701, -14.0175651 ], [ 48.7661576, -14.0203882 ], [ 48.7651489, -14.0212514 ], [ 48.763285, -14.0236864 ], [ 48.7609572, -14.0237116 ], [ 48.7578112, -14.0251036 ], [ 48.7573378, -14.0253132 ], [ 48.7563418, -14.0273126 ], [ 48.7528405, -14.0264979 ], [ 48.7543499, -14.0313115 ], [ 48.7520445, -14.033325 ], [ 48.7494544, -14.0359098 ], [ 48.7455437, -14.0375143 ], [ 48.7436858, -14.0405173 ], [ 48.7420822, -14.0402504 ], [ 48.7416385, -14.0401425 ], [ 48.7386288, -14.0392626 ], [ 48.7368811, -14.0410064 ], [ 48.7395012, -14.0429065 ], [ 48.740656, -14.0439089 ], [ 48.7416642, -14.0440608 ], [ 48.7427041, -14.0437951 ], [ 48.744159, -14.0437795 ], [ 48.7451823, -14.0441947 ], [ 48.7454957, -14.0461801 ], [ 48.7461096, -14.0490146 ], [ 48.7471265, -14.0488616 ], [ 48.749006, -14.0482276 ], [ 48.749301, -14.048128 ], [ 48.7523437, -14.0469589 ], [ 48.7541041, -14.0482185 ], [ 48.7560133, -14.0497604 ], [ 48.7570623, -14.0524482 ], [ 48.7579626, -14.0548534 ], [ 48.7591282, -14.0549828 ], [ 48.760420100000012, -14.0534064 ], [ 48.7617328, -14.0536763 ], [ 48.762949899999988, -14.0583509 ], [ 48.7623904, -14.0603456 ], [ 48.762548800000012, -14.0614804 ], [ 48.7632699, -14.0609044 ], [ 48.7658745, -14.0595978 ], [ 48.7676222, -14.0597209 ], [ 48.7679358, -14.0617063 ], [ 48.7678064, -14.0631282 ], [ 48.768542, -14.0638305 ], [ 48.7700052, -14.0645249 ], [ 48.7716316, -14.0667802 ], [ 48.7733955, -14.0683236 ], [ 48.7735313, -14.0674699 ], [ 48.7748231, -14.0658933 ], [ 48.7758417, -14.0658822 ], [ 48.7790656, -14.0678359 ], [ 48.7806743, -14.0685287 ], [ 48.7821148, -14.0672346 ], [ 48.7829895, -14.0673672 ], [ 48.7850478, -14.0691914 ], [ 48.7865094, -14.0697437 ], [ 48.787088200000014, -14.0694533 ], [ 48.7911658, -14.069693 ], [ 48.7958287, -14.0702103 ], [ 48.7975829, -14.0709013 ], [ 48.7983366, -14.0731659 ], [ 48.7993764, -14.0750012 ], [ 48.8004064, -14.0759843 ], [ 48.801703, -14.0748337 ], [ 48.8025761, -14.0748241 ], [ 48.8050695, -14.0765014 ], [ 48.8059524, -14.077344 ], [ 48.8068595, -14.0784256 ], [ 48.8077231, -14.0794554 ], [ 48.8097833, -14.0814215 ], [ 48.8109589, -14.0824029 ], [ 48.8119775, -14.0823917 ], [ 48.814300900000013, -14.08194 ], [ 48.816191, -14.0817771 ], [ 48.8170773, -14.0829038 ], [ 48.8169449, -14.0840417 ], [ 48.8162518, -14.0870323 ], [ 48.8169925, -14.0881606 ], [ 48.8184527, -14.0885707 ], [ 48.820199, -14.0885514 ], [ 48.8213812, -14.0901009 ], [ 48.823430099999989, -14.0910726 ], [ 48.8255998, -14.0899123 ], [ 48.827056699999986, -14.0900382 ], [ 48.8273559, -14.0907451 ], [ 48.8278255, -14.093581 ], [ 48.8304417, -14.0932679 ], [ 48.8317712, -14.0949578 ], [ 48.8333902, -14.0965024 ], [ 48.8319746, -14.0999273 ], [ 48.8332926, -14.1006229 ], [ 48.8350522, -14.1017398 ], [ 48.835510299999989, -14.1035814 ], [ 48.8358295, -14.1059927 ], [ 48.8357104, -14.1082668 ], [ 48.8347231, -14.1109767 ], [ 48.8353202, -14.1122486 ], [ 48.8375347, -14.1149229 ], [ 48.8394598, -14.1177426 ], [ 48.8413966, -14.1215564 ], [ 48.8432837, -14.1211092 ], [ 48.8442909, -14.1201037 ], [ 48.845733, -14.1189512 ], [ 48.8450003, -14.1185332 ], [ 48.8427956, -14.1167111 ], [ 48.8427774, -14.1151488 ], [ 48.8432057, -14.1144337 ], [ 48.8459609, -14.1135508 ], [ 48.8482646, -14.1113944 ], [ 48.8520303, -14.1097898 ], [ 48.8514264, -14.1079499 ], [ 48.8524435, -14.1077965 ], [ 48.8560968, -14.1090341 ], [ 48.85783, -14.1078783 ], [ 48.859715199999989, -14.107289 ], [ 48.8611471, -14.1052843 ], [ 48.8633034, -14.1029874 ], [ 48.864902599999986, -14.1028274 ], [ 48.8664933, -14.1019572 ], [ 48.8667576, -14.0996815 ], [ 48.86803, -14.0971509 ], [ 48.8692799, -14.0957462 ], [ 48.8717888, -14.0937095 ], [ 48.8736828, -14.0932247 ], [ 48.8765712, -14.0926107 ], [ 48.8775149, -14.0923691 ], [ 48.8776589, -14.0921944 ], [ 48.8766932, -14.0906206 ], [ 48.875793200000011, -14.088358 ], [ 48.8760759, -14.0876446 ], [ 48.8780947, -14.0860593 ], [ 48.879814, -14.0837671 ], [ 48.8818177, -14.0809035 ], [ 48.8825284, -14.079475 ], [ 48.8834015, -14.0794651 ], [ 48.8842745, -14.0794553 ], [ 48.8851392, -14.0787352 ], [ 48.8862966, -14.078154 ], [ 48.8855488, -14.0764578 ], [ 48.8862714, -14.0760235 ], [ 48.8893069, -14.0742846 ], [ 48.8932574, -14.0738779 ], [ 48.89600870000001, -14.0737472 ], [ 48.898325899999989, -14.0766525 ], [ 48.9160479, -14.0775312 ], [ 48.9213571, -14.0830532 ], [ 48.9268713, -14.0873523 ], [ 48.9324033, -14.0931052 ], [ 48.9350032, -14.1027692 ], [ 48.9385787, -14.1109678 ], [ 48.9422075, -14.1235281 ], [ 48.9432418, -14.126909 ], [ 48.9413727, -14.1366244 ], [ 48.9424658, -14.1448514 ], [ 48.9450019, -14.1491844 ], [ 48.9455612, -14.1522355 ], [ 48.9472427, -14.1540156 ], [ 48.947736899999988, -14.1556308 ], [ 48.9486263, -14.1585371 ], [ 48.9506316, -14.165987 ], [ 48.953245, -14.1709388 ], [ 48.9533512, -14.179656 ], [ 48.953555200000011, -14.1831766 ], [ 48.9538432, -14.1867512 ], [ 48.953927, -14.189963 ], [ 48.9552594, -14.1956954 ], [ 48.9559631, -14.2016404 ], [ 48.9587686, -14.205126 ], [ 48.9632595, -14.206942 ], [ 48.96522, -14.2106557 ], [ 48.9664159, -14.2132197 ], [ 48.9722948, -14.2121248 ], [ 48.9797887, -14.2054683 ], [ 48.9892036, -14.2010471 ], [ 48.995036299999988, -14.1962571 ], [ 48.9992104, -14.1907765 ], [ 49.0016621, -14.1875574 ], [ 49.0037201, -14.1838382 ], [ 49.0060521, -14.1852476 ], [ 49.0090612, -14.190344 ], [ 49.0195089, -14.1844725 ], [ 49.0207275, -14.1809683 ], [ 49.0221963, -14.1793411 ], [ 49.0224003, -14.1791151 ], [ 49.0254772, -14.1794322 ], [ 49.0310445, -14.1753797 ], [ 49.0320496, -14.1726143 ], [ 49.0399597, -14.1690707 ], [ 49.0400276, -14.1690403 ], [ 49.0441568, -14.1687537 ], [ 49.0444905, -14.1686188 ], [ 49.0451537, -14.1686109 ], [ 49.0483024, -14.1654624 ], [ 49.0497952, -14.1660244 ], [ 49.0521609, -14.1651263 ], [ 49.0530339, -14.1636663 ], [ 49.055201499999988, -14.1613317 ], [ 49.0558755, -14.1603868 ], [ 49.0560812, -14.1603843 ], [ 49.0568448, -14.1595618 ], [ 49.057439, -14.1595547 ], [ 49.058333900000015, -14.1598339 ], [ 49.0588768, -14.1603507 ], [ 49.0605936, -14.1603301 ], [ 49.0621959, -14.1597874 ], [ 49.0633842, -14.1597731 ], [ 49.067484, -14.1599736 ], [ 49.0682064, -14.1598235 ], [ 49.069289, -14.1568029 ], [ 49.0695825, -14.1565095 ], [ 49.0707891, -14.1579444 ], [ 49.0734628, -14.1579122 ], [ 49.076096, -14.1546914 ], [ 49.0786143, -14.1548246 ], [ 49.0800462, -14.1538679 ], [ 49.0812399, -14.1532674 ], [ 49.0819968, -14.151431 ], [ 49.0831851, -14.1514166 ], [ 49.0845666, -14.1506595 ], [ 49.0852355, -14.1494494 ], [ 49.0869495, -14.1463485 ], [ 49.0869805, -14.1461523 ], [ 49.0857812, -14.1452972 ], [ 49.0848568, -14.1426992 ], [ 49.086914, -14.1409348 ], [ 49.0872111, -14.1409312 ], [ 49.0898624, -14.1391596 ], [ 49.0886483, -14.137145 ], [ 49.0905998, -14.1354495 ], [ 49.0908721, -14.1337078 ], [ 49.0876064, -14.1337464 ], [ 49.0867922, -14.1313694 ], [ 49.086480400000013, -14.1302136 ], [ 49.0831798, -14.1276444 ], [ 49.0832733, -14.1198799 ], [ 49.083529299999988, -14.1169779 ], [ 49.0826981, -14.1114895 ], [ 49.0822233, -14.1109247 ], [ 49.0795856, -14.1106709 ], [ 49.0795512, -14.1079637 ], [ 49.078646299999988, -14.1050117 ], [ 49.0781453, -14.1046943 ], [ 49.075713, -14.1040206 ], [ 49.0736827, -14.1034581 ], [ 49.0736528, -14.1034539 ], [ 49.0736526, -14.1034539 ], [ 49.0736415, -14.1034029 ], [ 49.0722772, -14.1031778 ], [ 49.0716813, -14.0999358 ], [ 49.0726328, -14.0978452 ], [ 49.0776247, -14.0988441 ], [ 49.0807524, -14.0937908 ], [ 49.0805689, -14.0921806 ], [ 49.0809268, -14.085203 ], [ 49.0809062, -14.0835786 ], [ 49.0815824, -14.0812753 ], [ 49.0823744, -14.0782572 ], [ 49.082390499999988, -14.0770109 ], [ 49.0817585, -14.0749936 ], [ 49.0799467, -14.0756945 ], [ 49.0791458, -14.0760185 ], [ 49.0785774, -14.0749423 ], [ 49.0812975, -14.0718798 ], [ 49.0807344, -14.0700425 ], [ 49.084876699999988, -14.067274 ], [ 49.0871936, -14.0657067 ], [ 49.0862247, -14.0622916 ], [ 49.0854864, -14.0597672 ], [ 49.0888965, -14.0574885 ], [ 49.0900824, -14.0568078 ], [ 49.0926149, -14.0553606 ], [ 49.0914787, -14.0538479 ], [ 49.0899301, -14.0515192 ], [ 49.0926827, -14.0498612 ], [ 49.0928727, -14.0497843 ], [ 49.093003299999985, -14.0491029 ], [ 49.0907657, -14.0459128 ], [ 49.0868386, -14.0421732 ], [ 49.0845944, -14.0400362 ], [ 49.0818101, -14.0389877 ], [ 49.0756943, -14.0374385 ], [ 49.0718291, -14.0385671 ], [ 49.0652066, -14.0408111 ], [ 49.0596859, -14.0425005 ], [ 49.0552868, -14.0452585 ], [ 49.0503129, -14.0464 ], [ 49.0469813, -14.0458989 ], [ 49.044717200000015, -14.0421385 ], [ 49.0413315, -14.0373095 ], [ 49.037385, -14.0319461 ], [ 49.0362159, -14.0270906 ], [ 49.0354383, -14.0253773 ], [ 49.0343959, -14.0248838 ], [ 49.0317281, -14.015574 ], [ 49.0323196, -14.0118305 ], [ 49.0308888, -13.9993924 ], [ 49.030819, -13.9937884 ], [ 49.0326778, -13.9894068 ], [ 49.0319303, -13.9879904 ], [ 49.0312976, -13.9881937 ], [ 49.0323143, -13.9858111 ], [ 49.0322384, -13.9797207 ], [ 49.0321884, -13.9797105 ], [ 49.0336073, -13.9775452 ], [ 49.0341702, -13.9760625 ], [ 49.0338073, -13.9749314 ], [ 49.0328603, -13.9735802 ], [ 49.0311876, -13.9699669 ], [ 49.0319505, -13.9658704 ], [ 49.0339054, -13.9641441 ], [ 49.0356434, -13.9636693 ], [ 49.0378506, -13.9635296 ], [ 49.041749, -13.9591687 ], [ 49.0464692, -13.9553387 ], [ 49.0501663, -13.9536185 ], [ 49.0516575, -13.9520111 ], [ 49.049363299999982, -13.9442941 ], [ 49.0480596, -13.9431982 ], [ 49.0443997, -13.9387003 ], [ 49.0389936, -13.933996 ], [ 49.034319, -13.9320079 ], [ 49.0282281, -13.9295719 ], [ 49.0194, -13.9243684 ], [ 49.01451, -13.9047243 ], [ 49.0116277, -13.9035028 ], [ 49.0089491, -13.9027617 ], [ 49.0061741, -13.9022149 ], [ 49.0037921, -13.9014703 ], [ 49.0013137, -13.9009199 ], [ 48.9995355, -13.9010373 ], [ 48.9990235, -13.8995947 ], [ 48.9985007, -13.8972829 ], [ 48.9981911, -13.8962242 ], [ 48.9982757, -13.8950643 ], [ 48.99925360000001, -13.8941836 ], [ 48.9996371, -13.8932133 ], [ 49.0006343, -13.8898934 ], [ 49.000332, -13.8864113 ], [ 48.9978653, -13.8857976 ], [ 48.9950846, -13.8847678 ], [ 48.9925087, -13.884315 ], [ 48.9907223, -13.8837565 ], [ 48.9892326, -13.8831944 ], [ 48.989303, -13.8808757 ], [ 48.9881643, -13.8754927 ], [ 48.9843995, -13.8730606 ], [ 48.9815907, -13.8724417 ], [ 48.9794551, -13.8723363 ], [ 48.9771446, -13.8707305 ], [ 48.9735422, -13.8687561 ], [ 48.9721894, -13.8672079 ], [ 48.9707128, -13.8664431 ], [ 48.9686996, -13.8654239 ], [ 48.9664165, -13.8641472 ], [ 48.9645351, -13.8629961 ], [ 48.9638524, -13.8617008 ], [ 48.9647352, -13.8597778 ], [ 48.9656389, -13.858571 ], [ 48.9654622, -13.856629 ], [ 48.9658977, -13.8546799 ], [ 48.9695505, -13.8529926 ], [ 48.970607199999989, -13.851784 ], [ 48.9721121, -13.8496729 ], [ 48.9719299, -13.8472824 ], [ 48.9717442, -13.8445928 ], [ 48.9718754, -13.8427968 ], [ 48.9730711, -13.8405804 ], [ 48.9665841, -13.8385583 ], [ 48.965546200000013, -13.8381163 ], [ 48.9638139, -13.8376458 ], [ 48.962015, -13.8366992 ], [ 48.9616261, -13.8363813 ], [ 48.9606287, -13.8357748 ], [ 48.9597882, -13.8345104 ], [ 48.9571211, -13.8345413 ], [ 48.9532028, -13.8331064 ], [ 48.951191, -13.8330623 ], [ 48.9502228, -13.8325897 ], [ 48.9488402, -13.8319607 ], [ 48.9481217, -13.8316734 ], [ 48.9457983, -13.8296683 ], [ 48.9443862, -13.8297548 ], [ 48.9441351, -13.8294621 ], [ 48.9441208, -13.8290447 ], [ 48.9441052, -13.8285947 ], [ 48.9443224, -13.8282838 ], [ 48.9442797, -13.8277676 ], [ 48.9438297, -13.827266 ], [ 48.9432224, -13.827392 ], [ 48.9428251, -13.8279993 ], [ 48.9418341, -13.8276799 ], [ 48.9402529, -13.825958 ], [ 48.9390554, -13.8245983 ], [ 48.9384915, -13.8243677 ], [ 48.9373478, -13.8230104 ], [ 48.9365743, -13.8215002 ], [ 48.9357489, -13.8207123 ], [ 48.9351095, -13.8198115 ], [ 48.9343626, -13.8190208 ], [ 48.9343138, -13.8176709 ], [ 48.9338652, -13.8169505 ], [ 48.9334554, -13.8168994 ], [ 48.9320881, -13.8178039 ], [ 48.9313285, -13.8179773 ], [ 48.9303409, -13.8187066 ], [ 48.9293262, -13.818614 ], [ 48.9289612, -13.8196002 ], [ 48.9262863, -13.8176519 ], [ 48.9300482, -13.8159664 ], [ 48.9316704, -13.8142428 ], [ 48.9333804, -13.8122684 ], [ 48.9362889, -13.8101499 ], [ 48.9382577, -13.8075209 ], [ 48.9394202, -13.8043798 ], [ 48.9396649, -13.8025524 ], [ 48.9403065, -13.8004599 ], [ 48.9412132, -13.798234 ], [ 48.9429883, -13.7930898 ], [ 48.9427389, -13.7893067 ], [ 48.93864030000001, -13.7875604 ], [ 48.9327095, -13.7860343 ], [ 48.9286181, -13.7848856 ], [ 48.9218316, -13.7806963 ], [ 48.9218315, -13.7806927 ], [ 48.9218275, -13.7806928 ], [ 48.899771, -13.7575681 ], [ 48.8975046, -13.7560553 ], [ 48.8914422, -13.7567831 ], [ 48.8846769, -13.755101 ], [ 48.8812788, -13.7529414 ], [ 48.872022699999988, -13.7497485 ] ] ] } }
]
}
