{
"type": "FeatureCollection",
"name": "MDG-5026-2015-boundary_modification-001",
"crs": { "type": "name", "properties": { "name": "urn:ogc:def:crs:OGC:1.3:CRS84" } },
"features": [
{ "type": "Feature", "properties": { }, "geometry": { "type": "Polygon", "coordinates": [ [ [ 48.4543138, -13.94329 ], [ 48.4586031, -13.9347026 ], [ 48.4539331, -13.9282248 ], [ 48.455052900000013, -13.9250655 ], [ 48.4575877, -13.9226966 ], [ 48.4595923, -13.9184998 ], [ 48.4594228, -13.9160319 ], [ 48.4609151, -13.9126396 ], [ 48.4624906, -13.909026 ], [ 48.4623438, -13.9045456 ], [ 48.462651, -13.9020524 ], [ 48.4275119, -13.9021652 ], [ 48.3998931, -13.9030984 ], [ 48.3634511, -13.9052296 ], [ 48.3521748, -13.9057824 ], [ 48.3484682, -13.90334 ], [ 48.3450081, -13.9026988 ], [ 48.3414807, -13.9024598 ], [ 48.3392421, -13.9016266 ], [ 48.337381199999989, -13.8996192 ], [ 48.3325362, -13.8985385 ], [ 48.3302404, -13.8992339 ], [ 48.3281143, -13.8978496 ], [ 48.3214649, -13.8963891 ], [ 48.3166453, -13.8980067 ], [ 48.3090194, -13.9104493 ], [ 48.3021427, -13.9228762 ], [ 48.2863451, -13.9482103 ], [ 48.2810489, -13.9574739 ], [ 48.2792566, -13.9628875 ], [ 48.2778998, -13.9655983 ], [ 48.2747112, -13.9694497 ], [ 48.2744006, -13.9699338 ], [ 48.274487, -13.9701498 ], [ 48.2752585, -13.9776828 ], [ 48.2760616, -13.9886428 ], [ 48.2775288, -13.9954834 ], [ 48.2796971, -14.002319 ], [ 48.2804688, -14.0098519 ], [ 48.2812279, -14.0160137 ], [ 48.2812723, -14.0208107 ], [ 48.2813484, -14.0290347 ], [ 48.2821203, -14.0365676 ], [ 48.284296, -14.0440881 ], [ 48.28644, -14.0481826 ], [ 48.2935048, -14.0529174 ], [ 48.298444, -14.0556159 ], [ 48.3033717, -14.0569432 ], [ 48.3104055, -14.0582504 ], [ 48.3125238, -14.0596015 ], [ 48.3146492, -14.0616398 ], [ 48.3174904, -14.0650417 ], [ 48.3196282, -14.0684487 ], [ 48.3224695, -14.0718505 ], [ 48.3253356, -14.0779943 ], [ 48.3296005, -14.0834382 ], [ 48.332454, -14.088211 ], [ 48.3360105, -14.0929762 ], [ 48.33815, -14.0963852 ], [ 48.3402819, -14.099106 ], [ 48.3417192, -14.1025214 ], [ 48.3445476, -14.1045519 ], [ 48.347382, -14.1072673 ], [ 48.3502039, -14.1086128 ], [ 48.3530259, -14.1099582 ], [ 48.3565372, -14.1099262 ], [ 48.3593652, -14.1119565 ], [ 48.3593981, -14.1153824 ], [ 48.3587292, -14.1188158 ], [ 48.3587752, -14.1236138 ], [ 48.3588344, -14.1297817 ], [ 48.356867, -14.1343808 ], [ 48.3593027, -14.1342479 ], [ 48.363796500000014, -14.1330559 ], [ 48.3695402, -14.131204 ], [ 48.3715195, -14.131902 ], [ 48.37623820000001, -14.1327167 ], [ 48.3801175, -14.1324134 ], [ 48.3863667, -14.1314987 ], [ 48.3920423, -14.1226749 ], [ 48.3949984, -14.1185992 ], [ 48.4021174, -14.116059 ], [ 48.4061334, -14.1173754 ], [ 48.41432, -14.1180591 ], [ 48.4207851, -14.1185989 ], [ 48.4242603, -14.1181008 ], [ 48.4283863, -14.1169026 ], [ 48.4323141, -14.1169003 ], [ 48.4412581, -14.1125426 ], [ 48.4663146, -14.0979144 ], [ 48.4786458, -14.0953176 ], [ 48.4815957, -14.0945675 ], [ 48.4802677, -14.0942567 ], [ 48.4800114, -14.0926224 ], [ 48.4795137, -14.0907576 ], [ 48.4780667, -14.0898356 ], [ 48.4773434, -14.0893757 ], [ 48.4768599, -14.0889124 ], [ 48.4754187, -14.0884594 ], [ 48.4742161, -14.088003 ], [ 48.4739623, -14.0866015 ], [ 48.4739434, -14.084732 ], [ 48.4739316, -14.0835633 ], [ 48.4739198, -14.0823946 ], [ 48.4748639, -14.0809828 ], [ 48.4736571, -14.0800584 ], [ 48.4734057, -14.078892 ], [ 48.4741076, -14.0772485 ], [ 48.4738585, -14.0763161 ], [ 48.4726613, -14.0763276 ], [ 48.4721731, -14.0753974 ], [ 48.4719239, -14.0744639 ], [ 48.4719098, -14.0730612 ], [ 48.4716631, -14.0723628 ], [ 48.4709281, -14.070733 ], [ 48.4704376, -14.0695689 ], [ 48.470261799999989, -14.069366 ], [ 48.4701932, -14.0691033 ], [ 48.4699376, -14.067469 ], [ 48.4699211, -14.0658323 ], [ 48.4699094, -14.0646636 ], [ 48.4699, -14.0637289 ], [ 48.4698788, -14.0616243 ], [ 48.4700779, -14.057648 ], [ 48.4695732, -14.0550812 ], [ 48.4693171, -14.0534469 ], [ 48.4688336, -14.0529836 ], [ 48.4669175, -14.0530019 ], [ 48.466429399999988, -14.0520718 ], [ 48.4659389, -14.0509077 ], [ 48.4649697, -14.0497481 ], [ 48.464236699999987, -14.0483512 ], [ 48.4625421, -14.0464978 ], [ 48.4613327, -14.0453405 ], [ 48.4601286, -14.0446512 ], [ 48.4586941, -14.0448978 ], [ 48.4570154, -14.0446809 ], [ 48.4546183, -14.0444698 ], [ 48.4522195, -14.0440247 ], [ 48.4507734, -14.0431036 ], [ 48.448851, -14.0424199 ], [ 48.4469303, -14.0419702 ], [ 48.4445286, -14.0412922 ], [ 48.4428388, -14.0399054 ], [ 48.443069199999989, -14.0389684 ], [ 48.4435409, -14.038262 ], [ 48.4454545, -14.0380098 ], [ 48.4456796, -14.036606 ], [ 48.4454196, -14.0345037 ], [ 48.445868, -14.0314598 ], [ 48.4470325, -14.0281752 ], [ 48.4484528, -14.0265249 ], [ 48.4488922, -14.026419 ], [ 48.4492497, -14.0263353 ], [ 48.4498871, -14.0262784 ], [ 48.4522793, -14.0260216 ], [ 48.4549059, -14.0252947 ], [ 48.4568236, -14.0255104 ], [ 48.4608961, -14.0257055 ], [ 48.4637741, -14.0261459 ], [ 48.4649599, -14.0249658 ], [ 48.4656641, -14.0235562 ], [ 48.466124, -14.0216799 ], [ 48.4661052, -14.0198104 ], [ 48.4655984, -14.0170108 ], [ 48.4648425, -14.0132765 ], [ 48.4645753, -14.0104734 ], [ 48.4643023, -14.0072024 ], [ 48.4650024, -14.005326 ], [ 48.4654646, -14.0036837 ], [ 48.4654505, -14.002281 ], [ 48.4644791, -14.0008875 ], [ 48.463504300000011, -13.9992612 ], [ 48.4615781, -13.9981108 ], [ 48.4596437, -13.9962585 ], [ 48.4569935, -13.994647 ], [ 48.4550556, -13.9923278 ], [ 48.453595299999989, -13.9900029 ], [ 48.4514156, -13.987452 ], [ 48.4489865, -13.9839676 ], [ 48.4467941, -13.9802479 ], [ 48.4458136, -13.9779196 ], [ 48.4448332, -13.9755912 ], [ 48.4443285, -13.9730244 ], [ 48.4438214, -13.9702225 ], [ 48.4438005, -13.968119 ], [ 48.4430615, -13.9660223 ], [ 48.4418369, -13.9632272 ], [ 48.4406124, -13.9604343 ], [ 48.4405049, -13.9600419 ], [ 48.4406031, -13.9594995 ], [ 48.4410497, -13.9562206 ], [ 48.4419813, -13.9536412 ], [ 48.4434035, -13.9522238 ], [ 48.4469892, -13.9517218 ], [ 48.4488946, -13.9507688 ], [ 48.4498429, -13.949825 ], [ 48.451746, -13.9486381 ], [ 48.453396, -13.9460496 ], [ 48.4541395, -13.9446695 ], [ 48.4543138, -13.94329 ] ] ] } }
]
}
