{
"type": "FeatureCollection",
"name": "MDG-354013-2015-boundary_modification-001",
"crs": { "type": "name", "properties": { "name": "urn:ogc:def:crs:OGC:1.3:CRS84" } },
"features": [
{ "type": "Feature", "properties": { }, "geometry": { "type": "Polygon", "coordinates": [ [ [ 48.8708707, -17.6356818 ], [ 48.8713033, -17.6370319 ], [ 48.8713427, -17.6385676 ], [ 48.871347, -17.6388928 ], [ 48.8708038, -17.6405621 ], [ 48.870353599999987, -17.64214 ], [ 48.8698754, -17.6437362 ], [ 48.8692926, -17.6452614 ], [ 48.8688869, -17.6466399 ], [ 48.8686692, -17.6472751 ], [ 48.868303499999989, -17.6488338 ], [ 48.86843529999998, -17.649528 ], [ 48.8690167, -17.6500178 ], [ 48.8699732, -17.6503585 ], [ 48.8707957, -17.6505472 ], [ 48.8718111, -17.6510679 ], [ 48.871857, -17.6523866 ], [ 48.8714826, -17.6532858 ], [ 48.870777, -17.6540896 ], [ 48.8701809, -17.654621 ], [ 48.8700326, -17.6548126 ], [ 48.8696635, -17.6561093 ], [ 48.8692184, -17.6580666 ], [ 48.8687953, -17.6595627 ], [ 48.8684124, -17.6612391 ], [ 48.8679877, -17.6626088 ], [ 48.8678586, -17.6628272 ], [ 48.8674182, -17.6637272 ], [ 48.8674436, -17.6642149 ], [ 48.8678331, -17.6658637 ], [ 48.8674402, -17.6667902 ], [ 48.8663367, -17.6681501 ], [ 48.8656653, -17.6694053 ], [ 48.8649635, -17.6704983 ], [ 48.8644299, -17.6714807 ], [ 48.86421510000001, -17.6723418 ], [ 48.8634419, -17.6744386 ], [ 48.8629741, -17.6754112 ], [ 48.861971499999989, -17.676571 ], [ 48.8607347, -17.6771283 ], [ 48.8599987, -17.6770741 ], [ 48.859143, -17.6765243 ], [ 48.8583882, -17.6757654 ], [ 48.8579956, -17.6753004 ], [ 48.8572315, -17.6745506 ], [ 48.8565817, -17.6738809 ], [ 48.8561042, -17.6734168 ], [ 48.8548058, -17.6728905 ], [ 48.8535776, -17.6726796 ], [ 48.8530582, -17.6726046 ], [ 48.852098, -17.6726976 ], [ 48.8522373, -17.6732561 ], [ 48.8522429, -17.6743856 ], [ 48.8519876, -17.6750393 ], [ 48.8517342, -17.6758286 ], [ 48.852342300000011, -17.6769055 ], [ 48.8518786, -17.6774804 ], [ 48.850953, -17.6787658 ], [ 48.851093, -17.6793695 ], [ 48.8516527, -17.6803476 ], [ 48.8520048, -17.6813102 ], [ 48.8519836, -17.6818436 ], [ 48.8517178, -17.6824161 ], [ 48.8510852, -17.6830473 ], [ 48.8499334, -17.6829168 ], [ 48.8494433, -17.6829227 ], [ 48.84853, -17.6830062 ], [ 48.848422, -17.6841008 ], [ 48.8484095, -17.6845799 ], [ 48.847820100000014, -17.6849214 ], [ 48.847014, -17.6852656 ], [ 48.8467503, -17.6852869 ], [ 48.8459346, -17.6856221 ], [ 48.8451826, -17.6857848 ], [ 48.844252, -17.6859859 ], [ 48.8437078, -17.6861732 ], [ 48.8427291, -17.6863026 ], [ 48.8412991, -17.6865188 ], [ 48.8410528, -17.6864314 ], [ 48.8404165, -17.6860777 ], [ 48.839291, -17.6857931 ], [ 48.8380663, -17.6858531 ], [ 48.836842, -17.6859403 ], [ 48.8363251, -17.686064 ], [ 48.8355893, -17.6860277 ], [ 48.8350842, -17.686323 ], [ 48.833766499999989, -17.6857606 ], [ 48.8332934, -17.6856308 ], [ 48.8326509, -17.6855211 ], [ 48.8312066, -17.6853669 ], [ 48.8304044, -17.6852953 ], [ 48.8289913, -17.6853666 ], [ 48.8282488, -17.6855382 ], [ 48.8273, -17.6857846 ], [ 48.8254301, -17.6862499 ], [ 48.824450899999988, -17.686343 ], [ 48.8228234, -17.6858747 ], [ 48.8214796, -17.6847613 ], [ 48.8203051, -17.6836188 ], [ 48.8195326, -17.6829323 ], [ 48.8187516, -17.6816044 ], [ 48.818329, -17.6802811 ], [ 48.8186373, -17.6793467 ], [ 48.819489, -17.6774388 ], [ 48.8204331, -17.676831 ], [ 48.8216035, -17.6762296 ], [ 48.8224667, -17.675921 ], [ 48.8234775, -17.6753667 ], [ 48.8241857, -17.6747437 ], [ 48.824721899999986, -17.673942 ], [ 48.8252534, -17.6735019 ], [ 48.8255652, -17.6728384 ], [ 48.8254944, -17.6724688 ], [ 48.8251394, -17.6719942 ], [ 48.824571, -17.6717751 ], [ 48.8241102, -17.671862 ], [ 48.8236046, -17.6721211 ], [ 48.8229894, -17.6726526 ], [ 48.8221902, -17.6728068 ], [ 48.8213022, -17.6726548 ], [ 48.8207064, -17.6717855 ], [ 48.8204005, -17.670741 ], [ 48.820242, -17.6694326 ], [ 48.8203425, -17.6677506 ], [ 48.8202715, -17.6666491 ], [ 48.8203525, -17.665636 ], [ 48.820826, -17.6643652 ], [ 48.8212663, -17.6634382 ], [ 48.821902, -17.6615962 ], [ 48.8222605, -17.6608961 ], [ 48.8227158, -17.6596797 ], [ 48.8228943, -17.6581956 ], [ 48.823227, -17.6576856 ], [ 48.823198199999986, -17.6569269 ], [ 48.8230832, -17.6560608 ], [ 48.8232798, -17.6552452 ], [ 48.8239904, -17.654089 ], [ 48.8251112, -17.6525845 ], [ 48.8254905, -17.6513239 ], [ 48.8254251, -17.649924 ], [ 48.8254455, -17.6493274 ], [ 48.826052, -17.6474224 ], [ 48.8265643, -17.6469554 ], [ 48.8267721, -17.6455523 ], [ 48.8264799, -17.64411 ], [ 48.8255831, -17.6432804 ], [ 48.8249706, -17.6425739 ], [ 48.8244085, -17.6421108 ], [ 48.8241151, -17.6420149 ], [ 48.8237939, -17.6419555 ], [ 48.8234303, -17.6422581 ], [ 48.8231723, -17.642713 ], [ 48.823109, -17.6429126 ], [ 48.8230956, -17.6433284 ], [ 48.8231114, -17.6438162 ], [ 48.8230729, -17.6444763 ], [ 48.8229678, -17.645092 ], [ 48.8227464, -17.6454562 ], [ 48.8220698, -17.6456089 ], [ 48.8216883, -17.6452611 ], [ 48.8215218, -17.6447841 ], [ 48.8213848, -17.6443972 ], [ 48.8211913, -17.644011 ], [ 48.8207918, -17.6437356 ], [ 48.8203774, -17.6437587 ], [ 48.8201643, -17.6440324 ], [ 48.8199052, -17.644406 ], [ 48.8196567, -17.6448608 ], [ 48.8193606, -17.64528 ], [ 48.8190732, -17.6456449 ], [ 48.8184632, -17.645842 ], [ 48.8179365, -17.6459296 ], [ 48.8180995, -17.6446987 ], [ 48.8178442, -17.6439156 ], [ 48.8174971, -17.6433144 ], [ 48.8170437, -17.6432385 ], [ 48.8167445, -17.6434228 ], [ 48.8163145, -17.64369 ], [ 48.8160246, -17.6438652 ], [ 48.815179, -17.6440651 ], [ 48.8141556, -17.6443665 ], [ 48.8134384, -17.6442938 ], [ 48.8127169, -17.6438958 ], [ 48.8125439, -17.6436358 ], [ 48.8125829, -17.6430118 ], [ 48.8127416, -17.6421786 ], [ 48.8128312, -17.641816 ], [ 48.812996, -17.6407207 ], [ 48.8127289, -17.6404799 ], [ 48.8119778, -17.6406967 ], [ 48.8112942, -17.6410392 ], [ 48.8104292, -17.6411942 ], [ 48.8093451, -17.641171 ], [ 48.8087598, -17.6410967 ], [ 48.807136899999982, -17.6416854 ], [ 48.8062747, -17.6420571 ], [ 48.8042279, -17.6426599 ], [ 48.8033208, -17.642481 ], [ 48.8021847, -17.6420788 ], [ 48.8007143, -17.6413464 ], [ 48.7997439, -17.640644 ], [ 48.7992624, -17.6398546 ], [ 48.798634499999984, -17.6386692 ], [ 48.7986566, -17.6374671 ], [ 48.7985678, -17.6371609 ], [ 48.7984683, -17.6367555 ], [ 48.7984141, -17.63475 ], [ 48.7984456, -17.6328158 ], [ 48.7984485, -17.6323098 ], [ 48.7984746, -17.6306919 ], [ 48.7984474, -17.6300416 ], [ 48.7984335, -17.6296984 ], [ 48.7986097, -17.6280245 ], [ 48.7985976, -17.6270849 ], [ 48.7986489, -17.6259547 ], [ 48.7988303, -17.6254104 ], [ 48.7993523, -17.6242384 ], [ 48.7995269, -17.623893 ], [ 48.8000187, -17.6225768 ], [ 48.8003481, -17.6218138 ], [ 48.80098, -17.6203966 ], [ 48.8011334, -17.6198707 ], [ 48.8014583, -17.6187643 ], [ 48.8018189, -17.617504 ], [ 48.8019678, -17.6166347 ], [ 48.8018363, -17.6159405 ], [ 48.8016388, -17.614515 ], [ 48.801577, -17.6133772 ], [ 48.8015206, -17.612664 ], [ 48.8016161, -17.6120303 ], [ 48.802314, -17.6113532 ], [ 48.8028468, -17.6110125 ], [ 48.8034943, -17.610806 ], [ 48.8037754, -17.6106852 ], [ 48.804912, -17.6104096 ], [ 48.805998, -17.6105864 ], [ 48.8069217, -17.6106025 ], [ 48.8074973, -17.6106679 ], [ 48.8079025, -17.6106631 ], [ 48.8086793, -17.6095333 ], [ 48.8087469, -17.608936 ], [ 48.809368, -17.6081425 ], [ 48.8098633, -17.6078293 ], [ 48.8104007, -17.6071271 ], [ 48.810488, -17.6065929 ], [ 48.8105712, -17.6064654 ], [ 48.8108701, -17.606263 ], [ 48.811649, -17.6052958 ], [ 48.8121848, -17.6044671 ], [ 48.8122488, -17.6043217 ], [ 48.8126661, -17.6038016 ], [ 48.8144185, -17.6030578 ], [ 48.8151873, -17.6027594 ], [ 48.8163395, -17.6022395 ], [ 48.8166758, -17.6020186 ], [ 48.8172748, -17.6009813 ], [ 48.8174877, -17.6006896 ], [ 48.8181532, -17.6004195 ], [ 48.8189909, -17.6003553 ], [ 48.819358, -17.6003238 ], [ 48.8202741, -17.6004845 ], [ 48.820342599999989, -17.5992366 ], [ 48.8203837, -17.5987753 ], [ 48.8201062, -17.5984442 ], [ 48.8197445, -17.5974455 ], [ 48.8202364, -17.5968703 ], [ 48.8211901, -17.5963077 ], [ 48.8218366, -17.5960288 ], [ 48.8221299, -17.5939559 ], [ 48.8222576, -17.5929062 ], [ 48.8224164, -17.5920819 ], [ 48.8231347, -17.5908082 ], [ 48.8232235, -17.5896685 ], [ 48.8228075, -17.5881193 ], [ 48.8221152, -17.5870522 ], [ 48.821068, -17.5855015 ], [ 48.8203584, -17.5845521 ], [ 48.8197092, -17.5831773 ], [ 48.8192749, -17.5823783 ], [ 48.8183943, -17.5805996 ], [ 48.818317, -17.5804469 ], [ 48.817799, -17.5790163 ], [ 48.8174214, -17.5782346 ], [ 48.8170845, -17.5776874 ], [ 48.8169779, -17.5774628 ], [ 48.8168312, -17.5770489 ], [ 48.8149977, -17.575878 ], [ 48.814906, -17.5731771 ], [ 48.8150902, -17.5714038 ], [ 48.815112, -17.5709065 ], [ 48.8150252, -17.570022 ], [ 48.8153465, -17.5686536 ], [ 48.8149126, -17.5671587 ], [ 48.8143296, -17.566515 ], [ 48.8132178, -17.5650554 ], [ 48.8127571, -17.5636783 ], [ 48.8131001, -17.5617946 ], [ 48.814626, -17.5603305 ], [ 48.8149112, -17.55908 ], [ 48.8157972, -17.5583917 ], [ 48.816685399999983, -17.5585979 ], [ 48.8183725, -17.5586591 ], [ 48.820245, -17.5577691 ], [ 48.8215687, -17.5581418 ], [ 48.8233699, -17.5582829 ], [ 48.8233822, -17.5570628 ], [ 48.8229816, -17.5559561 ], [ 48.8225102, -17.5544798 ], [ 48.8220152, -17.5533652 ], [ 48.8215628, -17.5518976 ], [ 48.821071, -17.551027 ], [ 48.820043, -17.5487621 ], [ 48.8179654, -17.5476393 ], [ 48.8173112, -17.5465898 ], [ 48.8164018, -17.5454711 ], [ 48.8160688, -17.5437672 ], [ 48.8153723, -17.5423568 ], [ 48.8143416, -17.539875 ], [ 48.8136285, -17.5386364 ], [ 48.8126422, -17.5366692 ], [ 48.811896, -17.5343285 ], [ 48.8117689, -17.5332457 ], [ 48.8121271, -17.5318136 ], [ 48.8127781, -17.5311733 ], [ 48.8140755, -17.5302541 ], [ 48.813613, -17.5294554 ], [ 48.8127489, -17.5289144 ], [ 48.8115503, -17.528007 ], [ 48.8104607, -17.526782 ], [ 48.8101939, -17.5258182 ], [ 48.8105906, -17.5244489 ], [ 48.8111442, -17.5235567 ], [ 48.8111543, -17.5228879 ], [ 48.8112835, -17.5212236 ], [ 48.8114352, -17.5198482 ], [ 48.8118787, -17.5191833 ], [ 48.8122596, -17.5187811 ], [ 48.813574300000013, -17.5177533 ], [ 48.8141446, -17.5166982 ], [ 48.8139979, -17.5162843 ], [ 48.8133738, -17.515361 ], [ 48.8126828, -17.5143661 ], [ 48.8121117, -17.5117252 ], [ 48.811700099999989, -17.5090281 ], [ 48.8114581, -17.507793 ], [ 48.8111457, -17.5062153 ], [ 48.8108151, -17.504683 ], [ 48.8101291, -17.5033447 ], [ 48.8095424, -17.5024028 ], [ 48.8081802, -17.501931 ], [ 48.8060286, -17.5008632 ], [ 48.8055557, -17.4999741 ], [ 48.805313, -17.4994167 ], [ 48.8044898, -17.4983873 ], [ 48.803537499999983, -17.4982992 ], [ 48.8025488, -17.4983109 ], [ 48.8021052, -17.4989668 ], [ 48.8020732, -17.499401 ], [ 48.8017614, -17.5000553 ], [ 48.8013164, -17.5006028 ], [ 48.8008957, -17.5008428 ], [ 48.8002804, -17.501329 ], [ 48.7998789, -17.5023278 ], [ 48.8002583, -17.5025402 ], [ 48.8012374, -17.5032425 ], [ 48.8017067, -17.5038514 ], [ 48.8018078, -17.5051154 ], [ 48.801342599999984, -17.5055547 ], [ 48.800518499999988, -17.5059169 ], [ 48.799214, -17.5062758 ], [ 48.7984113, -17.5061045 ], [ 48.7974442, -17.5063329 ], [ 48.7962896, -17.5066357 ], [ 48.7957964, -17.5063614 ], [ 48.7952405, -17.5061184 ], [ 48.7945877, -17.5065248 ], [ 48.794897, -17.5079202 ], [ 48.7946129, -17.5084838 ], [ 48.7914047, -17.5085218 ], [ 48.7905224, -17.5079719 ], [ 48.7884808, -17.507996 ], [ 48.7849813, -17.5080373 ], [ 48.7814747, -17.5075189 ], [ 48.7785507, -17.5069936 ], [ 48.7741725, -17.5067654 ], [ 48.7721238, -17.5062297 ], [ 48.7697944, -17.5065366 ], [ 48.768044599999989, -17.5065571 ], [ 48.766302, -17.5071372 ], [ 48.7628126, -17.5080179 ], [ 48.7607603, -17.5072019 ], [ 48.759007, -17.5069428 ], [ 48.7578263, -17.5058371 ], [ 48.7586731, -17.5035878 ], [ 48.7598219, -17.5021754 ], [ 48.762429, -17.5007454 ], [ 48.7653345, -17.4998715 ], [ 48.7694141, -17.4995442 ], [ 48.771178, -17.500643 ], [ 48.7738063, -17.5008918 ], [ 48.7764234, -17.5003014 ], [ 48.7793258, -17.4991478 ], [ 48.7813602, -17.4985642 ], [ 48.7842942, -17.4999292 ], [ 48.785784799999988, -17.5024307 ], [ 48.7869692, -17.5038157 ], [ 48.7893128, -17.5046279 ], [ 48.7916458, -17.5046003 ], [ 48.7945939, -17.5040792 ], [ 48.7948216, -17.5037975 ], [ 48.7952959, -17.503331 ], [ 48.7960846, -17.5024089 ], [ 48.7960843, -17.5016499 ], [ 48.795510299999989, -17.5009608 ], [ 48.7948636, -17.5004714 ], [ 48.79453, -17.5001591 ], [ 48.7941434, -17.4993865 ], [ 48.7937738, -17.4984782 ], [ 48.7931611, -17.4969672 ], [ 48.7930103, -17.4962189 ], [ 48.7925945, -17.4953744 ], [ 48.7918947, -17.4951477 ], [ 48.7913382, -17.495082 ], [ 48.7904572, -17.4954087 ], [ 48.7895468, -17.4956544 ], [ 48.7883103, -17.495434 ], [ 48.7874093, -17.4949386 ], [ 48.7863961, -17.4945077 ], [ 48.7859385, -17.4940703 ], [ 48.7859062, -17.4937544 ], [ 48.7856404, -17.4928539 ], [ 48.7858422, -17.4924358 ], [ 48.7861747, -17.4919258 ], [ 48.7865907, -17.4913154 ], [ 48.7871746, -17.4905856 ], [ 48.7871405, -17.4901251 ], [ 48.7869398, -17.4898925 ], [ 48.7864702, -17.4899975 ], [ 48.7852766, -17.4901832 ], [ 48.7844149, -17.4905458 ], [ 48.7836723, -17.490654 ], [ 48.7823501, -17.4910943 ], [ 48.7815963, -17.491058 ], [ 48.7805179, -17.4906821 ], [ 48.779339199999988, -17.4905604 ], [ 48.7784325, -17.4903541 ], [ 48.7780132, -17.4899614 ], [ 48.7770663, -17.4888158 ], [ 48.7763841, -17.4884895 ], [ 48.7758024, -17.488659 ], [ 48.7753251, -17.4888995 ], [ 48.7750046, -17.4888671 ], [ 48.7745587, -17.4886103 ], [ 48.774196, -17.488235 ], [ 48.7736155, -17.4877538 ], [ 48.7730578, -17.4875886 ], [ 48.7724565, -17.4877041 ], [ 48.7719006, -17.4876745 ], [ 48.7712686, -17.4875915 ], [ 48.7706901, -17.487273 ], [ 48.770126, -17.4866109 ], [ 48.769918, -17.4858 ], [ 48.7697423, -17.485314 ], [ 48.769641, -17.4847549 ], [ 48.7696019, -17.4838969 ], [ 48.7694928, -17.4834644 ], [ 48.7692428, -17.4830606 ], [ 48.7690492, -17.4826472 ], [ 48.7685404, -17.481885 ], [ 48.7682659, -17.4817707 ], [ 48.7675523, -17.4811917 ], [ 48.766873, -17.4810912 ], [ 48.7664489, -17.48106 ], [ 48.7661829, -17.4808824 ], [ 48.7658598, -17.4806512 ], [ 48.765453, -17.4805023 ], [ 48.7649329, -17.4803276 ], [ 48.7641141, -17.4803643 ], [ 48.7636837, -17.4805862 ], [ 48.7631084, -17.4812617 ], [ 48.762984, -17.4818415 ], [ 48.7628416, -17.4824938 ], [ 48.7625299, -17.4831662 ], [ 48.7621207, -17.4835686 ], [ 48.761537, -17.4843255 ], [ 48.7606419, -17.4850317 ], [ 48.7601859, -17.4854618 ], [ 48.7595471, -17.4855867 ], [ 48.7590158, -17.4860177 ], [ 48.758024299999988, -17.4865443 ], [ 48.7573997, -17.4870486 ], [ 48.756984, -17.4876861 ], [ 48.7563297, -17.4880732 ], [ 48.7552156, -17.4885923 ], [ 48.7546636, -17.4888788 ], [ 48.7543264, -17.4890273 ], [ 48.7537618, -17.489061 ], [ 48.7529799, -17.489034 ], [ 48.7522437, -17.488907 ], [ 48.7511246, -17.4890284 ], [ 48.7507933, -17.4888967 ], [ 48.7495143, -17.4875379 ], [ 48.7482664, -17.4864047 ], [ 48.7477032, -17.4865558 ], [ 48.7466507, -17.4867307 ], [ 48.7431374, -17.486672 ], [ 48.741288, -17.4863861 ], [ 48.7392793, -17.4846562 ], [ 48.7383811, -17.4843683 ], [ 48.7144586, -17.4909511 ], [ 48.7143936, -17.4933015 ], [ 48.7140808, -17.4938925 ], [ 48.7133548, -17.4945876 ], [ 48.7127575, -17.4950192 ], [ 48.7127538, -17.4962393 ], [ 48.7127764, -17.4973054 ], [ 48.7125768, -17.4979132 ], [ 48.7127277, -17.4986886 ], [ 48.7126901, -17.5002163 ], [ 48.7123978, -17.5009426 ], [ 48.7120871, -17.5017143 ], [ 48.712147199999983, -17.5027619 ], [ 48.7122488, -17.5033572 ], [ 48.7125981, -17.5041847 ], [ 48.7128603, -17.5048233 ], [ 48.7128115, -17.5061975 ], [ 48.7127549, -17.5069482 ], [ 48.7122934, -17.5084627 ], [ 48.7121214, -17.5090249 ], [ 48.7121963, -17.5097471 ], [ 48.7124592, -17.5104399 ], [ 48.7126409, -17.5114229 ], [ 48.712468400000013, -17.5126991 ], [ 48.7124353, -17.51307 ], [ 48.7133639, -17.5150294 ], [ 48.7142452, -17.5154622 ], [ 48.7151073, -17.515868 ], [ 48.7159162, -17.5165365 ], [ 48.7168229, -17.516734 ], [ 48.7181807, -17.5160949 ], [ 48.7189277, -17.5155802 ], [ 48.7201538, -17.5157108 ], [ 48.7212118, -17.5159607 ], [ 48.72212, -17.5162846 ], [ 48.7225566, -17.5165507 ], [ 48.7230657, -17.5173401 ], [ 48.7234026, -17.5179237 ], [ 48.7239168, -17.5183696 ], [ 48.7242518, -17.5187995 ], [ 48.7246095, -17.5195365 ], [ 48.724655199999987, -17.5209276 ], [ 48.724566, -17.5220854 ], [ 48.7244259, -17.5229365 ], [ 48.7240785, -17.5237809 ], [ 48.7232435, -17.5247936 ], [ 48.7223306, -17.5248583 ], [ 48.722069, -17.525024 ], [ 48.7214148, -17.5246881 ], [ 48.7211281, -17.5251071 ], [ 48.7210039, -17.5257231 ], [ 48.7205181, -17.5260449 ], [ 48.7195846, -17.5259653 ], [ 48.719148900000015, -17.5257715 ], [ 48.7183722, -17.526178 ], [ 48.7179173, -17.5267164 ], [ 48.7172633, -17.5271396 ], [ 48.7164971, -17.5276364 ], [ 48.7163943, -17.5284599 ], [ 48.716345, -17.5290389 ], [ 48.716545, -17.5299764 ], [ 48.7166961, -17.5307609 ], [ 48.7164437, -17.5316675 ], [ 48.7161771, -17.5321947 ], [ 48.7157607, -17.5327959 ], [ 48.7152607, -17.5334975 ], [ 48.7145193, -17.5337139 ], [ 48.7140255, -17.5341533 ], [ 48.713465, -17.5345302 ], [ 48.7135745, -17.5349989 ], [ 48.7139764, -17.5355094 ], [ 48.7146697, -17.5359623 ], [ 48.715389699999989, -17.5362885 ], [ 48.7164419, -17.5368186 ], [ 48.7173678, -17.537043 ], [ 48.717976, -17.5374698 ], [ 48.7184968, -17.5376897 ], [ 48.7188379, -17.5386076 ], [ 48.719431, -17.5393328 ], [ 48.7203433, -17.539973 ], [ 48.7211584, -17.5403703 ], [ 48.7223225, -17.5415588 ], [ 48.7224597, -17.541991 ], [ 48.722537, -17.5428938 ], [ 48.7235802, -17.5434602 ], [ 48.7240489, -17.5440241 ], [ 48.7239651, -17.5448565 ], [ 48.7241926, -17.5457214 ], [ 48.7243249, -17.5465151 ], [ 48.7240839, -17.5468252 ], [ 48.7244983, -17.5475705 ], [ 48.7249224, -17.5483428 ], [ 48.7253338, -17.5496032 ], [ 48.7262549, -17.5509391 ], [ 48.726285, -17.5518334 ], [ 48.7263165, -17.5528452 ], [ 48.7263325, -17.5556284 ], [ 48.7263202, -17.5561527 ], [ 48.72654, -17.5571532 ], [ 48.7270578, -17.5578793 ], [ 48.7272204, -17.5588263 ], [ 48.727153299999983, -17.5594867 ], [ 48.7263979, -17.5601009 ], [ 48.72516, -17.560558 ], [ 48.7239667, -17.5608067 ], [ 48.7228076, -17.5607839 ], [ 48.7217005, -17.561149 ], [ 48.7209062, -17.5616642 ], [ 48.719155299999983, -17.5625338 ], [ 48.7186406, -17.5628109 ], [ 48.7180783, -17.5638023 ], [ 48.7173991, -17.5644879 ], [ 48.7170422, -17.5645733 ], [ 48.7159886, -17.5647029 ], [ 48.7146659, -17.5644018 ], [ 48.7138507, -17.5640045 ], [ 48.7128271, -17.5642692 ], [ 48.7123515, -17.5646633 ], [ 48.7112191, -17.5660227 ], [ 48.7103389, -17.5672167 ], [ 48.7095028, -17.5681661 ], [ 48.709334, -17.5682313 ], [ 48.7071423, -17.5692685 ], [ 48.7061351, -17.5701023 ], [ 48.7042345, -17.5703048 ], [ 48.7025638, -17.5700527 ], [ 48.7011748, -17.5697252 ], [ 48.7004768, -17.5689017 ], [ 48.700162, -17.568589 ], [ 48.6996108, -17.5689658 ], [ 48.6992264, -17.5698739 ], [ 48.6983297, -17.5705077 ], [ 48.6976754, -17.5709218 ], [ 48.6961738, -17.5713997 ], [ 48.6958327, -17.5720091 ], [ 48.6949003, -17.5727969 ], [ 48.6950293, -17.5733196 ], [ 48.6954404, -17.5738029 ], [ 48.6956737, -17.5743876 ], [ 48.695971899999989, -17.5756404 ], [ 48.6957163, -17.5778303 ], [ 48.6947413, -17.5797481 ], [ 48.693922099999988, -17.5813118 ], [ 48.6925166, -17.5842377 ], [ 48.6898216, -17.5887958 ], [ 48.6888796, -17.591111 ], [ 48.6873598, -17.5939387 ], [ 48.6846781, -17.59884 ], [ 48.6830322, -17.6021572 ], [ 48.6816443, -17.6042333 ], [ 48.6808533, -17.6065738 ], [ 48.6803732, -17.6073835 ], [ 48.6794127, -17.6082077 ], [ 48.6771322, -17.6105018 ], [ 48.675306, -17.6122033 ], [ 48.6742873, -17.6136607 ], [ 48.673862799999988, -17.6143975 ], [ 48.6727634, -17.615422 ], [ 48.6717267, -17.6154157 ], [ 48.6710268, -17.6152067 ], [ 48.6699989, -17.6159231 ], [ 48.669918, -17.6162403 ], [ 48.6701071, -17.6178287 ], [ 48.6699923, -17.6184626 ], [ 48.6696609, -17.6190989 ], [ 48.6678298, -17.6204118 ], [ 48.6663081, -17.6215947 ], [ 48.6654484, -17.6221918 ], [ 48.6644011, -17.6228633 ], [ 48.6626824, -17.6241207 ], [ 48.660628, -17.6249028 ], [ 48.6597731, -17.6243521 ], [ 48.6588404, -17.6236035 ], [ 48.6573214, -17.6226987 ], [ 48.6567439, -17.6224793 ], [ 48.6554375, -17.6219969 ], [ 48.6550844, -17.6216393 ], [ 48.6545652, -17.6207957 ], [ 48.6533753, -17.6198149 ], [ 48.653278, -17.619563 ], [ 48.6529789, -17.618997 ], [ 48.65277, -17.6180866 ], [ 48.6520448, -17.6165765 ], [ 48.6517193, -17.6161553 ], [ 48.6510142, -17.6155216 ], [ 48.6500803, -17.6154507 ], [ 48.6493378, -17.6163898 ], [ 48.6498623, -17.6176762 ], [ 48.6497503, -17.6193132 ], [ 48.6493362, -17.6201402 ], [ 48.6492334, -17.6209818 ], [ 48.6491914, -17.621407 ], [ 48.6489632, -17.6227922 ], [ 48.6490102, -17.6235598 ], [ 48.6495863, -17.62443 ], [ 48.65064180000001, -17.6252044 ], [ 48.6512918, -17.6259563 ], [ 48.651625, -17.6270099 ], [ 48.6518695, -17.6285163 ], [ 48.6519278, -17.6309828 ], [ 48.6519198, -17.6318775 ], [ 48.6517455, -17.6338134 ], [ 48.652068600000014, -17.6348129 ], [ 48.652897, -17.6362767 ], [ 48.6534782, -17.6367943 ], [ 48.6547903, -17.6377285 ], [ 48.6559408, -17.6385561 ], [ 48.6568243, -17.6399017 ], [ 48.6571503, -17.6411271 ], [ 48.6574427, -17.6426962 ], [ 48.6577946, -17.6444997 ], [ 48.6581503, -17.645065 ], [ 48.6586373, -17.6455837 ], [ 48.6602773, -17.6471287 ], [ 48.6610473, -17.6476623 ], [ 48.6622325, -17.6482364 ], [ 48.6631406, -17.6484973 ], [ 48.6650732, -17.6492979 ], [ 48.6651881, -17.6494412 ], [ 48.6653189, -17.6508856 ], [ 48.6652828, -17.6510216 ], [ 48.6650748, -17.652506 ], [ 48.665139700000012, -17.653192 ], [ 48.6652597, -17.6545191 ], [ 48.6653303, -17.655666 ], [ 48.6655067, -17.6562153 ], [ 48.6665023, -17.6574692 ], [ 48.6669783, -17.6578525 ], [ 48.6677638, -17.6588738 ], [ 48.6680639, -17.6602892 ], [ 48.6685016, -17.6613868 ], [ 48.6689764, -17.6624388 ], [ 48.6691426, -17.6629249 ], [ 48.6692607, -17.6648665 ], [ 48.6691987, -17.6651925 ], [ 48.6688676, -17.665865 ], [ 48.6686016, -17.6664644 ], [ 48.6687261, -17.6673938 ], [ 48.6695928, -17.668116 ], [ 48.6700579, -17.6683728 ], [ 48.6701324, -17.6690678 ], [ 48.6701116, -17.6696826 ], [ 48.6701393, -17.6711643 ], [ 48.670733, -17.6726848 ], [ 48.6708153, -17.6732442 ], [ 48.6708366, -17.674979 ], [ 48.6709454, -17.6761616 ], [ 48.6709181, -17.6770114 ], [ 48.6704278, -17.677767 ], [ 48.6698922, -17.6786767 ], [ 48.6700401, -17.6799763 ], [ 48.6699662, -17.6808628 ], [ 48.66976, -17.6817327 ], [ 48.6687611, -17.6832983 ], [ 48.66847150000001, -17.6835094 ], [ 48.6677492, -17.6845748 ], [ 48.6679401, -17.6855306 ], [ 48.6684036, -17.6864291 ], [ 48.6692833, -17.6874312 ], [ 48.6698619, -17.6884911 ], [ 48.6701502, -17.6896987 ], [ 48.6701663, -17.6902408 ], [ 48.6702335, -17.6911075 ], [ 48.6712961, -17.693183 ], [ 48.6716979, -17.6936575 ], [ 48.6723962, -17.6944809 ], [ 48.6731107, -17.6950783 ], [ 48.6734787, -17.6958694 ], [ 48.6734347, -17.6961229 ], [ 48.6723935, -17.6973185 ], [ 48.6723222, -17.6976537 ], [ 48.6716469, -17.6987096 ], [ 48.6715444, -17.6988102 ], [ 48.669873899999985, -17.7009708 ], [ 48.6693666, -17.701112 ], [ 48.6686023, -17.7026027 ], [ 48.6683059, -17.7030308 ], [ 48.6680219, -17.7037027 ], [ 48.6678546, -17.7054397 ], [ 48.6679132, -17.7063698 ], [ 48.6682483, -17.7067817 ], [ 48.6695366, -17.7072732 ], [ 48.669902, -17.7078474 ], [ 48.6699057, -17.7081547 ], [ 48.669654, -17.7091515 ], [ 48.6696503, -17.7096215 ], [ 48.6704838, -17.7099284 ], [ 48.6714346, -17.7098001 ], [ 48.672022, -17.7100285 ], [ 48.6728081, -17.711845 ], [ 48.6724763, -17.7124723 ], [ 48.6722173, -17.7128728 ], [ 48.6719641, -17.7137523 ], [ 48.6726843, -17.7148104 ], [ 48.673024700000013, -17.7148879 ], [ 48.673972499999984, -17.7152838 ], [ 48.6752168, -17.7160288 ], [ 48.6759655, -17.7163366 ], [ 48.6769567, -17.7171929 ], [ 48.6775731, -17.7190023 ], [ 48.6775685, -17.719391 ], [ 48.677361, -17.7201524 ], [ 48.677086400000015, -17.7208242 ], [ 48.6757988, -17.7211641 ], [ 48.6749781, -17.7211373 ], [ 48.67401670000001, -17.7211663 ], [ 48.6732395, -17.7216088 ], [ 48.6725432, -17.7232524 ], [ 48.672481, -17.7235603 ], [ 48.6725026, -17.7245541 ], [ 48.6726749, -17.7262872 ], [ 48.6724356, -17.7267689 ], [ 48.6722584, -17.7269245 ], [ 48.671763, -17.7272825 ], [ 48.6714101, -17.7277203 ], [ 48.6717679, -17.7284392 ], [ 48.6727149, -17.7280037 ], [ 48.6728733, -17.7278483 ], [ 48.673653099999989, -17.7276226 ], [ 48.6740631, -17.7279885 ], [ 48.6744716, -17.728996 ], [ 48.6743202, -17.7297206 ], [ 48.6739399, -17.730231 ], [ 48.6735071, -17.7310763 ], [ 48.67412070000001, -17.7318917 ], [ 48.6746115, -17.7319313 ], [ 48.6751297, -17.7318893 ], [ 48.6754183, -17.7308287 ], [ 48.6756939, -17.7294701 ], [ 48.6759179, -17.7292868 ], [ 48.676642, -17.729125 ], [ 48.6775931, -17.7290238 ], [ 48.6780233, -17.7287298 ], [ 48.6789809, -17.7283936 ], [ 48.6803114, -17.7284688 ], [ 48.6807539, -17.7284096 ], [ 48.681678, -17.7284081 ], [ 48.6821134, -17.7285387 ], [ 48.6832303, -17.7288784 ], [ 48.6835387, -17.7294171 ], [ 48.6836001, -17.729805 ], [ 48.6835223, -17.7303752 ], [ 48.683386, -17.7307925 ], [ 48.683289, -17.7320948 ], [ 48.683696, -17.7329848 ], [ 48.6844062, -17.7332207 ], [ 48.6854033, -17.7330196 ], [ 48.6861765, -17.7330199 ], [ 48.6871617, -17.7333791 ], [ 48.6881303, -17.7339284 ], [ 48.689368, -17.7348812 ], [ 48.6901576, -17.7361915 ], [ 48.6908406, -17.7372772 ], [ 48.6917779, -17.7383328 ], [ 48.6920728, -17.7385463 ], [ 48.6932639, -17.7395357 ], [ 48.6940738, -17.7402042 ], [ 48.6948061, -17.7407019 ], [ 48.6955888, -17.7414611 ], [ 48.6955967, -17.7420935 ], [ 48.6952551, -17.7426758 ], [ 48.6948136, -17.7435755 ], [ 48.6945202, -17.7442475 ], [ 48.6943861, -17.7448364 ], [ 48.6942937, -17.7457502 ], [ 48.6941757, -17.7468721 ], [ 48.6938061, -17.7482408 ], [ 48.6936374, -17.7490832 ], [ 48.693560500000011, -17.7497257 ], [ 48.6936142, -17.7510082 ], [ 48.6937846, -17.7518196 ], [ 48.6941361, -17.7527825 ], [ 48.6946161, -17.7534547 ], [ 48.6950503, -17.7534859 ], [ 48.6953623, -17.7527956 ], [ 48.6956263, -17.7520335 ], [ 48.6960023, -17.7511797 ], [ 48.6967209, -17.7505751 ], [ 48.6972102, -17.7504882 ], [ 48.6977511, -17.7507531 ], [ 48.698359, -17.7518576 ], [ 48.698463, -17.7526335 ], [ 48.6985114, -17.7534915 ], [ 48.6986621, -17.7542307 ], [ 48.699215, -17.7562124 ], [ 48.6992559, -17.756465 ], [ 48.6992862, -17.7573864 ], [ 48.6992758, -17.7580642 ], [ 48.6997172, -17.7586646 ], [ 48.7000479, -17.7587151 ], [ 48.70079710000001, -17.7582908 ], [ 48.7010231, -17.7582701 ], [ 48.701661, -17.7587508 ], [ 48.7028301, -17.7587193 ], [ 48.7027645, -17.7579971 ], [ 48.7023716, -17.7575046 ], [ 48.7024233, -17.7571064 ], [ 48.7027016, -17.7567417 ], [ 48.7031625, -17.7566461 ], [ 48.7040187, -17.7564826 ], [ 48.7048715, -17.7560481 ], [ 48.7060374, -17.7557636 ], [ 48.7066787, -17.7557653 ], [ 48.7068294, -17.7557545 ], [ 48.7078597, -17.7559415 ], [ 48.7089834, -17.756055 ], [ 48.7103107, -17.755859 ], [ 48.7104478, -17.754755 ], [ 48.7105215, -17.7546186 ], [ 48.7108761, -17.7543163 ], [ 48.711727499999988, -17.7545234 ], [ 48.7122296, -17.7547073 ], [ 48.712817400000013, -17.7549536 ], [ 48.7137558, -17.7553313 ], [ 48.7141996, -17.7553714 ], [ 48.715191800000014, -17.7540316 ], [ 48.715495399999988, -17.7534226 ], [ 48.7156358, -17.7533397 ], [ 48.7172731, -17.7530497 ], [ 48.718151, -17.7531209 ], [ 48.7185616, -17.7527727 ], [ 48.718782, -17.7523003 ], [ 48.7190777, -17.7518179 ], [ 48.7194855, -17.7512529 ], [ 48.7202318, -17.7506027 ], [ 48.722877, -17.7502287 ], [ 48.7236284, -17.7499851 ], [ 48.7242469, -17.7496707 ], [ 48.7253132, -17.7489806 ], [ 48.7269393, -17.7478051 ], [ 48.7273665, -17.747285 ], [ 48.7279807, -17.7466363 ], [ 48.7283349, -17.7463069 ], [ 48.7289149, -17.7459387 ], [ 48.729939, -17.7463786 ], [ 48.7301307, -17.7466294 ], [ 48.730268, -17.7470435 ], [ 48.731351900000014, -17.7477448 ], [ 48.7318579, -17.7474859 ], [ 48.732070900000011, -17.7471762 ], [ 48.7326728, -17.7455607 ], [ 48.7330884, -17.7448691 ], [ 48.7335301, -17.7440055 ], [ 48.7336092, -17.7435437 ], [ 48.733882899999983, -17.7428176 ], [ 48.7344197, -17.7420161 ], [ 48.7345754, -17.7416529 ], [ 48.7345742, -17.7408125 ], [ 48.7348059, -17.7397525 ], [ 48.7355818, -17.7392194 ], [ 48.7364371, -17.7397335 ], [ 48.7368134, -17.7404069 ], [ 48.7370922, -17.7408284 ], [ 48.7372568, -17.7411698 ], [ 48.7373659, -17.7415933 ], [ 48.7376071, -17.7420242 ], [ 48.7378225, -17.7419042 ], [ 48.73809, -17.7414312 ], [ 48.738338, -17.7409133 ], [ 48.7386548, -17.7406114 ], [ 48.7392566, -17.7404778 ], [ 48.739448399999986, -17.7407286 ], [ 48.7399424, -17.741012 ], [ 48.7404063, -17.7419012 ], [ 48.7414949, -17.7429729 ], [ 48.7416492, -17.7432422 ], [ 48.7420399, -17.7450449 ], [ 48.7432652, -17.7457355 ], [ 48.7445263, -17.746272 ], [ 48.7459584, -17.7461739 ], [ 48.7473299, -17.7457602 ], [ 48.7475173, -17.7456587 ], [ 48.7474855, -17.7446469 ], [ 48.7472149, -17.744135 ], [ 48.7476329, -17.7428922 ], [ 48.7482484, -17.7423518 ], [ 48.7489059, -17.7421453 ], [ 48.749823, -17.7423334 ], [ 48.7507131, -17.7426211 ], [ 48.7512766, -17.7424429 ], [ 48.7513407, -17.7422975 ], [ 48.751604, -17.7407582 ], [ 48.7518763, -17.7399237 ], [ 48.7520671, -17.7393612 ], [ 48.7528142, -17.7380512 ], [ 48.7535391, -17.7372204 ], [ 48.7541816, -17.7365803 ], [ 48.7551278, -17.7360993 ], [ 48.7563744, -17.7355064 ], [ 48.7567774, -17.7353119 ], [ 48.7580426, -17.7354416 ], [ 48.7587698, -17.7355234 ], [ 48.759615, -17.7352514 ], [ 48.759901, -17.7347601 ], [ 48.7602629, -17.734304 ], [ 48.7608333, -17.7339268 ], [ 48.7615621, -17.7334032 ], [ 48.7619041, -17.732866 ], [ 48.7618643, -17.7327038 ], [ 48.762203, -17.7311727 ], [ 48.762663, -17.7302817 ], [ 48.7629793, -17.7299436 ], [ 48.7637788, -17.7297896 ], [ 48.7647816, -17.7307809 ], [ 48.7650187, -17.7316185 ], [ 48.7648984, -17.7325326 ], [ 48.765449, -17.7342882 ], [ 48.7657147, -17.7344206 ], [ 48.7660649, -17.7345249 ], [ 48.7669911, -17.7339537 ], [ 48.7677795, -17.7329323 ], [ 48.7681578, -17.7322863 ], [ 48.7691951, -17.7322921 ], [ 48.7698283, -17.7331341 ], [ 48.7702425, -17.7338159 ], [ 48.7707284, -17.7341988 ], [ 48.7713758, -17.7339471 ], [ 48.7714033, -17.7324197 ], [ 48.7712069, -17.7318166 ], [ 48.7709326, -17.7310156 ], [ 48.770745, -17.7296262 ], [ 48.7712013, -17.729178 ], [ 48.7721028, -17.7296282 ], [ 48.7725424, -17.7300839 ], [ 48.7732664, -17.7306536 ], [ 48.7748334, -17.7315207 ], [ 48.7754483, -17.7316761 ], [ 48.7769626, -17.731378 ], [ 48.7772977, -17.7310397 ], [ 48.7775427, -17.7295639 ], [ 48.7775059, -17.7289047 ], [ 48.7770339, -17.7281331 ], [ 48.7754232, -17.7275287 ], [ 48.7740197, -17.7276447 ], [ 48.7732263, -17.7275366 ], [ 48.772544, -17.7272735 ], [ 48.7721742, -17.7271153 ], [ 48.7720756, -17.7260411 ], [ 48.7726259, -17.7255737 ], [ 48.7737822, -17.7253071 ], [ 48.77400990000001, -17.7254128 ], [ 48.7751389, -17.7259507 ], [ 48.775337299999983, -17.7259845 ], [ 48.7757256, -17.7253835 ], [ 48.7753282, -17.7238159 ], [ 48.7749226, -17.7230706 ], [ 48.7748056, -17.7227738 ], [ 48.7749814, -17.7217777 ], [ 48.775827799999981, -17.7208731 ], [ 48.7764468, -17.7206218 ], [ 48.7775046, -17.7207539 ], [ 48.7780353, -17.7209645 ], [ 48.7798094, -17.721079 ], [ 48.781085, -17.7212898 ], [ 48.7813346, -17.7216302 ], [ 48.7816411, -17.7220061 ], [ 48.782862599999987, -17.7224073 ], [ 48.783969700000014, -17.7219785 ], [ 48.7846353, -17.7216814 ], [ 48.7862322, -17.7212197 ], [ 48.786448, -17.7211358 ], [ 48.7881892, -17.7223531 ], [ 48.7887856, -17.7225357 ], [ 48.7897896, -17.7221533 ], [ 48.791411, -17.722125 ], [ 48.7914558, -17.7219437 ], [ 48.7924079, -17.7226553 ], [ 48.7925376, -17.7232049 ], [ 48.7934801, -17.7246305 ], [ 48.7944987, -17.7246545 ], [ 48.7950164, -17.7245851 ], [ 48.7956122, -17.7239906 ], [ 48.7957203, -17.7240588 ], [ 48.7968652, -17.7239124 ], [ 48.7980821, -17.724684 ], [ 48.7986113, -17.7255 ], [ 48.7988432, -17.725931 ], [ 48.7991533, -17.7273008 ], [ 48.799029, -17.7278896 ], [ 48.7989716, -17.72855 ], [ 48.7993786, -17.7293945 ], [ 48.799751, -17.7297515 ], [ 48.8000311, -17.7309861 ], [ 48.7998571, -17.7313858 ], [ 48.7992644, -17.7322152 ], [ 48.7984807, -17.7328571 ], [ 48.7970345, -17.7333081 ], [ 48.7965395, -17.7336754 ], [ 48.796007, -17.7347842 ], [ 48.795932, -17.7362671 ], [ 48.7958956, -17.7370988 ], [ 48.7959161, -17.737948 ], [ 48.7955871, -17.739479 ], [ 48.7952518, -17.7397993 ], [ 48.7944637, -17.7401069 ], [ 48.7930477, -17.7392654 ], [ 48.7922642, -17.7384705 ], [ 48.791652199999987, -17.738541 ], [ 48.7912721, -17.7397745 ], [ 48.7917239, -17.7404378 ], [ 48.7922216, -17.7410011 ], [ 48.7924093, -17.7416585 ], [ 48.7922036, -17.7425194 ], [ 48.7916038, -17.7428067 ], [ 48.7908883, -17.7428966 ], [ 48.790160299999982, -17.7427516 ], [ 48.788990699999985, -17.7427294 ], [ 48.788057, -17.7427224 ], [ 48.7872149, -17.7432294 ], [ 48.7869305, -17.7438383 ], [ 48.7869409, -17.7446424 ], [ 48.7873087, -17.7453699 ], [ 48.7892983, -17.7460872 ], [ 48.789709699999989, -17.7465432 ], [ 48.7906116, -17.7477343 ], [ 48.7910022, -17.7480459 ], [ 48.7913632, -17.7482494 ], [ 48.792948399999986, -17.7483209 ], [ 48.7938223, -17.7473526 ], [ 48.7941513, -17.7465445 ], [ 48.7945994, -17.7454728 ], [ 48.7951926, -17.7439567 ], [ 48.7954069, -17.7430324 ], [ 48.7962221, -17.7419022 ], [ 48.7970893, -17.7418738 ], [ 48.7973346, -17.7418889 ], [ 48.7981768, -17.7428367 ], [ 48.7982557, -17.7431069 ], [ 48.7982389, -17.7439836 ], [ 48.7979634, -17.745279 ], [ 48.7979051, -17.7458761 ], [ 48.7980222, -17.7461729 ], [ 48.7982138, -17.7464056 ], [ 48.7986691, -17.746608 ], [ 48.7994863, -17.7470862 ], [ 48.8003798, -17.7476267 ], [ 48.8007979, -17.7493205 ], [ 48.8005904, -17.7500459 ], [ 48.8001836, -17.7506652 ], [ 48.7997204, -17.7513033 ], [ 48.7992902, -17.7515795 ], [ 48.797736, -17.7517155 ], [ 48.7973119, -17.7517387 ], [ 48.7961805, -17.7524841 ], [ 48.7960807, -17.7527835 ], [ 48.7960493, -17.7532719 ], [ 48.7967, -17.7547189 ], [ 48.7967174, -17.7553332 ], [ 48.796723199999988, -17.7557759 ], [ 48.7968199, -17.7559645 ], [ 48.7969696, -17.7565952 ], [ 48.798137, -17.7571686 ], [ 48.7983624, -17.7578165 ], [ 48.7984882, -17.7587909 ], [ 48.7986508, -17.7604155 ], [ 48.798798, -17.7615794 ], [ 48.798983, -17.76202 ], [ 48.7994305, -17.762349 ], [ 48.8003553, -17.7623921 ], [ 48.8005908, -17.7623712 ], [ 48.8013645, -17.7616752 ], [ 48.801859, -17.7612717 ], [ 48.8027194, -17.7607192 ], [ 48.80322, -17.7607765 ], [ 48.8041366, -17.761633 ], [ 48.8047418, -17.763207 ], [ 48.8052933, -17.7642757 ], [ 48.8057725, -17.7648573 ], [ 48.8065345, -17.7654355 ], [ 48.8071048, -17.7657721 ], [ 48.8081251, -17.7659044 ], [ 48.8092512, -17.7654752 ], [ 48.8101525, -17.7651662 ], [ 48.8110281, -17.7650563 ], [ 48.8115951, -17.7651398 ], [ 48.8124928, -17.7652736 ], [ 48.8130117, -17.7652945 ], [ 48.8136688, -17.7650606 ], [ 48.814779, -17.7641346 ], [ 48.8160875, -17.7625195 ], [ 48.8166788, -17.7615816 ], [ 48.8172108, -17.7611596 ], [ 48.8180006, -17.7609784 ], [ 48.8191341, -17.7611183 ], [ 48.8194454, -17.7611236 ], [ 48.8211514, -17.7610488 ], [ 48.8218128, -17.7611402 ], [ 48.8222992, -17.761559 ], [ 48.8226425, -17.761844 ], [ 48.8233591, -17.7625492 ], [ 48.8246206, -17.7623804 ], [ 48.8251494, -17.7624372 ], [ 48.8259755, -17.762861 ], [ 48.8271798, -17.7633615 ], [ 48.828598, -17.7636335 ], [ 48.8297492, -17.7636828 ], [ 48.8309044, -17.7640302 ], [ 48.8319111, -17.7645692 ], [ 48.832982, -17.7649628 ], [ 48.833954899999988, -17.7650775 ], [ 48.8348543, -17.7646239 ], [ 48.835427300000013, -17.7644543 ], [ 48.8361999, -17.7643997 ], [ 48.8369495, -17.764743 ], [ 48.8378728, -17.7653824 ], [ 48.8386533, -17.7659241 ], [ 48.839185, -17.7661977 ], [ 48.839780599999983, -17.7663079 ], [ 48.840523, -17.7661092 ], [ 48.8407387, -17.7660162 ], [ 48.8408495, -17.7658341 ], [ 48.8406035, -17.765069 ], [ 48.8403691, -17.7644574 ], [ 48.84036, -17.7637708 ], [ 48.840778599999986, -17.763332 ], [ 48.8415398, -17.763133 ], [ 48.8427985, -17.7627562 ], [ 48.8438007, -17.762238 ], [ 48.844701500000014, -17.7611788 ], [ 48.8455408, -17.759759 ], [ 48.8465597, -17.7583731 ], [ 48.8469878, -17.7579432 ], [ 48.8479818, -17.7575154 ], [ 48.8501753, -17.7572356 ], [ 48.85199630000001, -17.7573037 ], [ 48.8524685, -17.7573522 ], [ 48.853356399999988, -17.7581726 ], [ 48.8538931, -17.7588167 ], [ 48.8541643, -17.7593555 ], [ 48.8545046, -17.7594146 ], [ 48.8548057, -17.7593657 ], [ 48.8551152, -17.7592354 ], [ 48.8557035, -17.7595083 ], [ 48.8566034, -17.7612232 ], [ 48.8570124, -17.762185 ], [ 48.857490399999989, -17.7626762 ], [ 48.8594202, -17.7617037 ], [ 48.8601182, -17.7617132 ], [ 48.8611095, -17.7618005 ], [ 48.862617, -17.7616916 ], [ 48.863548699999988, -17.7615537 ], [ 48.8639703, -17.7613407 ], [ 48.8642535, -17.7606595 ], [ 48.8642061, -17.7592324 ], [ 48.8642444, -17.7585723 ], [ 48.8646056, -17.7573751 ], [ 48.8646784, -17.7571754 ], [ 48.8649419, -17.7564313 ], [ 48.8651037, -17.7558329 ], [ 48.8649128, -17.754254 ], [ 48.8646344, -17.7538869 ], [ 48.8643356, -17.7534026 ], [ 48.862841, -17.7516409 ], [ 48.8626541, -17.7510649 ], [ 48.8624756, -17.7504075 ], [ 48.8625051, -17.7490878 ], [ 48.863004700000012, -17.7483679 ], [ 48.8631356, -17.7482849 ], [ 48.8638312, -17.7481228 ], [ 48.864380599999983, -17.7483058 ], [ 48.8648817, -17.7498177 ], [ 48.8652279, -17.7503195 ], [ 48.8659576, -17.7505816 ], [ 48.866702, -17.7505453 ], [ 48.8673187, -17.7501221 ], [ 48.868811799999989, -17.7489471 ], [ 48.8689339, -17.7489095 ], [ 48.8701428, -17.7490482 ], [ 48.8711132, -17.748982 ], [ 48.871186, -17.7487914 ], [ 48.871724400000012, -17.7481523 ], [ 48.8719763, -17.7479504 ], [ 48.872757, -17.7478052 ], [ 48.8733995, -17.7478967 ], [ 48.8739935, -17.7485942 ], [ 48.8743323, -17.7492496 ], [ 48.8748752, -17.7503543 ], [ 48.8754007, -17.7508629 ], [ 48.8762768, -17.7514936 ], [ 48.8770552, -17.7518816 ], [ 48.8784158, -17.7527774 ], [ 48.8788848, -17.7532957 ], [ 48.8790937, -17.7541064 ], [ 48.879216, -17.7547826 ], [ 48.8795595, -17.7557813 ], [ 48.8799658, -17.7565443 ], [ 48.881453, -17.7577367 ], [ 48.882446099999989, -17.7579504 ], [ 48.8827848, -17.757892 ], [ 48.883816, -17.7574364 ], [ 48.8844342, -17.7571306 ], [ 48.88509, -17.7568062 ], [ 48.8858755, -17.7570134 ], [ 48.8866878, -17.7571117 ], [ 48.8874382, -17.7568133 ], [ 48.887980400000011, -17.7564632 ], [ 48.8892378, -17.7559958 ], [ 48.889983299999983, -17.7560408 ], [ 48.8905771, -17.7567111 ], [ 48.8905506, -17.7582385 ], [ 48.8896651, -17.7590085 ], [ 48.8889233, -17.7599393 ], [ 48.8886058, -17.760874 ], [ 48.8886789, -17.7613971 ], [ 48.8889313, -17.7619271 ], [ 48.8895021, -17.7622995 ], [ 48.8908229, -17.7630331 ], [ 48.8909843, -17.7631124 ], [ 48.8917127, -17.7632841 ], [ 48.892608599999988, -17.763282 ], [ 48.89291080000001, -17.7633144 ], [ 48.8941754, -17.76338 ], [ 48.8947326, -17.7634363 ], [ 48.8953141, -17.763899 ], [ 48.8962085, -17.7644842 ], [ 48.8975486, -17.7645579 ], [ 48.8986754, -17.7642005 ], [ 48.9001124, -17.7644627 ], [ 48.9004183, -17.7647661 ], [ 48.9008031, -17.7653215 ], [ 48.9012149, -17.7657862 ], [ 48.9017926, -17.7659598 ], [ 48.902595, -17.766022 ], [ 48.9037357, -17.7659897 ], [ 48.9053602, -17.766864 ], [ 48.9056875, -17.7673569 ], [ 48.9059331, -17.7680767 ], [ 48.9058479, -17.7687464 ], [ 48.9055149, -17.7692204 ], [ 48.904170699999987, -17.7695444 ], [ 48.9036086, -17.7698225 ], [ 48.9027654, -17.7702306 ], [ 48.9020461, -17.7707365 ], [ 48.9010882, -17.7710376 ], [ 48.8992735, -17.7714397 ], [ 48.8993184, -17.772659 ], [ 48.8995372, -17.7734966 ], [ 48.8997203, -17.7737835 ], [ 48.8999987, -17.7741414 ], [ 48.9007474, -17.7751079 ], [ 48.9009481, -17.7753042 ], [ 48.9012436, -17.7755355 ], [ 48.9023823, -17.7753496 ], [ 48.9029625, -17.7750171 ], [ 48.9038051, -17.7745638 ], [ 48.9045574, -17.7744008 ], [ 48.9056994, -17.7744678 ], [ 48.906398599999989, -17.7745585 ], [ 48.9074118, -17.7748621 ], [ 48.9090882, -17.7753833 ], [ 48.9100457, -17.775055 ], [ 48.9109099, -17.7748002 ], [ 48.9120867, -17.7753367 ], [ 48.9122524, -17.7757322 ], [ 48.9127139, -17.7770727 ], [ 48.912945699999987, -17.7774674 ], [ 48.9136593, -17.7779283 ], [ 48.9147684, -17.7776524 ], [ 48.9149993, -17.7772971 ], [ 48.9151723, -17.7768431 ], [ 48.915556, -17.7759347 ], [ 48.9160289, -17.7753415 ], [ 48.917436800000011, -17.7755407 ], [ 48.9177038, -17.7757542 ], [ 48.9192032, -17.7764311 ], [ 48.919754300000015, -17.7760447 ], [ 48.9206243, -17.774832 ], [ 48.9209869, -17.774457 ], [ 48.9219435, -17.7740655 ], [ 48.9224889, -17.7739502 ], [ 48.9228367, -17.7738645 ], [ 48.9243226, -17.7735566 ], [ 48.92483, -17.772737 ], [ 48.92512, -17.7711883 ], [ 48.9251346, -17.7701851 ], [ 48.9256672, -17.7691393 ], [ 48.9263689, -17.7680462 ], [ 48.927544, -17.7670827 ], [ 48.9282158, -17.7672459 ], [ 48.9288697, -17.7674816 ], [ 48.9296849, -17.7677876 ], [ 48.9306607, -17.7674229 ], [ 48.9307479, -17.7669068 ], [ 48.9306444, -17.7655527 ], [ 48.9308359, -17.7650714 ], [ 48.9311681, -17.7645432 ], [ 48.9324205, -17.7630365 ], [ 48.9332078, -17.7626832 ], [ 48.9343245, -17.7622805 ], [ 48.9356131, -17.7620384 ], [ 48.9366709, -17.7621605 ], [ 48.937294900000012, -17.7622701 ], [ 48.9392313, -17.7625076 ], [ 48.9413249, -17.7625083 ], [ 48.9426795, -17.7622652 ], [ 48.943670399999988, -17.7616382 ], [ 48.9443321, -17.7610696 ], [ 48.9448998, -17.7605203 ], [ 48.9458937, -17.7601101 ], [ 48.9477959, -17.7599143 ], [ 48.9485466, -17.7596518 ], [ 48.9497159, -17.7589683 ], [ 48.950622200000012, -17.7583604 ], [ 48.951335, -17.7580803 ], [ 48.951993, -17.7579274 ], [ 48.95295, -17.7582585 ], [ 48.9532922, -17.758453 ], [ 48.9540505, -17.7587325 ], [ 48.9546545, -17.75877 ], [ 48.9552862, -17.7587619 ], [ 48.9560506, -17.7587974 ], [ 48.9572266, -17.7586017 ], [ 48.9589763, -17.7576126 ], [ 48.9594155, -17.7573269 ], [ 48.9597366, -17.7566812 ], [ 48.9600956, -17.7553755 ], [ 48.9602381, -17.7547683 ], [ 48.9606406, -17.7538777 ], [ 48.9616383, -17.7530608 ], [ 48.9621104, -17.7517537 ], [ 48.9627578, -17.7508419 ], [ 48.9627606, -17.7503629 ], [ 48.9627542, -17.7499022 ], [ 48.9638762, -17.7492193 ], [ 48.9647149, -17.7491814 ], [ 48.9659969, -17.749147 ], [ 48.967132, -17.7487259 ], [ 48.9675196, -17.7481246 ], [ 48.9676943, -17.7471284 ], [ 48.9677553, -17.7460886 ], [ 48.9682421, -17.7451607 ], [ 48.9691449, -17.7443089 ], [ 48.9697882, -17.7437856 ], [ 48.9701233, -17.7434741 ], [ 48.9709263, -17.7429036 ], [ 48.97158, -17.7424525 ], [ 48.972633, -17.7422312 ], [ 48.9734191, -17.7424832 ], [ 48.974311799999988, -17.7429325 ], [ 48.975382, -17.7432712 ], [ 48.9765915, -17.7434545 ], [ 48.9772935, -17.7437617 ], [ 48.9787862, -17.7439684 ], [ 48.9791438, -17.7439187 ], [ 48.980219299999987, -17.7439591 ], [ 48.9810787, -17.7433788 ], [ 48.982202099999981, -17.7428041 ], [ 48.9829157, -17.7425872 ], [ 48.9837898, -17.7423862 ], [ 48.9855268, -17.7425355 ], [ 48.986816, -17.7430249 ], [ 48.9881089, -17.7424299 ], [ 48.988495, -17.7417202 ], [ 48.9897737, -17.7407911 ], [ 48.9900142, -17.7404628 ], [ 48.9895754, -17.7394293 ], [ 48.9892155, -17.7386389 ], [ 48.9890163, -17.7378824 ], [ 48.9886712, -17.7368117 ], [ 48.9885764, -17.7360991 ], [ 48.9884953, -17.7350249 ], [ 48.9881763, -17.7337912 ], [ 48.9885175, -17.732576 ], [ 48.9892001, -17.731501 ], [ 48.9906041, -17.7307691 ], [ 48.9918156, -17.7304282 ], [ 48.9928057, -17.7290963 ], [ 48.9928311, -17.7282195 ], [ 48.9938629, -17.7278357 ], [ 48.9943065, -17.7265289 ], [ 48.995054, -17.7260494 ], [ 48.99631, -17.7255272 ], [ 48.9976719, -17.7251572 ], [ 48.9985467, -17.7236731 ], [ 48.9983538, -17.7226998 ], [ 48.9981317, -17.7216545 ], [ 48.9979656, -17.7205724 ], [ 48.9978215, -17.7197069 ], [ 48.9978625, -17.718604 ], [ 48.9981963, -17.7175335 ], [ 48.9989513, -17.7169184 ], [ 49.0000479, -17.7171301 ], [ 49.0005635, -17.7175933 ], [ 49.0012116, -17.7180909 ], [ 49.0020697, -17.7181069 ], [ 49.00324, -17.7181911 ], [ 49.0040311, -17.7181357 ], [ 49.0046743, -17.718281 ], [ 49.0056304, -17.7185577 ], [ 49.0057433, -17.7178786 ], [ 49.0058744, -17.717145 ], [ 49.0059255, -17.7167558 ], [ 49.0060558, -17.7159681 ], [ 49.0062224, -17.7150804 ], [ 49.004887, -17.714646 ], [ 49.0040239, -17.7142776 ], [ 49.0028307, -17.7145732 ], [ 49.0011276, -17.714803 ], [ 48.9999357, -17.7138517 ], [ 48.9987127, -17.7133615 ], [ 48.9976492, -17.7134927 ], [ 48.9966651, -17.713903 ], [ 48.9953201, -17.7147968 ], [ 48.9943697, -17.7155951 ], [ 48.9936212, -17.7160024 ], [ 48.9929579, -17.7164356 ], [ 48.9921952, -17.7164996 ], [ 48.9916927, -17.7162983 ], [ 48.9912651, -17.7153912 ], [ 48.9908393, -17.7146106 ], [ 48.9901182, -17.7136079 ], [ 48.9895669, -17.7126121 ], [ 48.9895189, -17.7118808 ], [ 48.9896206, -17.7110663 ], [ 48.9899478, -17.7101947 ], [ 48.9900134, -17.7088204 ], [ 48.9900027, -17.7080616 ], [ 48.990122, -17.7071565 ], [ 48.98975, -17.7061764 ], [ 48.989555, -17.7050404 ], [ 48.9897436, -17.7043694 ], [ 48.990192699999987, -17.70346 ], [ 48.9905855, -17.7025605 ], [ 48.990978100000014, -17.7016519 ], [ 48.9909171, -17.7013364 ], [ 48.9901948, -17.7015897 ], [ 48.9900308, -17.7006521 ], [ 48.9900696, -17.7000552 ], [ 48.9901718, -17.6992769 ], [ 48.9900758, -17.698483 ], [ 48.9901549, -17.6973977 ], [ 48.990303, -17.6965284 ], [ 48.990375, -17.6962835 ], [ 48.990972, -17.695833 ], [ 48.9912877, -17.6954947 ], [ 48.9916609, -17.6952188 ], [ 48.9919388, -17.6948718 ], [ 48.9923738, -17.694297 ], [ 48.992603, -17.6938332 ], [ 48.9926349, -17.6934172 ], [ 48.992533, -17.6928764 ], [ 48.9922842, -17.6926085 ], [ 48.9916911, -17.6919927 ], [ 48.9915419, -17.6914344 ], [ 48.9918565, -17.6910147 ], [ 48.9926566, -17.6909321 ], [ 48.993185, -17.6909705 ], [ 48.9940189, -17.691285 ], [ 48.9944544, -17.6914149 ], [ 48.9948977, -17.6914363 ], [ 48.9954097, -17.6916466 ], [ 48.995836, -17.6911261 ], [ 48.9960488, -17.6908432 ], [ 48.9962407, -17.690407 ], [ 48.9961017, -17.6899119 ], [ 48.9959726, -17.6894437 ], [ 48.9964611, -17.6886513 ], [ 48.996929, -17.6884103 ], [ 48.9976499, -17.6880577 ], [ 48.9979684, -17.687918 ], [ 48.9983432, -17.6877596 ], [ 48.998755, -17.6875464 ], [ 48.9990344, -17.6873079 ], [ 48.9991779, -17.686782 ], [ 48.9990889, -17.686485 ], [ 48.9985, -17.6861673 ], [ 48.997826, -17.6858326 ], [ 48.9976768, -17.6852744 ], [ 48.9978952, -17.6847204 ], [ 48.9982307, -17.684445 ], [ 48.9988803, -17.6843914 ], [ 48.9996225, -17.6842102 ], [ 49.0001169, -17.6838423 ], [ 49.0006449, -17.683185 ], [ 49.0007718, -17.6828219 ], [ 49.0006216, -17.6822004 ], [ 48.9998671, -17.6814963 ], [ 48.9993607, -17.6810149 ], [ 48.9991826, -17.6804119 ], [ 48.9991579, -17.6799965 ], [ 48.9991041, -17.6795184 ], [ 48.999076599999988, -17.6789043 ], [ 48.9988987, -17.6783193 ], [ 48.9986348, -17.6783227 ], [ 48.9981055, -17.6788897 ], [ 48.9977297, -17.6789759 ], [ 48.9972596, -17.6790633 ], [ 48.9962975, -17.6790124 ], [ 48.9957719, -17.6785042 ], [ 48.995521, -17.6780827 ], [ 48.9952006, -17.6774182 ], [ 48.9951593, -17.6771658 ], [ 48.9952413, -17.6762883 ], [ 48.9956773, -17.6757857 ], [ 48.9964568, -17.6755859 ], [ 48.9972753, -17.6754759 ], [ 48.9979889, -17.675286 ], [ 48.9989931, -17.6749749 ], [ 48.9994534, -17.6748605 ], [ 49.0000337, -17.6745729 ], [ 49.0005212, -17.6743859 ], [ 49.0011269, -17.6745588 ], [ 49.0019644, -17.6751353 ], [ 49.0030084, -17.6749772 ], [ 49.0034986, -17.6743113 ], [ 49.0036433, -17.6738757 ], [ 49.003845, -17.6734755 ], [ 49.0045066, -17.6729339 ], [ 49.0045465, -17.6724183 ], [ 49.0042307, -17.6720791 ], [ 49.0035421, -17.6720428 ], [ 49.0029848, -17.6719596 ], [ 49.0025618, -17.6713688 ], [ 49.0025267, -17.6708813 ], [ 49.0025219, -17.670538 ], [ 49.0020482, -17.6690262 ], [ 49.0020044, -17.668593 ], [ 49.0018221, -17.6676918 ], [ 49.0016858, -17.6673864 ], [ 49.0014269, -17.6670735 ], [ 49.0010747, -17.666825 ], [ 49.0004117, -17.6665896 ], [ 48.9996666, -17.666554 ], [ 48.9985977, -17.6662787 ], [ 48.9984904, -17.6660271 ], [ 48.998431, -17.66582 ], [ 48.9985586, -17.6648425 ], [ 48.998853499999989, -17.6643599 ], [ 48.9990548, -17.6639326 ], [ 48.9991528, -17.6635247 ], [ 48.9991815, -17.6628828 ], [ 48.998666, -17.6624196 ], [ 48.9979188, -17.6622305 ], [ 48.9971461, -17.6622404 ], [ 48.9958221, -17.6619232 ], [ 48.9951631, -17.6619768 ], [ 48.9940112, -17.661829 ], [ 48.9934761, -17.6619805 ], [ 48.9927835, -17.6623237 ], [ 48.9921209, -17.6627931 ], [ 48.9915138, -17.6631894 ], [ 48.9908018, -17.6634968 ], [ 48.989345199999988, -17.6638046 ], [ 48.9886954, -17.6638401 ], [ 48.9877918, -17.663924 ], [ 48.9874523, -17.6639103 ], [ 48.9869409, -17.6637361 ], [ 48.9863155, -17.6635002 ], [ 48.9857859, -17.6633715 ], [ 48.9849605, -17.6629845 ], [ 48.9847302, -17.6626893 ], [ 48.9843829, -17.6621155 ], [ 48.9843604, -17.6618537 ], [ 48.9843209, -17.66105 ], [ 48.9834889, -17.6601843 ], [ 48.982986399999987, -17.6599738 ], [ 48.9826874, -17.6594807 ], [ 48.9824968, -17.6586609 ], [ 48.9816329, -17.6582112 ], [ 48.9810313, -17.6576496 ], [ 48.9806392, -17.657239 ], [ 48.9802832, -17.6567195 ], [ 48.9801862, -17.6565219 ], [ 48.97956520000001, -17.6565931 ], [ 48.9787717, -17.6557901 ], [ 48.978571, -17.6549072 ], [ 48.9784745, -17.6540681 ], [ 48.9788049, -17.6534313 ], [ 48.9791716, -17.6526948 ], [ 48.979484, -17.6521215 ], [ 48.9796201, -17.6517403 ], [ 48.9796636, -17.6514777 ], [ 48.9798172, -17.6510058 ], [ 48.9801528, -17.6500618 ], [ 48.9802646, -17.6492924 ], [ 48.9802478, -17.6487685 ], [ 48.9798873, -17.6485924 ], [ 48.9794904, -17.6485162 ], [ 48.9788221, -17.6485789 ], [ 48.9785677, -17.6485822 ], [ 48.9782256, -17.6490564 ], [ 48.9778174, -17.6502001 ], [ 48.9774887, -17.6509543 ], [ 48.9769616, -17.6516839 ], [ 48.975562, -17.6513404 ], [ 48.975009199999981, -17.6515733 ], [ 48.9746323, -17.6522558 ], [ 48.9743276, -17.6527115 ], [ 48.973428, -17.6530844 ], [ 48.9717462, -17.6527806 ], [ 48.9709835, -17.6528265 ], [ 48.9702109, -17.6535231 ], [ 48.9696675, -17.6537559 ], [ 48.9691991, -17.6539607 ], [ 48.9678382, -17.6543666 ], [ 48.965993, -17.6545166 ], [ 48.9640012, -17.6542889 ], [ 48.9631742, -17.6537754 ], [ 48.9624658, -17.6529802 ], [ 48.9624579, -17.6524111 ], [ 48.9625038, -17.6516424 ], [ 48.9623762, -17.6505959 ], [ 48.9621361, -17.6495869 ], [ 48.9611468, -17.6496086 ], [ 48.9597726, -17.6497344 ], [ 48.9593296, -17.649731 ], [ 48.9586413, -17.6497127 ], [ 48.958353500000015, -17.6493459 ], [ 48.9581922, -17.6485799 ], [ 48.9580235, -17.6479676 ], [ 48.957805, -17.6478438 ], [ 48.9567179, -17.6476046 ], [ 48.9558893, -17.6476603 ], [ 48.955241400000013, -17.6478312 ], [ 48.95497, -17.6479702 ], [ 48.9541344, -17.6481976 ], [ 48.9530198, -17.648013 ], [ 48.952668599999988, -17.6478367 ], [ 48.9518277, -17.6463112 ], [ 48.9513666, -17.6456755 ], [ 48.9508148, -17.6446163 ], [ 48.9503112, -17.6436378 ], [ 48.9491408, -17.6428213 ], [ 48.9486593, -17.6420683 ], [ 48.9480024, -17.640902 ], [ 48.9480957, -17.6401508 ], [ 48.9479263, -17.6387976 ], [ 48.9473481, -17.6378652 ], [ 48.9473669, -17.6371782 ], [ 48.9476158, -17.6367775 ], [ 48.9479971, -17.6364022 ], [ 48.9485562, -17.6359433 ], [ 48.9487137, -17.6357516 ], [ 48.9491087, -17.6350056 ], [ 48.9492446, -17.6346063 ], [ 48.9490582, -17.6340756 ], [ 48.9483852, -17.6337859 ], [ 48.947505899999989, -17.6335801 ], [ 48.9463198, -17.6329897 ], [ 48.9462959, -17.6326196 ], [ 48.9463636, -17.6320585 ], [ 48.9465554, -17.6316133 ], [ 48.9467505, -17.631412 ], [ 48.9469053, -17.6310215 ], [ 48.9465107, -17.6304211 ], [ 48.9456844, -17.6292659 ], [ 48.9457005, -17.6290669 ], [ 48.9455797, -17.6284992 ], [ 48.9457383, -17.627702 ], [ 48.945929, -17.6271755 ], [ 48.9460512, -17.6264692 ], [ 48.9459224, -17.62601 ], [ 48.9453986, -17.62561 ], [ 48.9447388, -17.6255912 ], [ 48.9438351, -17.6256658 ], [ 48.9435159, -17.6257512 ], [ 48.942814, -17.6261034 ], [ 48.9425339, -17.6262967 ], [ 48.9414538, -17.6265543 ], [ 48.9399349, -17.6271156 ], [ 48.9384924, -17.6270615 ], [ 48.9383659, -17.6267739 ], [ 48.938072600000012, -17.6260005 ], [ 48.9382513, -17.6252844 ], [ 48.9383971, -17.6249211 ], [ 48.9385316, -17.6244225 ], [ 48.937718, -17.6241887 ], [ 48.93671, -17.6242105 ], [ 48.9354381, -17.6242265 ], [ 48.9349397, -17.624305 ], [ 48.9335026, -17.6239526 ], [ 48.9320995, -17.6233377 ], [ 48.9311391, -17.6226992 ], [ 48.9305081, -17.6220384 ], [ 48.9311895, -17.62156 ], [ 48.9310364, -17.6213902 ], [ 48.9307367, -17.6208338 ], [ 48.9303192, -17.6199354 ], [ 48.9299963, -17.619063 ], [ 48.9298535, -17.6182605 ], [ 48.9297636, -17.6178912 ], [ 48.9295637, -17.6170534 ], [ 48.9292841, -17.616587 ], [ 48.9291733, -17.6160643 ], [ 48.9289655, -17.615335 ], [ 48.9287764, -17.6145964 ], [ 48.9284666, -17.6139858 ], [ 48.928339, -17.6136169 ], [ 48.9282796, -17.6134008 ], [ 48.9281551, -17.6132578 ], [ 48.9278725, -17.6111921 ], [ 48.9277881, -17.6105245 ], [ 48.9280748, -17.6087498 ], [ 48.9287249, -17.6080549 ], [ 48.9292573, -17.6063224 ], [ 48.9288855, -17.605315 ], [ 48.927861799999988, -17.6041803 ], [ 48.9270435, -17.6035941 ], [ 48.9256711, -17.6031414 ], [ 48.9243863, -17.6028955 ], [ 48.9240004, -17.6022316 ], [ 48.92478, -17.6006677 ], [ 48.926039, -17.5997122 ], [ 48.9267144, -17.5988001 ], [ 48.9282605, -17.5974795 ], [ 48.929386, -17.5964082 ], [ 48.9298292, -17.5950563 ], [ 48.9293915, -17.5947365 ], [ 48.9283707, -17.5945053 ], [ 48.9261844, -17.5944694 ], [ 48.925096, -17.5941126 ], [ 48.9244699, -17.5937951 ], [ 48.9239077, -17.5926365 ], [ 48.9242931, -17.5911859 ], [ 48.925075, -17.5897936 ], [ 48.9252241, -17.5889785 ], [ 48.9252001, -17.5879125 ], [ 48.9252286, -17.5872344 ], [ 48.9252254, -17.5869995 ], [ 48.925333, -17.5859048 ], [ 48.9255775, -17.5851789 ], [ 48.9266147, -17.5838557 ], [ 48.9261685, -17.5829124 ], [ 48.9254006, -17.5825606 ], [ 48.923714, -17.5832413 ], [ 48.9224694, -17.5838623 ], [ 48.9219763, -17.5843203 ], [ 48.9209563, -17.5855258 ], [ 48.9201842, -17.5862493 ], [ 48.9186761, -17.5869006 ], [ 48.917543300000013, -17.5860382 ], [ 48.9169503, -17.5846902 ], [ 48.9167826, -17.5834363 ], [ 48.9158361, -17.5824179 ], [ 48.9148882, -17.5813002 ], [ 48.9146229, -17.5804903 ], [ 48.9145441, -17.5795425 ], [ 48.914838, -17.5782828 ], [ 48.9149395, -17.5767363 ], [ 48.9141337, -17.5756711 ], [ 48.9131727, -17.5749692 ], [ 48.9125935, -17.574633 ], [ 48.9111975, -17.5745058 ], [ 48.9089305, -17.5754556 ], [ 48.9064818, -17.5762089 ], [ 48.9037129, -17.5762794 ], [ 48.9028352, -17.5747632 ], [ 48.901497, -17.573334 ], [ 48.9001455, -17.5716157 ], [ 48.8991039, -17.5705172 ], [ 48.898518, -17.5689792 ], [ 48.8986984, -17.5676848 ], [ 48.8987587, -17.5658587 ], [ 48.898130099999989, -17.5639508 ], [ 48.8970719, -17.5623193 ], [ 48.896336899999987, -17.5615964 ], [ 48.8946853, -17.560668 ], [ 48.8933409, -17.5594647 ], [ 48.8918881, -17.5579013 ], [ 48.890478, -17.5567168 ], [ 48.8893516, -17.5556102 ], [ 48.8884886, -17.5551781 ], [ 48.8872664, -17.5539461 ], [ 48.8870508, -17.5533252 ], [ 48.8868794, -17.5517731 ], [ 48.8867747, -17.5509882 ], [ 48.8853872, -17.5507794 ], [ 48.8841075, -17.5508855 ], [ 48.8822224, -17.551505 ], [ 48.880741, -17.5513244 ], [ 48.879491699999988, -17.5508789 ], [ 48.8782837, -17.550713 ], [ 48.8776134, -17.5513086 ], [ 48.8779471, -17.5530214 ], [ 48.8778755, -17.5540072 ], [ 48.8770605, -17.5550564 ], [ 48.8776925, -17.5565397 ], [ 48.877984, -17.5572048 ], [ 48.8785619, -17.5574507 ], [ 48.8793415, -17.5572785 ], [ 48.8797918, -17.5578423 ], [ 48.8798703, -17.5587901 ], [ 48.8799267, -17.5594852 ], [ 48.8799719, -17.5600449 ], [ 48.880587, -17.5609591 ], [ 48.8811171, -17.5618562 ], [ 48.8812457, -17.5623155 ], [ 48.8808417, -17.5631066 ], [ 48.880211, -17.5638463 ], [ 48.8798497, -17.5643025 ], [ 48.8804163, -17.564404 ], [ 48.8807506, -17.5647523 ], [ 48.8807483, -17.5652855 ], [ 48.8801251, -17.5665854 ], [ 48.8799625, -17.5671115 ], [ 48.879836299999987, -17.5675377 ], [ 48.8794231, -17.568338 ], [ 48.8786381, -17.5688175 ], [ 48.8779369, -17.5692147 ], [ 48.8775492, -17.5698158 ], [ 48.877356400000011, -17.5709026 ], [ 48.8773188, -17.5716169 ], [ 48.8773096, -17.5723399 ], [ 48.8776968, -17.5731123 ], [ 48.8781861, -17.573775 ], [ 48.8786048, -17.5740861 ], [ 48.8795218, -17.5743279 ], [ 48.8803542, -17.5745797 ], [ 48.8805821, -17.5754173 ], [ 48.8803989, -17.5765129 ], [ 48.8795986, -17.5779595 ], [ 48.8793914, -17.5793808 ], [ 48.8790682, -17.5798727 ], [ 48.8774992, -17.5816088 ], [ 48.8770491, -17.5824728 ], [ 48.8768102, -17.5836324 ], [ 48.8767989, -17.5842018 ], [ 48.8767764, -17.5853407 ], [ 48.8766152, -17.5859661 ], [ 48.876406599999989, -17.5865741 ], [ 48.8760067, -17.5876724 ], [ 48.8755459, -17.589151 ], [ 48.8754123, -17.589731 ], [ 48.875320200000012, -17.5913044 ], [ 48.8754506, -17.592604 ], [ 48.8754069, -17.5942763 ], [ 48.8751819, -17.59577 ], [ 48.875156, -17.5966559 ], [ 48.8748174, -17.5981149 ], [ 48.8742736, -17.59973 ], [ 48.8736391, -17.6009035 ], [ 48.8731396, -17.6023102 ], [ 48.8728032, -17.603227 ], [ 48.8726683, -17.6044124 ], [ 48.8728464, -17.6057566 ], [ 48.8730152, -17.6064052 ], [ 48.8734383, -17.6077464 ], [ 48.8734072, -17.6089486 ], [ 48.8735506, -17.6098143 ], [ 48.8737885, -17.6114018 ], [ 48.8740924, -17.6122836 ], [ 48.8738642, -17.6128376 ], [ 48.8738561, -17.613642 ], [ 48.874088, -17.6147777 ], [ 48.8742404, -17.6149023 ], [ 48.874897, -17.616087 ], [ 48.8749657, -17.616294 ], [ 48.8748871, -17.6174607 ], [ 48.8742551, -17.618119 ], [ 48.8737794, -17.6184863 ], [ 48.8726014, -17.6191875 ], [ 48.8719738, -17.6194663 ], [ 48.8705694, -17.6201522 ], [ 48.8696522, -17.6206243 ], [ 48.8690697, -17.6214628 ], [ 48.8687947, -17.6220444 ], [ 48.8686257, -17.6227965 ], [ 48.8688743, -17.6237694 ], [ 48.8692689, -17.6243881 ], [ 48.8696429, -17.6248805 ], [ 48.870133499999987, -17.6256245 ], [ 48.8705013, -17.6263519 ], [ 48.8710712, -17.628107 ], [ 48.871279, -17.6288454 ], [ 48.8714921, -17.6299904 ], [ 48.8715795, -17.6315978 ], [ 48.8713695, -17.633516 ], [ 48.8710836, -17.6346852 ], [ 48.8708707, -17.6356818 ] ] ] } }
]
}
