{
"type": "FeatureCollection",
"name": "MDG-555697892-NODATE-secondary_zoning-001",
"crs": { "type": "name", "properties": { "name": "urn:ogc:def:crs:OGC:1.3:CRS84" } },
"features": [
{ "type": "Feature", "properties": { }, "geometry": { "type": "MultiPolygon", "coordinates": [ [ [ [ 47.7156626, -23.2178901 ], [ 47.715533600000015, -23.2179053 ], [ 47.7153564, -23.2178496 ], [ 47.7152248, -23.2177484 ], [ 47.7151084, -23.2176776 ], [ 47.715068, -23.2176548 ], [ 47.7150123, -23.2176042 ], [ 47.715035099999987, -23.2175232 ], [ 47.7150096, -23.2174736 ], [ 47.7149513, -23.2174687 ], [ 47.7146394, -23.2174018 ], [ 47.7140602, -23.2168994 ], [ 47.7134488, -23.2166296 ], [ 47.7127483, -23.217538 ], [ 47.7127592, -23.218424 ], [ 47.7129537, -23.2190351 ], [ 47.712537, -23.2199518 ], [ 47.7115647, -23.220424 ], [ 47.7122037, -23.221924 ], [ 47.7124815, -23.2227574 ], [ 47.7131204, -23.2233963 ], [ 47.7137593, -23.2236463 ], [ 47.7148705, -23.223813 ], [ 47.7156483, -23.2236185 ], [ 47.7169261, -23.2235074 ], [ 47.7178151, -23.2232852 ], [ 47.718454, -23.2224796 ], [ 47.7188333, -23.2219033 ], [ 47.7188029, -23.2218249 ], [ 47.7188485, -23.2217692 ], [ 47.718775099999988, -23.2216224 ], [ 47.7186941, -23.2214908 ], [ 47.7185777, -23.2214706 ], [ 47.7184411, -23.2215187 ], [ 47.7183221, -23.2214428 ], [ 47.7183019, -23.2213618 ], [ 47.7184562, -23.221339 ], [ 47.71856, -23.2213112 ], [ 47.7186207, -23.2212049 ], [ 47.7186435, -23.2210455 ], [ 47.7185144, -23.2209822 ], [ 47.7184031, -23.2210025 ], [ 47.7183196, -23.2208532 ], [ 47.718517, -23.220752 ], [ 47.7181369, -23.2196295 ], [ 47.7183201, -23.2192186 ], [ 47.7182211, -23.2182285 ], [ 47.7172879, -23.2171692 ], [ 47.7163711, -23.2175536 ], [ 47.715946, -23.2176472 ], [ 47.7158954, -23.2176548 ], [ 47.7157891, -23.2178041 ], [ 47.7156626, -23.2178901 ] ] ], [ [ [ 47.6982008, -23.1850622 ], [ 47.6980347, -23.1850622 ], [ 47.6977536, -23.1849983 ], [ 47.6975748, -23.1849727 ], [ 47.6975748, -23.1846789 ], [ 47.6975237, -23.1842445 ], [ 47.6975237, -23.1839506 ], [ 47.6971531, -23.1838484 ], [ 47.6970141, -23.1840538 ], [ 47.6969359, -23.1843211 ], [ 47.6971276, -23.1846405 ], [ 47.6972937, -23.1848705 ], [ 47.6971915, -23.1851133 ], [ 47.697217, -23.1854454 ], [ 47.6971404, -23.1857521 ], [ 47.6970509, -23.186212 ], [ 47.6968831, -23.1862391 ], [ 47.6968684, -23.1862017 ], [ 47.6968892, -23.1860459 ], [ 47.69679570000001, -23.1858589 ], [ 47.6966191, -23.1858278 ], [ 47.6965672, -23.1859836 ], [ 47.6964529, -23.1861498 ], [ 47.6963179, -23.1861809 ], [ 47.6961621, -23.1862433 ], [ 47.6961205, -23.1864822 ], [ 47.6963283, -23.1865964 ], [ 47.6964322, -23.1866899 ], [ 47.6966087, -23.1867211 ], [ 47.6966791, -23.1870047 ], [ 47.6968061, -23.18723 ], [ 47.6968563, -23.1875315 ], [ 47.6967334, -23.1876974 ], [ 47.696556799999989, -23.1875001 ], [ 47.696494500000014, -23.1873339 ], [ 47.6962452, -23.1873858 ], [ 47.6961205, -23.1872923 ], [ 47.6960063, -23.1872404 ], [ 47.6957985, -23.1872716 ], [ 47.6956116, -23.1872612 ], [ 47.6954765, -23.1873962 ], [ 47.695435, -23.1876663 ], [ 47.6957778, -23.1878948 ], [ 47.6956947, -23.1880714 ], [ 47.6954765, -23.1879571 ], [ 47.6952584, -23.1879052 ], [ 47.6949156, -23.1879363 ], [ 47.6948013, -23.1880714 ], [ 47.6948866, -23.1882358 ], [ 47.6949546, -23.1883515 ], [ 47.6947286, -23.1884661 ], [ 47.6948013, -23.1885492 ], [ 47.6950403, -23.1884972 ], [ 47.6951337, -23.188653 ], [ 47.695113, -23.1888088 ], [ 47.6948325, -23.1887881 ], [ 47.6945832, -23.1887777 ], [ 47.6945313, -23.1889335 ], [ 47.6947806, -23.1890997 ], [ 47.6948844, -23.1891828 ], [ 47.6948637, -23.1893282 ], [ 47.6946663, -23.1893282 ], [ 47.6947494, -23.1894632 ], [ 47.6948844, -23.1895775 ], [ 47.6951026, -23.1896086 ], [ 47.6952272, -23.1897748 ], [ 47.6951961, -23.1900137 ], [ 47.6953207, -23.1901695 ], [ 47.6953311, -23.1903045 ], [ 47.695206399999989, -23.1905746 ], [ 47.6950922, -23.1908966 ], [ 47.6948735, -23.1910861 ], [ 47.6946871, -23.1910316 ], [ 47.694604, -23.1908343 ], [ 47.6944973, -23.1906228 ], [ 47.6945105, -23.1904292 ], [ 47.6946871, -23.1903045 ], [ 47.694604, -23.1901695 ], [ 47.6946975, -23.1900345 ], [ 47.6946559, -23.1898579 ], [ 47.6944793, -23.1897333 ], [ 47.6941469, -23.189806 ], [ 47.6939911, -23.189619 ], [ 47.6938249, -23.1895048 ], [ 47.6936795, -23.1896086 ], [ 47.693638, -23.1897437 ], [ 47.6934614, -23.1898475 ], [ 47.6933679, -23.1900656 ], [ 47.6932952, -23.1902007 ], [ 47.6933471, -23.1903876 ], [ 47.6934925, -23.1904915 ], [ 47.693638, -23.1903876 ], [ 47.6937315, -23.1905019 ], [ 47.6936899, -23.1906577 ], [ 47.6935341, -23.1906889 ], [ 47.6934406, -23.1908239 ], [ 47.6934718, -23.1909693 ], [ 47.6936108, -23.1910909 ], [ 47.6936587, -23.1912809 ], [ 47.693679499999988, -23.191551 ], [ 47.6938561, -23.1917172 ], [ 47.6939911, -23.1917691 ], [ 47.6941262, -23.1918314 ], [ 47.6942924, -23.1916964 ], [ 47.6944482, -23.1915925 ], [ 47.6946144, -23.1917276 ], [ 47.694417, -23.1919976 ], [ 47.6942612, -23.1922469 ], [ 47.6941366, -23.1924858 ], [ 47.6939452, -23.1925929 ], [ 47.6938249, -23.1924962 ], [ 47.6935964, -23.1925066 ], [ 47.6933887, -23.1925793 ], [ 47.6932432, -23.1924443 ], [ 47.6930667, -23.1922781 ], [ 47.6928589, -23.1922469 ], [ 47.692755, -23.1923404 ], [ 47.6926632, -23.1924457 ], [ 47.6925473, -23.1926416 ], [ 47.6923188, -23.1927247 ], [ 47.6921837, -23.1929324 ], [ 47.692298, -23.1931921 ], [ 47.692433, -23.1933271 ], [ 47.6926304, -23.1933168 ], [ 47.6927966, -23.1931506 ], [ 47.6929524, -23.1930779 ], [ 47.6931082, -23.1930779 ], [ 47.693212100000011, -23.1931506 ], [ 47.693336, -23.1930905 ], [ 47.6936691, -23.193109 ], [ 47.6939067, -23.1931709 ], [ 47.6938249, -23.1934102 ], [ 47.6938976, -23.1936907 ], [ 47.6940223, -23.1938361 ], [ 47.6939807, -23.1939504 ], [ 47.6939879, -23.1941841 ], [ 47.6941138, -23.1944359 ], [ 47.6943314, -23.1946191 ], [ 47.6943428, -23.1948824 ], [ 47.6942856, -23.1951114 ], [ 47.6942283, -23.1953633 ], [ 47.6943314, -23.1956037 ], [ 47.6945489, -23.195764 ], [ 47.6946634, -23.1960044 ], [ 47.6946977, -23.196302 ], [ 47.6946863, -23.1965196 ], [ 47.6947206, -23.1966913 ], [ 47.6946977, -23.1968516 ], [ 47.6947206, -23.1970691 ], [ 47.6948122, -23.1973553 ], [ 47.6947435, -23.1975041 ], [ 47.6945489, -23.1975499 ], [ 47.6942054, -23.1974698 ], [ 47.6939879, -23.1971721 ], [ 47.6940337, -23.1969661 ], [ 47.6941367, -23.1967829 ], [ 47.69426270000001, -23.1966455 ], [ 47.6941825, -23.1964509 ], [ 47.6941367, -23.1961647 ], [ 47.694068, -23.1958784 ], [ 47.6938505, -23.1957869 ], [ 47.693598599999987, -23.1956838 ], [ 47.6935414, -23.1954777 ], [ 47.6935872, -23.1952144 ], [ 47.693633, -23.1949855 ], [ 47.6935986, -23.1947565 ], [ 47.693507, -23.194539 ], [ 47.6934527, -23.1942084 ], [ 47.6930519, -23.1942513 ], [ 47.6929231, -23.195067 ], [ 47.6928888, -23.1953289 ], [ 47.6927285, -23.1957869 ], [ 47.692614, -23.1962333 ], [ 47.6923188, -23.1965367 ], [ 47.692157, -23.1967214 ], [ 47.6919592, -23.1968388 ], [ 47.691788, -23.1971714 ], [ 47.6919656, -23.1975235 ], [ 47.6919968, -23.1976273 ], [ 47.6922746, -23.1980073 ], [ 47.6924119, -23.1981695 ], [ 47.6925616, -23.1984066 ], [ 47.6929035, -23.1986046 ], [ 47.6931407, -23.1987864 ], [ 47.6934378, -23.1988549 ], [ 47.6932662, -23.1990602 ], [ 47.6939833, -23.199559199999985 ], [ 47.6949669, -23.2001715 ], [ 47.6953016, -23.2004546 ], [ 47.6956815, -23.2007759 ], [ 47.6964317, -23.2011381 ], [ 47.6970356, -23.2014992 ], [ 47.697447499999988, -23.2018376 ], [ 47.6977317, -23.2019442 ], [ 47.6979686, -23.2020982 ], [ 47.6982055, -23.2022758 ], [ 47.6983832, -23.2024417 ], [ 47.6985846, -23.2027259 ], [ 47.6988096, -23.2030576 ], [ 47.6990228, -23.2033063 ], [ 47.6992478, -23.2035669 ], [ 47.6996269, -23.2037919 ], [ 47.6998691, -23.2039018 ], [ 47.6999803, -23.203871 ], [ 47.70006690000001, -23.2037844 ], [ 47.7001472, -23.2038462 ], [ 47.7002832, -23.2038957 ], [ 47.7004067, -23.2039636 ], [ 47.7005798, -23.2040625 ], [ 47.7007034, -23.2040069 ], [ 47.7008146, -23.2039945 ], [ 47.7009073, -23.2039636 ], [ 47.7009814, -23.2038648 ], [ 47.7010527, -23.2038755 ], [ 47.701097, -23.2038781 ], [ 47.7010922, -23.2038343 ], [ 47.7011304, -23.2037945 ], [ 47.7011666, -23.2037583 ], [ 47.701233400000014, -23.2036274 ], [ 47.7011777, -23.2036079 ], [ 47.7011248, -23.2035634 ], [ 47.7011304, -23.2035216 ], [ 47.7011607, -23.2034878 ], [ 47.7011174, -23.2034384 ], [ 47.7011236, -23.2033828 ], [ 47.701037100000015, -23.2033024 ], [ 47.7009073, -23.2032654 ], [ 47.7009011, -23.2031912 ], [ 47.7009092, -23.2031725 ], [ 47.7008408, -23.2031151 ], [ 47.7007266, -23.2031095 ], [ 47.7006375, -23.2030872 ], [ 47.700573399999989, -23.2030399 ], [ 47.7004983, -23.2030065 ], [ 47.700462099999989, -23.2029396 ], [ 47.7004927, -23.2028644 ], [ 47.7005484, -23.2028505 ], [ 47.7006459, -23.2028672 ], [ 47.700721, -23.2028923 ], [ 47.7008324, -23.2028811 ], [ 47.7009633, -23.2028505 ], [ 47.7010263, -23.2027686 ], [ 47.7009814, -23.202703 ], [ 47.7009938, -23.2026104 ], [ 47.7010371, -23.2024929 ], [ 47.7010608, -23.2022964 ], [ 47.7010496, -23.2022379 ], [ 47.7010134, -23.2021989 ], [ 47.7009745, -23.2021014 ], [ 47.7009104, -23.2020569 ], [ 47.7008324, -23.2020541 ], [ 47.7006514, -23.2020123 ], [ 47.7005818, -23.2020346 ], [ 47.7005372, -23.2020235 ], [ 47.7005094, -23.2019873 ], [ 47.700437, -23.2019594 ], [ 47.700425899999985, -23.2019371 ], [ 47.7003674, -23.2018508 ], [ 47.7003702, -23.2018146 ], [ 47.7002588, -23.2018146 ], [ 47.7002254, -23.2017534 ], [ 47.7002699, -23.2017199 ], [ 47.7003729, -23.2017088 ], [ 47.700476, -23.2016754 ], [ 47.7005985, -23.2015974 ], [ 47.7006514, -23.2016587 ], [ 47.7007183, -23.2016615 ], [ 47.7007433, -23.2016921 ], [ 47.7007767, -23.2017728 ], [ 47.700838, -23.2017756 ], [ 47.7009438, -23.2018731 ], [ 47.700946599999988, -23.2019065 ], [ 47.7009856, -23.2019288 ], [ 47.7010301, -23.2019316 ], [ 47.7011276, -23.2019789 ], [ 47.7012, -23.2019761 ], [ 47.7012585, -23.2019427 ], [ 47.7013337, -23.2019678 ], [ 47.701433900000012, -23.202029 ], [ 47.7014896, -23.2020513 ], [ 47.7015617, -23.2020414 ], [ 47.7015562, -23.201875 ], [ 47.7015067, -23.2017576 ], [ 47.7015314, -23.2016278 ], [ 47.7015932, -23.2015166 ], [ 47.7016056, -23.2013374 ], [ 47.7015747, -23.2011211 ], [ 47.7014696, -23.2010408 ], [ 47.7013337, -23.201084 ], [ 47.7012286, -23.201047 ], [ 47.7011359, -23.2009234 ], [ 47.7009691, -23.2008554 ], [ 47.700877, -23.2006825 ], [ 47.7009125, -23.2005305 ], [ 47.7009522, -23.2004613 ], [ 47.7008519, -23.2005197 ], [ 47.7006514, -23.2006339 ], [ 47.7004704, -23.2006813 ], [ 47.7004119, -23.2006673 ], [ 47.7003646, -23.2006534 ], [ 47.7002532, -23.2004446 ], [ 47.6999636, -23.2003582 ], [ 47.6999218, -23.2004167 ], [ 47.6997854, -23.2005309 ], [ 47.6996962, -23.2006813 ], [ 47.699454, -23.2008205 ], [ 47.699197800000015, -23.2008316 ], [ 47.6990752, -23.2006673 ], [ 47.699050199999988, -23.2005003 ], [ 47.6991087, -23.2003165 ], [ 47.6991811, -23.2002552 ], [ 47.6993621, -23.2001327 ], [ 47.6993621, -23.1999155 ], [ 47.6994957, -23.1996537 ], [ 47.699635, -23.1994811 ], [ 47.6999135, -23.1994839 ], [ 47.7000527, -23.199534 ], [ 47.7002059, -23.199534 ], [ 47.7003089, -23.1994421 ], [ 47.700476, -23.1994421 ], [ 47.7005609, -23.1994951 ], [ 47.7005609, -23.1994958 ], [ 47.7005647, -23.1994981 ], [ 47.7005573, -23.1995485 ], [ 47.7005154, -23.1997371 ], [ 47.700546, -23.1998196 ], [ 47.700555099999988, -23.1998482 ], [ 47.7006848, -23.1999038 ], [ 47.7009108, -23.200008 ], [ 47.7010929, -23.1999534 ], [ 47.7011111, -23.1998987 ], [ 47.7013297, -23.199917 ], [ 47.7013854, -23.2000516 ], [ 47.7014955, -23.2001354 ], [ 47.7017837, -23.200083 ], [ 47.701768, -23.1999835 ], [ 47.701789, -23.1998262 ], [ 47.701785, -23.1997348 ], [ 47.7018397, -23.199662 ], [ 47.701899, -23.199538 ], [ 47.7019095, -23.199365 ], [ 47.7019331, -23.1992549 ], [ 47.7019084, -23.1991684 ], [ 47.7018033, -23.1991314 ], [ 47.7017724, -23.1990016 ], [ 47.7018397, -23.1989152 ], [ 47.7017304, -23.1988424 ], [ 47.7015665, -23.1989152 ], [ 47.701439, -23.1989334 ], [ 47.7013115, -23.1989334 ], [ 47.7012204, -23.1989152 ], [ 47.7010919, -23.1988619 ], [ 47.7009109, -23.1988938 ], [ 47.7008391, -23.1990374 ], [ 47.7007698, -23.1990195 ], [ 47.7006742, -23.1990014 ], [ 47.7008037, -23.1989688 ], [ 47.7008483, -23.198897 ], [ 47.7008015, -23.198897 ], [ 47.7007469, -23.1988606 ], [ 47.7008015, -23.1987513 ], [ 47.700929, -23.1987149 ], [ 47.700929, -23.1985692 ], [ 47.7008743, -23.1985145 ], [ 47.700783300000012, -23.1983871 ], [ 47.7007528, -23.1982786 ], [ 47.7008146, -23.1982044 ], [ 47.7008926, -23.1982231 ], [ 47.7009077, -23.1982426 ], [ 47.7009938, -23.1979459 ], [ 47.7014039, -23.1975357 ], [ 47.7016204, -23.1972851 ], [ 47.7018381, -23.1971349 ], [ 47.702107, -23.1967394 ], [ 47.7022652, -23.1963914 ], [ 47.7023127, -23.1959485 ], [ 47.7022178, -23.1954897 ], [ 47.7022812, -23.195075 ], [ 47.7025183, -23.1948095 ], [ 47.7031955, -23.1942684 ], [ 47.7032747, -23.1938347 ], [ 47.7034139, -23.1932777 ], [ 47.7034294, -23.1928291 ], [ 47.7034913, -23.1925197 ], [ 47.7034758, -23.1921639 ], [ 47.7034758, -23.1918081 ], [ 47.7033984, -23.1914523 ], [ 47.703089, -23.1912202 ], [ 47.7029189, -23.1909263 ], [ 47.7027332, -23.1907097 ], [ 47.7023929, -23.1904467 ], [ 47.7020036, -23.1902633 ], [ 47.7020036, -23.1900553 ], [ 47.7021917, -23.1896197 ], [ 47.7022536, -23.1893948 ], [ 47.7024327, -23.1890736 ], [ 47.7027373, -23.1889704 ], [ 47.7029555, -23.1889448 ], [ 47.7032507, -23.1887394 ], [ 47.7031737, -23.1885853 ], [ 47.7033149, -23.1883029 ], [ 47.7031737, -23.1882388 ], [ 47.7029812, -23.1880462 ], [ 47.7030325, -23.1876868 ], [ 47.7029426, -23.1875841 ], [ 47.7028528, -23.1877381 ], [ 47.7027501, -23.1879692 ], [ 47.7025447, -23.1882131 ], [ 47.7024255, -23.1884422 ], [ 47.7024292, -23.1886495 ], [ 47.7020989, -23.1890699 ], [ 47.701855099999989, -23.1891445 ], [ 47.7016122, -23.189125 ], [ 47.7014078, -23.1889461 ], [ 47.7013822, -23.1887417 ], [ 47.701497200000013, -23.1884478 ], [ 47.7015355, -23.1879496 ], [ 47.701395, -23.1878218 ], [ 47.70128, -23.1878601 ], [ 47.7011139, -23.1881668 ], [ 47.7009222, -23.1884351 ], [ 47.7006284, -23.1886267 ], [ 47.7003984, -23.1885756 ], [ 47.7004405, -23.1884326 ], [ 47.7004623, -23.1883584 ], [ 47.7004649, -23.1877633 ], [ 47.7005935, -23.1873775 ], [ 47.7006836, -23.1868502 ], [ 47.7009786, -23.186185 ], [ 47.7009016, -23.1861336 ], [ 47.7007221, -23.1862971 ], [ 47.700452, -23.1866958 ], [ 47.7000662, -23.1871063 ], [ 47.6999512, -23.1874641 ], [ 47.6998362, -23.1877707 ], [ 47.6995807, -23.1877324 ], [ 47.6995296, -23.1874768 ], [ 47.6995168, -23.1872213 ], [ 47.6994529, -23.1868508 ], [ 47.6992102, -23.1867486 ], [ 47.698903500000014, -23.1870425 ], [ 47.698763, -23.1873363 ], [ 47.6985969, -23.1875024 ], [ 47.698366900000011, -23.1875024 ], [ 47.6980603, -23.1874768 ], [ 47.6978431, -23.1874385 ], [ 47.6977281, -23.1872085 ], [ 47.6978175, -23.1870808 ], [ 47.6979964, -23.1867614 ], [ 47.6982903, -23.1866081 ], [ 47.6984308, -23.1865186 ], [ 47.6984053, -23.1863525 ], [ 47.6981753, -23.1862887 ], [ 47.6980986, -23.1860459 ], [ 47.6980731, -23.1857521 ], [ 47.6980986, -23.1855476 ], [ 47.6983925, -23.1853432 ], [ 47.6983541, -23.1851388 ], [ 47.6982008, -23.1850622 ] ] ], [ [ [ 47.7218811, -23.1816569 ], [ 47.7215755, -23.1816569 ], [ 47.7210755, -23.1815458 ], [ 47.7206032, -23.1813236 ], [ 47.7204088, -23.1812124 ], [ 47.7200754, -23.1811291 ], [ 47.719436500000015, -23.1805735 ], [ 47.7193254, -23.1807124 ], [ 47.7188809, -23.1814624 ], [ 47.7187698, -23.1819069 ], [ 47.7185476, -23.1824347 ], [ 47.7183809, -23.1831014 ], [ 47.7181309, -23.1838792 ], [ 47.7179086, -23.1844069 ], [ 47.7178253, -23.1847125 ], [ 47.7176586, -23.1853514 ], [ 47.717353, -23.1859903 ], [ 47.7172141, -23.1864348 ], [ 47.7174086, -23.1869348 ], [ 47.717241900000012, -23.1874625 ], [ 47.7160474, -23.1911571 ], [ 47.7161661, -23.1911929 ], [ 47.7162889, -23.1912301 ], [ 47.7164927, -23.1912917 ], [ 47.7166755, -23.1913469 ], [ 47.7167717, -23.1912238 ], [ 47.7167197, -23.1911407 ], [ 47.716761299999988, -23.1910784 ], [ 47.7168859, -23.1910576 ], [ 47.7169482, -23.1911095 ], [ 47.7170209, -23.1911615 ], [ 47.7170624, -23.1912653 ], [ 47.7170832, -23.1913692 ], [ 47.717041699999989, -23.1914522 ], [ 47.717241900000012, -23.1915182 ], [ 47.7190198, -23.1928793 ], [ 47.7197976, -23.1940738 ], [ 47.7226589, -23.1940182 ], [ 47.7227365, -23.1937337 ], [ 47.7229059, -23.1934203 ], [ 47.7229906, -23.1932763 ], [ 47.7231092, -23.1932255 ], [ 47.7235074, -23.1929205 ], [ 47.7240749, -23.1924716 ], [ 47.7243375, -23.1922852 ], [ 47.7248458, -23.191616 ], [ 47.7252948, -23.1909299 ], [ 47.7255405, -23.1906334 ], [ 47.7258115, -23.190303 ], [ 47.7260741, -23.1900743 ], [ 47.7262944, -23.1899219 ], [ 47.726413, -23.1897694 ], [ 47.7265876, -23.1896345 ], [ 47.7265284, -23.189337 ], [ 47.7263949, -23.1891857 ], [ 47.7262792, -23.1891501 ], [ 47.7261189, -23.1890166 ], [ 47.7260477, -23.1889721 ], [ 47.7258964, -23.1888564 ], [ 47.7257006, -23.1887407 ], [ 47.7255671, -23.1886606 ], [ 47.7254603, -23.1886428 ], [ 47.7252377, -23.1886072 ], [ 47.725211, -23.1884737 ], [ 47.7252822, -23.1883668 ], [ 47.725398, -23.1882333 ], [ 47.725487, -23.1881621 ], [ 47.7255582, -23.1880108 ], [ 47.7256561, -23.1877972 ], [ 47.7257451, -23.1876548 ], [ 47.7258341, -23.1875658 ], [ 47.7259498, -23.1874857 ], [ 47.726021, -23.1874056 ], [ 47.7260388, -23.1872988 ], [ 47.72611, -23.1871563 ], [ 47.7261368, -23.1870584 ], [ 47.7261813, -23.1869694 ], [ 47.7262169, -23.1868626 ], [ 47.7261738, -23.1866882 ], [ 47.7261476, -23.1865141 ], [ 47.7261128, -23.1863486 ], [ 47.7260432, -23.1861919 ], [ 47.7259387, -23.1860874 ], [ 47.72589510000001, -23.1859394 ], [ 47.7258255, -23.1858349 ], [ 47.7257384, -23.1856869 ], [ 47.72566, -23.185504 ], [ 47.7256165, -23.1852254 ], [ 47.7256948, -23.1849554 ], [ 47.7257384, -23.1847464 ], [ 47.7259125, -23.1845375 ], [ 47.7260954, -23.1843633 ], [ 47.7262434, -23.1841021 ], [ 47.7263566, -23.1839366 ], [ 47.7265081, -23.1837182 ], [ 47.7265762, -23.1835592 ], [ 47.7267011, -23.1834343 ], [ 47.726973699999988, -23.1831844 ], [ 47.726845, -23.1830351 ], [ 47.7266756, -23.1828995 ], [ 47.7264469, -23.1828318 ], [ 47.7263113, -23.1828402 ], [ 47.7261504, -23.1829249 ], [ 47.7258751, -23.1831633 ], [ 47.7250278, -23.1825246 ], [ 47.7244645, -23.1821569 ], [ 47.7240201, -23.1821291 ], [ 47.7239089, -23.182018 ], [ 47.7234645, -23.1819625 ], [ 47.7232422, -23.1819902 ], [ 47.72302, -23.1817402 ], [ 47.7226867, -23.1816847 ], [ 47.7223533, -23.1816847 ], [ 47.7218811, -23.1816569 ] ] ], [ [ [ 47.7346873, -23.1716845 ], [ 47.7342984, -23.1716845 ], [ 47.7341873, -23.1715178 ], [ 47.7340206, -23.17149 ], [ 47.7339373, -23.1715734 ], [ 47.7336873, -23.1717956 ], [ 47.7334095, -23.1717678 ], [ 47.732937199999988, -23.1720178 ], [ 47.7326872, -23.1723234 ], [ 47.7323816, -23.1724901 ], [ 47.7320761, -23.1727123 ], [ 47.731826, -23.1727956 ], [ 47.7316038, -23.1732401 ], [ 47.7314371, -23.1733512 ], [ 47.7314094, -23.1734623 ], [ 47.7312427, -23.1741845 ], [ 47.7310204, -23.1742401 ], [ 47.7308538, -23.1744345 ], [ 47.730826, -23.1745734 ], [ 47.7306593, -23.1747957 ], [ 47.7305204, -23.1749623 ], [ 47.7304371, -23.1752679 ], [ 47.7302704, -23.1756012 ], [ 47.7303537, -23.1757957 ], [ 47.7302168, -23.1759849 ], [ 47.7302731, -23.1760995 ], [ 47.7303743, -23.1761822 ], [ 47.7304571, -23.1763202 ], [ 47.7305767, -23.1764122 ], [ 47.730825, -23.1765593 ], [ 47.7309446, -23.1767065 ], [ 47.7307882, -23.1768629 ], [ 47.7304847, -23.17701 ], [ 47.7304479, -23.1772308 ], [ 47.7304479, -23.1774239 ], [ 47.7304203, -23.1775527 ], [ 47.7304019, -23.1777458 ], [ 47.7303375, -23.177939 ], [ 47.7303099, -23.1780678 ], [ 47.7302731, -23.1782057 ], [ 47.7303651, -23.1782977 ], [ 47.7304571, -23.1784357 ], [ 47.730521499999988, -23.1785828 ], [ 47.7303835, -23.178684 ], [ 47.7303007, -23.1787668 ], [ 47.7301812, -23.1788496 ], [ 47.7301812, -23.1789875 ], [ 47.7303191, -23.1791715 ], [ 47.730126, -23.1792635 ], [ 47.7299696, -23.1793095 ], [ 47.7298307, -23.1793326 ], [ 47.7296438, -23.1793771 ], [ 47.7295014, -23.1794483 ], [ 47.7294545, -23.1795578 ], [ 47.7293257, -23.1797785 ], [ 47.729289, -23.1799441 ], [ 47.7293165, -23.1801372 ], [ 47.7292798, -23.1802476 ], [ 47.7292982, -23.180358 ], [ 47.7293809, -23.18045 ], [ 47.7293926, -23.1805499 ], [ 47.7295629, -23.1807884 ], [ 47.7295175, -23.1810495 ], [ 47.729438, -23.1811063 ], [ 47.7293358, -23.1812653 ], [ 47.7293698, -23.181447 ], [ 47.7296424, -23.1816173 ], [ 47.7296878, -23.181765 ], [ 47.7297121, -23.1819676 ], [ 47.7295741, -23.1820964 ], [ 47.7293257, -23.1821607 ], [ 47.7290859, -23.1821738 ], [ 47.7289837, -23.182276 ], [ 47.7290406, -23.1825286 ], [ 47.7289946, -23.182685 ], [ 47.7287893, -23.1827505 ], [ 47.728727, -23.1828484 ], [ 47.7286647, -23.1829018 ], [ 47.7285756, -23.1830175 ], [ 47.7285068, -23.1831844 ], [ 47.7285636, -23.1834002 ], [ 47.7287555, -23.1836784 ], [ 47.7287831, -23.1839359 ], [ 47.7287003, -23.1841382 ], [ 47.7283783, -23.1841015 ], [ 47.7281484, -23.1842026 ], [ 47.7279552, -23.1842394 ], [ 47.7278013, -23.1842814 ], [ 47.72773, -23.1845484 ], [ 47.7276588, -23.1847709 ], [ 47.7275876, -23.1849668 ], [ 47.7275075, -23.1851448 ], [ 47.727445200000012, -23.1853317 ], [ 47.72742740000001, -23.1854207 ], [ 47.7274452, -23.1855097 ], [ 47.7274452, -23.1856877 ], [ 47.7274897, -23.1858746 ], [ 47.7274897, -23.1860438 ], [ 47.7277055, -23.1860819 ], [ 47.7277403, -23.1860819 ], [ 47.7279406, -23.1859948 ], [ 47.7281061, -23.1859426 ], [ 47.7282193, -23.1859165 ], [ 47.7286036, -23.1857125 ], [ 47.7297426, -23.1856014 ], [ 47.7307426, -23.185907 ], [ 47.7317705, -23.1854625 ], [ 47.7357151, -23.1846292 ], [ 47.736354, -23.1844625 ], [ 47.7368819, -23.1838792 ], [ 47.737493, -23.183268 ], [ 47.7376041, -23.1830458 ], [ 47.7374652, -23.182768 ], [ 47.7373541, -23.1821569 ], [ 47.737243, -23.1817402 ], [ 47.7371597, -23.1810458 ], [ 47.7371597, -23.1806847 ], [ 47.7374097, -23.1802124 ], [ 47.7375208, -23.1798791 ], [ 47.737493, -23.1794346 ], [ 47.7376319, -23.1789902 ], [ 47.737743, -23.1786846 ], [ 47.7379097, -23.1783513 ], [ 47.7380208, -23.1779068 ], [ 47.737993, -23.1776568 ], [ 47.7379375, -23.1772679 ], [ 47.7379097, -23.1768235 ], [ 47.7376597, -23.1765179 ], [ 47.7375208, -23.1760735 ], [ 47.7374374, -23.175879 ], [ 47.7370763, -23.1752679 ], [ 47.7369096, -23.1750179 ], [ 47.7367985, -23.1745734 ], [ 47.7362985, -23.1739345 ], [ 47.7360207, -23.1735734 ], [ 47.7357151, -23.1735734 ], [ 47.7355207, -23.1734345 ], [ 47.7352985, -23.172629 ], [ 47.7352707, -23.1723512 ], [ 47.735104, -23.1721012 ], [ 47.7348818, -23.1720456 ], [ 47.7346873, -23.1716845 ] ] ] ] } }
]
}
