{
"type": "FeatureCollection",
"name": "MDG-1299-2015-boundary_modification-001",
"crs": { "type": "name", "properties": { "name": "urn:ogc:def:crs:OGC:1.3:CRS84" } },
"features": [
{ "type": "Feature", "properties": { }, "geometry": { "type": "Polygon", "coordinates": [ [ [ 46.6611744, -16.3624994 ], [ 46.6633846, -16.3635855 ], [ 46.6655917, -16.3665975 ], [ 46.6683738, -16.3654905 ], [ 46.6702679, -16.3639205 ], [ 46.672163, -16.3636575 ], [ 46.6740791, -16.3666745 ], [ 46.6778023, -16.3673415 ], [ 46.6797414, -16.3699276 ], [ 46.6795364, -16.3725276 ], [ 46.679276300000012, -16.3754567 ], [ 46.6837466, -16.3771167 ], [ 46.688076799999983, -16.3762257 ], [ 46.6900449, -16.3767317 ], [ 46.691882, -16.3754627 ], [ 46.7008044, -16.3750757 ], [ 46.7026405, -16.3710166 ], [ 46.7042156, -16.3734247 ], [ 46.7060527, -16.3712676 ], [ 46.7085468, -16.3707486 ], [ 46.7097249, -16.3658125 ], [ 46.7127441, -16.3670786 ], [ 46.715865199999989, -16.3725847 ], [ 46.7177273, -16.3740057 ], [ 46.7203354, -16.3704206 ], [ 46.7241246, -16.3688486 ], [ 46.7268298, -16.3662316 ], [ 46.7295359, -16.3651835 ], [ 46.7344072, -16.3651806 ], [ 46.7360322, -16.3685786 ], [ 46.7376553, -16.3672696 ], [ 46.7403615, -16.3664836 ], [ 46.7433386, -16.3667426 ], [ 46.7449627, -16.3675256 ], [ 46.7455477, -16.3642645 ], [ 46.7473838, -16.3575424 ], [ 46.750139, -16.3561464 ], [ 46.7519961, -16.3554914 ], [ 46.7546002, -16.3569034 ], [ 46.7579504, -16.3567944 ], [ 46.7606565, -16.3575764 ], [ 46.7622806, -16.3596675 ], [ 46.7663408, -16.3604495 ], [ 46.7687749, -16.3567864 ], [ 46.7717511, -16.3512923 ], [ 46.7747272, -16.3471063 ], [ 46.7766193, -16.3397821 ], [ 46.778242400000011, -16.3361201 ], [ 46.7831147, -16.3374241 ], [ 46.7863628, -16.3442212 ], [ 46.7885289, -16.3478803 ], [ 46.7923901, -16.3500283 ], [ 46.7952773, -16.3526884 ], [ 46.7961943, -16.3482503 ], [ 46.7982944, -16.3471073 ], [ 46.8023616, -16.3482453 ], [ 46.8045917, -16.3434262 ], [ 46.8062968, -16.3419032 ], [ 46.809315, -16.3407592 ], [ 46.8126142, -16.3449863 ], [ 46.8177564, -16.3465513 ], [ 46.8242517, -16.3452383 ], [ 46.8274989, -16.3431442 ], [ 46.8315581, -16.3431412 ], [ 46.8350763, -16.3431382 ], [ 46.8396755, -16.3381662 ], [ 46.8396745, -16.3350281 ], [ 46.8388625, -16.331891 ], [ 46.8364264, -16.329016 ], [ 46.8339893, -16.3258799 ], [ 46.8329062, -16.3232659 ], [ 46.8350713, -16.3227409 ], [ 46.8394025, -16.327183 ], [ 46.8442738, -16.32718 ], [ 46.848062, -16.3253469 ], [ 46.849416, -16.326653 ], [ 46.8537453, -16.32665 ], [ 46.8556394, -16.3248179 ], [ 46.8578045, -16.3242929 ], [ 46.8594286, -16.3248149 ], [ 46.8632167, -16.3242889 ], [ 46.8661939, -16.3219329 ], [ 46.868629, -16.3201009 ], [ 46.8716052, -16.3193138 ], [ 46.8732293, -16.3198359 ], [ 46.8748533, -16.3198349 ], [ 46.8737713, -16.3234969 ], [ 46.8740433, -16.327681 ], [ 46.876208399999982, -16.329509 ], [ 46.8759384, -16.3308171 ], [ 46.8751263, -16.3334331 ], [ 46.8772914, -16.3339541 ], [ 46.8799986, -16.3352601 ], [ 46.8832458, -16.3357802 ], [ 46.8851398, -16.3342101 ], [ 46.8867639, -16.3357782 ], [ 46.888659, -16.3362992 ], [ 46.8932593, -16.3352502 ], [ 46.8965074, -16.3360322 ], [ 46.8973185, -16.3342011 ], [ 46.8997536, -16.3339371 ], [ 46.9008366, -16.3355062 ], [ 46.9030028, -16.3386422 ], [ 46.9024617, -16.3409963 ], [ 46.9040858, -16.3409953 ], [ 46.907333, -16.3394232 ], [ 46.908685, -16.3375922 ], [ 46.9089561, -16.3381152 ], [ 46.9097691, -16.3430823 ], [ 46.9113932, -16.3438663 ], [ 46.9173465, -16.3433383 ], [ 46.9197826, -16.3420293 ], [ 46.9235708, -16.3409803 ], [ 46.926818, -16.3409783 ], [ 46.9303371, -16.3441133 ], [ 46.9319612, -16.3438503 ], [ 46.9316892, -16.3401903 ], [ 46.9330423, -16.3388813 ], [ 46.9376425, -16.3388783 ], [ 46.9403487, -16.3370452 ], [ 46.943054800000013, -16.3370432 ], [ 46.946302, -16.3346872 ], [ 46.9498201, -16.3318081 ], [ 46.9538783, -16.3304971 ], [ 46.9544194, -16.3281441 ], [ 46.9571255, -16.325788 ], [ 46.9601017, -16.32474 ], [ 46.9614547, -16.321862 ], [ 46.9630778, -16.3205539 ], [ 46.966326, -16.320551 ], [ 46.9684911, -16.321595 ], [ 46.9701152, -16.323425 ], [ 46.9722803, -16.323423 ], [ 46.9744454, -16.323683 ], [ 46.9768805, -16.323681 ], [ 46.9785036, -16.32185 ], [ 46.9771505, -16.3187129 ], [ 46.9782326, -16.3166199 ], [ 46.9801267, -16.3171409 ], [ 46.9825638, -16.321323 ], [ 46.9839169, -16.322891 ], [ 46.986894, -16.324981 ], [ 46.9879011, -16.323214 ], [ 46.9912783, -16.32463 ], [ 46.9937744, -16.324628 ], [ 46.9959765, -16.323633 ], [ 46.9985306, -16.323142 ], [ 46.9977186, -16.320528 ], [ 46.9979886, -16.3168659 ], [ 46.9993407, -16.3132038 ], [ 47.0009648, -16.3142489 ], [ 47.003128900000014, -16.3132019 ], [ 47.0042109, -16.3100628 ], [ 47.0069171, -16.3066607 ], [ 47.006104, -16.3022157 ], [ 47.0066441, -16.2996006 ], [ 47.0077261, -16.2975076 ], [ 47.0085382, -16.2948915 ], [ 47.0104323, -16.2946295 ], [ 47.0098912, -16.2982906 ], [ 47.0093512, -16.3022137 ], [ 47.0109753, -16.3029967 ], [ 47.0144925, -16.2982876 ], [ 47.0182807, -16.2943615 ], [ 47.0207158, -16.2912215 ], [ 47.024774, -16.2901725 ], [ 47.0288342, -16.2901695 ], [ 47.031810300000011, -16.2880754 ], [ 47.0342455, -16.2859814 ], [ 47.0345155, -16.2849354 ], [ 47.0357545, -16.2830293 ], [ 47.0372226, -16.2830283 ], [ 47.0388357, -16.2723871 ], [ 47.0396548, -16.2713331 ], [ 47.0408908, -16.2699731 ], [ 47.043827, -16.2698291 ], [ 47.044854, -16.266424 ], [ 47.0427969, -16.2607509 ], [ 47.045146, -16.261884 ], [ 47.0469081, -16.261457 ], [ 47.050748299999981, -16.262172 ], [ 47.052642399999989, -16.2606019 ], [ 47.0539945, -16.2566779 ], [ 47.057242699999982, -16.2561529 ], [ 47.0583247, -16.2561519 ], [ 47.063467, -16.2582399 ], [ 47.0672562, -16.2595449 ], [ 47.0707753, -16.261896 ], [ 47.0732105, -16.26294 ], [ 47.0772707, -16.2668591 ], [ 47.0810599, -16.2655491 ], [ 47.0848481, -16.2645 ], [ 47.0880962, -16.2647591 ], [ 47.0916884, -16.264261 ], [ 47.0938905, -16.264401 ], [ 47.0935975, -16.2669551 ], [ 47.0972677, -16.2659591 ], [ 47.1006449, -16.2676591 ], [ 47.102258899999988, -16.2660971 ], [ 47.1054891, -16.2649601 ], [ 47.1079852, -16.2660931 ], [ 47.1091583, -16.260985 ], [ 47.1078502, -16.258992 ], [ 47.1100153, -16.2568979 ], [ 47.1116384, -16.2550659 ], [ 47.1138035, -16.2545419 ], [ 47.115968599999988, -16.2550629 ], [ 47.1184038, -16.2550609 ], [ 47.1200279, -16.2534909 ], [ 47.122192, -16.2532279 ], [ 47.1238161, -16.2524419 ], [ 47.1265222, -16.2513938 ], [ 47.1289573, -16.2511308 ], [ 47.130852399999988, -16.2521749 ], [ 47.1322055, -16.2521739 ], [ 47.1346406, -16.2500808 ], [ 47.1365347, -16.2482488 ], [ 47.139510899999983, -16.2471998 ], [ 47.1408639, -16.2471988 ], [ 47.1392398, -16.2456317 ], [ 47.136262699999982, -16.2445877 ], [ 47.1335566, -16.2443277 ], [ 47.1319325, -16.2435447 ], [ 47.1322035, -16.2411907 ], [ 47.1332845, -16.2388366 ], [ 47.1349086, -16.2367436 ], [ 47.1378848, -16.2356956 ], [ 47.142215, -16.2369996 ], [ 47.143028, -16.2398756 ], [ 47.1449221, -16.2411817 ], [ 47.1465462, -16.2430107 ], [ 47.1495244, -16.2445777 ], [ 47.1514185, -16.2432687 ], [ 47.1533126, -16.2424827 ], [ 47.1560177, -16.2403887 ], [ 47.1598069, -16.2390786 ], [ 47.1630541, -16.2380296 ], [ 47.1641361, -16.2364596 ], [ 47.162782, -16.2343686 ], [ 47.163865099999988, -16.2343686 ], [ 47.1660302, -16.2356746 ], [ 47.1679243, -16.2354116 ], [ 47.1684653, -16.2335806 ], [ 47.1687354, -16.2314875 ], [ 47.1703594, -16.2320095 ], [ 47.1727956, -16.2325305 ], [ 47.1725245, -16.2304395 ], [ 47.1738766, -16.2267774 ], [ 47.1749587, -16.2262534 ], [ 47.1768528, -16.2249444 ], [ 47.1782058, -16.2231124 ], [ 47.181454, -16.2261174 ], [ 47.1840251, -16.2274235 ], [ 47.1874083, -16.2285975 ], [ 47.1893144, -16.2307065 ], [ 47.1906365, -16.2316995 ], [ 47.1912235, -16.2339686 ], [ 47.1909305, -16.2366646 ], [ 47.1925466, -16.2387907 ], [ 47.1947487, -16.2396407 ], [ 47.1982728, -16.2409147 ], [ 47.1987139, -16.2461638 ], [ 47.2092834, -16.2375017 ], [ 47.2101635, -16.2326776 ], [ 47.2130986, -16.2281355 ], [ 47.2148597, -16.2267155 ], [ 47.2183839, -16.2275645 ], [ 47.220293, -16.2281305 ], [ 47.221467, -16.2303995 ], [ 47.2232291, -16.2305395 ], [ 47.2264593, -16.2312466 ], [ 47.2263123, -16.2296865 ], [ 47.2299825, -16.2296835 ], [ 47.2327726, -16.2293975 ], [ 47.2349747, -16.2288285 ], [ 47.2373238, -16.2286845 ], [ 47.239672, -16.2254205 ], [ 47.240552, -16.2200284 ], [ 47.2375599, -16.2194274 ], [ 47.2362378, -16.2175133 ], [ 47.2332276, -16.2152463 ], [ 47.2350627, -16.2144643 ], [ 47.237192799999988, -16.2166613 ], [ 47.239688, -16.2172273 ], [ 47.2416701, -16.2165873 ], [ 47.2438722, -16.2167273 ], [ 47.2454143, -16.2166553 ], [ 47.2474694, -16.2164413 ], [ 47.2484224, -16.2107662 ], [ 47.2524586, -16.2039531 ], [ 47.2545107, -16.1889138 ], [ 47.2625112, -16.1823107 ], [ 47.2650073, -16.1852168 ], [ 47.2667704, -16.1879818 ], [ 47.2689725, -16.1878388 ], [ 47.2690445, -16.1850008 ], [ 47.2699255, -16.1823047 ], [ 47.2723747, -16.1798937 ], [ 47.2756218, -16.1775376 ], [ 47.278598, -16.1738746 ], [ 47.278326, -16.1681215 ], [ 47.2750778, -16.1642014 ], [ 47.2737237, -16.1581883 ], [ 47.2723697, -16.1545282 ], [ 47.2672274, -16.1532242 ], [ 47.2628962, -16.1508741 ], [ 47.2618132, -16.145645 ], [ 47.2607291, -16.1401539 ], [ 47.258833, -16.1330948 ], [ 47.254502799999983, -16.1307438 ], [ 47.2485495, -16.1310098 ], [ 47.2455723, -16.1336278 ], [ 47.2425972, -16.1391209 ], [ 47.239621, -16.142785 ], [ 47.2366449, -16.1485401 ], [ 47.2320446, -16.1488051 ], [ 47.2277144, -16.146716 ], [ 47.2241942, -16.1404429 ], [ 47.2247353, -16.1362578 ], [ 47.2268994, -16.1333798 ], [ 47.2296055, -16.1310248 ], [ 47.230957600000011, -16.1273627 ], [ 47.2293325, -16.1237026 ], [ 47.2250023, -16.1208286 ], [ 47.2214831, -16.1163865 ], [ 47.2204001, -16.1132484 ], [ 47.2233762, -16.1108934 ], [ 47.227164400000014, -16.1074903 ], [ 47.2312226, -16.1040883 ], [ 47.2347408, -16.1006862 ], [ 47.236362899999989, -16.0970232 ], [ 47.237716, -16.0933611 ], [ 47.2371739, -16.090224 ], [ 47.2339258, -16.089442 ], [ 47.2279725, -16.090492 ], [ 47.2233722, -16.090757 ], [ 47.2201251, -16.0925901 ], [ 47.2155238, -16.0936391 ], [ 47.211193599999987, -16.091551 ], [ 47.2063214, -16.088416 ], [ 47.2041563, -16.0842339 ], [ 47.2006371, -16.0816218 ], [ 47.197929, -16.0724707 ], [ 47.1963039, -16.0669806 ], [ 47.1968439, -16.0620115 ], [ 47.1954899, -16.0578284 ], [ 47.1949478, -16.0546904 ], [ 47.1952178, -16.0505063 ], [ 47.1944048, -16.0468462 ], [ 47.1906166, -16.0452792 ], [ 47.183038200000013, -16.0447622 ], [ 47.1772649, -16.0448012 ], [ 47.1724837, -16.0445082 ], [ 47.1715487, -16.0430381 ], [ 47.1716707, -16.0392791 ], [ 47.1697766, -16.03745 ], [ 47.1657164, -16.035884 ], [ 47.165506400000012, -16.03413 ], [ 47.156842899999987, -16.0321499 ], [ 47.1559729, -16.0306609 ], [ 47.1538068, -16.0270018 ], [ 47.1513716, -16.0272648 ], [ 47.1497476, -16.0267428 ], [ 47.1478535, -16.0304059 ], [ 47.1454183, -16.0322379 ], [ 47.1402761, -16.0296269 ], [ 47.1356748, -16.0257078 ], [ 47.1329677, -16.0238788 ], [ 47.1329667, -16.0204797 ], [ 47.1316126, -16.0160346 ], [ 47.1275524, -16.0115925 ], [ 47.1251173, -16.0110715 ], [ 47.124035299999989, -16.0142096 ], [ 47.1199761, -16.0173516 ], [ 47.1121287, -16.0199717 ], [ 47.1045513, -16.0194547 ], [ 47.1026572, -16.0210247 ], [ 47.0977859, -16.0244287 ], [ 47.0948098, -16.0273068 ], [ 47.092916700000011, -16.0296618 ], [ 47.0891285, -16.0328029 ], [ 47.0861523, -16.036728 ], [ 47.080199, -16.03987 ], [ 47.0734337, -16.042752 ], [ 47.0663973, -16.042496 ], [ 47.060444, -16.0443311 ], [ 47.0561148, -16.0487791 ], [ 47.05584480000001, -16.0513952 ], [ 47.0544927, -16.0579333 ], [ 47.0523296, -16.0623804 ], [ 47.0455642, -16.0665695 ], [ 47.0428591, -16.0699715 ], [ 47.0420481, -16.0749406 ], [ 47.0390729, -16.0812187 ], [ 47.0282493, -16.0922099 ], [ 47.0241921, -16.099274 ], [ 47.018239800000011, -16.1079082 ], [ 47.011745499999989, -16.1123582 ], [ 47.0036271, -16.1141953 ], [ 46.9941566, -16.1173403 ], [ 46.9879323, -16.1207444 ], [ 46.9798139, -16.1228424 ], [ 46.9792738, -16.1278115 ], [ 46.9781918, -16.1306886 ], [ 46.9749446, -16.1306915 ], [ 46.9711554, -16.1314786 ], [ 46.9676382, -16.1327886 ], [ 46.963578, -16.1320076 ], [ 46.9608729, -16.1343626 ], [ 46.9568137, -16.1361966 ], [ 46.9489663, -16.1419557 ], [ 46.9454491, -16.1427427 ], [ 46.943283, -16.1406527 ], [ 46.9384127, -16.1427477 ], [ 46.932188400000015, -16.1445828 ], [ 46.923799, -16.1440667 ], [ 46.9173037, -16.1448558 ], [ 46.9162216, -16.1472098 ], [ 46.9137865, -16.1493038 ], [ 46.9137875, -16.1511349 ], [ 46.9089162, -16.1516609 ], [ 46.9056681, -16.1482638 ], [ 46.904856, -16.1506178 ], [ 46.8989027, -16.1519299 ], [ 46.8953845, -16.1535019 ], [ 46.8915963, -16.1540279 ], [ 46.88456, -16.1556019 ], [ 46.8799598, -16.1556049 ], [ 46.8775246, -16.158222 ], [ 46.8756305, -16.160577 ], [ 46.8737364, -16.160317 ], [ 46.8710303, -16.161365 ], [ 46.864777, -16.159767 ], [ 46.864338, -16.163739 ], [ 46.8640449, -16.1671441 ], [ 46.8622828, -16.1679971 ], [ 46.8619888, -16.162748 ], [ 46.8605208, -16.1651611 ], [ 46.8587597, -16.1685671 ], [ 46.8560015, -16.1650851 ], [ 46.8531794, -16.162896 ], [ 46.8512713, -16.164033 ], [ 46.8487752, -16.162616 ], [ 46.845398, -16.162618 ], [ 46.8434899, -16.163187 ], [ 46.8423438, -16.16374 ], [ 46.8418038, -16.1660941 ], [ 46.840992799999988, -16.1700171 ], [ 46.8409928, -16.1736782 ], [ 46.8423468, -16.1781233 ], [ 46.8415358, -16.1794313 ], [ 46.8380166, -16.1770803 ], [ 46.8331454, -16.1776073 ], [ 46.825839, -16.1789193 ], [ 46.8198857, -16.1818003 ], [ 46.8177216, -16.1833714 ], [ 46.8123083, -16.1833754 ], [ 46.8082501, -16.1859934 ], [ 46.807168, -16.1888704 ], [ 46.8082521, -16.1941005 ], [ 46.8082611, -16.1991066 ], [ 46.8015077, -16.1984016 ], [ 46.7965155, -16.1957106 ], [ 46.7906422, -16.1938705 ], [ 46.78756, -16.1974196 ], [ 46.7830078, -16.1957206 ], [ 46.7730243, -16.1958695 ], [ 46.7709682, -16.1945945 ], [ 46.7686191, -16.1948795 ], [ 46.766712, -16.1974346 ], [ 46.768471, -16.2014516 ], [ 46.766848, -16.2056377 ], [ 46.767932, -16.2111278 ], [ 46.7698271, -16.2145259 ], [ 46.7649559, -16.2163609 ], [ 46.7595436, -16.2179339 ], [ 46.7554844, -16.2174139 ], [ 46.7538613, -16.219507 ], [ 46.7533203, -16.222122 ], [ 46.7519682, -16.2255231 ], [ 46.7506151, -16.2284001 ], [ 46.7519702, -16.2362443 ], [ 46.7538663, -16.2430424 ], [ 46.7541373, -16.2456574 ], [ 46.7508901, -16.2459214 ], [ 46.748454, -16.2451384 ], [ 46.7457479, -16.2446174 ], [ 46.7403356, -16.2456674 ], [ 46.7370884, -16.2469774 ], [ 46.7330282, -16.2467194 ], [ 46.729781, -16.2480294 ], [ 46.7270759, -16.2498615 ], [ 46.7224747, -16.2501265 ], [ 46.7205806, -16.2514355 ], [ 46.7192275, -16.2532665 ], [ 46.7167924, -16.2516995 ], [ 46.7138142, -16.2493485 ], [ 46.7121901, -16.2472574 ], [ 46.7105661, -16.2441204 ], [ 46.7078589, -16.2404613 ], [ 46.7056928, -16.2352332 ], [ 46.7037977, -16.2313121 ], [ 46.7024447, -16.2313131 ], [ 46.70000850000001, -16.2326221 ], [ 46.7000095, -16.2365452 ], [ 46.7005526, -16.2415133 ], [ 46.6996265, -16.2462884 ], [ 46.6971314, -16.2496944 ], [ 46.6947823, -16.2502635 ], [ 46.6919931, -16.2512595 ], [ 46.689938, -16.2511185 ], [ 46.6874409, -16.2498434 ], [ 46.6878829, -16.2559435 ], [ 46.6846527, -16.2560875 ], [ 46.6801015, -16.2555235 ], [ 46.6781934, -16.2550995 ], [ 46.6764313, -16.2538245 ], [ 46.6753863, -16.2530385 ], [ 46.6740322, -16.2504244 ], [ 46.6737612, -16.2462404 ], [ 46.6751133, -16.2433623 ], [ 46.675925299999989, -16.2410083 ], [ 46.6745712, -16.2381332 ], [ 46.6721341, -16.2334281 ], [ 46.6718631, -16.2305511 ], [ 46.669968, -16.225323 ], [ 46.668614, -16.2229699 ], [ 46.668613, -16.2193089 ], [ 46.6683419, -16.2174788 ], [ 46.6645538, -16.2180048 ], [ 46.6607646, -16.2174848 ], [ 46.6580584, -16.2156558 ], [ 46.6558923, -16.2135658 ], [ 46.6550803, -16.2112127 ], [ 46.6545383, -16.2080747 ], [ 46.6526432, -16.2065076 ], [ 46.6515601, -16.2033696 ], [ 46.649395, -16.2002335 ], [ 46.6480409, -16.1997115 ], [ 46.6480419, -16.2012805 ], [ 46.648584, -16.2046796 ], [ 46.6477729, -16.2080797 ], [ 46.6456078, -16.2099117 ], [ 46.6437137, -16.2125287 ], [ 46.6429027, -16.2140978 ], [ 46.6407375, -16.2151458 ], [ 46.6407385, -16.2174988 ], [ 46.6401975, -16.2203759 ], [ 46.638574399999989, -16.2216849 ], [ 46.6374914, -16.2227319 ], [ 46.6342442, -16.2214269 ], [ 46.6331612, -16.2214279 ], [ 46.6312671, -16.2232599 ], [ 46.6285609, -16.2240459 ], [ 46.630185, -16.2253519 ], [ 46.6326211, -16.227704 ], [ 46.6337052, -16.23058 ], [ 46.6345172, -16.2321481 ], [ 46.6350592, -16.2358091 ], [ 46.6342472, -16.2379012 ], [ 46.6339782, -16.2439163 ], [ 46.6320841, -16.2457483 ], [ 46.63019, -16.2475803 ], [ 46.6280259, -16.2515044 ], [ 46.6261318, -16.2528134 ], [ 46.6242377, -16.2549065 ], [ 46.620990500000012, -16.2572625 ], [ 46.6185554, -16.2590955 ], [ 46.616120300000013, -16.2598816 ], [ 46.6139551, -16.2590985 ], [ 46.611519, -16.2591005 ], [ 46.610166, -16.2575325 ], [ 46.609353899999988, -16.2551795 ], [ 46.6093529, -16.2530874 ], [ 46.6096229, -16.2515184 ], [ 46.6093519, -16.2494264 ], [ 46.6088109, -16.2470733 ], [ 46.6069158, -16.2462903 ], [ 46.6042097, -16.2460303 ], [ 46.6031266, -16.2447243 ], [ 46.6020446, -16.2444633 ], [ 46.6006915, -16.2455103 ], [ 46.5985264, -16.2473423 ], [ 46.596362299999988, -16.2491743 ], [ 46.5960922, -16.2528354 ], [ 46.5950112, -16.2575435 ], [ 46.5933871, -16.2591145 ], [ 46.591222, -16.2593775 ], [ 46.5890579, -16.2614706 ], [ 46.5887879, -16.2627786 ], [ 46.5879758, -16.2648716 ], [ 46.5852697, -16.2633046 ], [ 46.5836456, -16.2612135 ], [ 46.5828336, -16.2601675 ], [ 46.5814805, -16.2622606 ], [ 46.5793154, -16.2622626 ], [ 46.5776913, -16.2586025 ], [ 46.5755252, -16.2554664 ], [ 46.5747132, -16.2562514 ], [ 46.572549, -16.2567765 ], [ 46.5695709, -16.2554704 ], [ 46.571467, -16.2591305 ], [ 46.5730911, -16.2620055 ], [ 46.5747161, -16.2677577 ], [ 46.5747171, -16.2711577 ], [ 46.57174, -16.2740358 ], [ 46.5679518, -16.2753468 ], [ 46.5647046, -16.2769178 ], [ 46.5671417, -16.2821459 ], [ 46.5698489, -16.287374 ], [ 46.572015, -16.2936491 ], [ 46.572287, -16.2980942 ], [ 46.5788293, -16.3046603 ], [ 46.5782013, -16.3092214 ], [ 46.5804084, -16.3109014 ], [ 46.5836565, -16.3148225 ], [ 46.5869047, -16.3179576 ], [ 46.5885298, -16.3218786 ], [ 46.5909669, -16.3276307 ], [ 46.5901549, -16.3305078 ], [ 46.5877197, -16.3323398 ], [ 46.5874497, -16.3352169 ], [ 46.5893458, -16.339922 ], [ 46.5920519, -16.342012 ], [ 46.5988143, -16.3453681 ], [ 46.6015254, -16.3477581 ], [ 46.6066687, -16.3524612 ], [ 46.6099168, -16.3553363 ], [ 46.6099168, -16.3576893 ], [ 46.6082938, -16.3610904 ], [ 46.6055876, -16.3626614 ], [ 46.6012584, -16.3637104 ], [ 46.5969282, -16.3634524 ], [ 46.5963861, -16.3613604 ], [ 46.593409, -16.3611013 ], [ 46.5888088, -16.3616274 ], [ 46.5874557, -16.3626744 ], [ 46.5890808, -16.3663344 ], [ 46.5885987, -16.3693175 ], [ 46.593844, -16.3754966 ], [ 46.5990963, -16.3778337 ], [ 46.6012614, -16.3796627 ], [ 46.6012624, -16.3825387 ], [ 46.6001803, -16.3846318 ], [ 46.5980152, -16.3859408 ], [ 46.598827199999988, -16.3869858 ], [ 46.6028875, -16.3877678 ], [ 46.6053226, -16.3888119 ], [ 46.6088417, -16.3932549 ], [ 46.6110079, -16.395084 ], [ 46.613985, -16.396128 ], [ 46.6166911, -16.395341 ], [ 46.6191263, -16.395339 ], [ 46.6215624, -16.395861 ], [ 46.6237275, -16.394813 ], [ 46.6258916, -16.392981 ], [ 46.6272037, -16.393209 ], [ 46.6282517, -16.3920929 ], [ 46.6282517, -16.3881399 ], [ 46.6274117, -16.3848968 ], [ 46.6291948, -16.3847948 ], [ 46.6309779, -16.3838808 ], [ 46.6320259, -16.3826638 ], [ 46.63297, -16.3826628 ], [ 46.6352781, -16.3823578 ], [ 46.6366412, -16.3829648 ], [ 46.6383203, -16.3848888 ], [ 46.6426205, -16.3845818 ], [ 46.6454526, -16.3841738 ], [ 46.6449266, -16.3797147 ], [ 46.6491228, -16.3782927 ], [ 46.6493318, -16.3751507 ], [ 46.6502749, -16.3725146 ], [ 46.653211, -16.3705866 ], [ 46.6549951, -16.3709906 ], [ 46.6578263, -16.3703806 ], [ 46.6578263, -16.3680495 ], [ 46.6587693, -16.3656165 ], [ 46.6570912, -16.3652125 ], [ 46.6563572, -16.3636925 ], [ 46.6575103, -16.3614614 ], [ 46.6580343, -16.3600424 ], [ 46.6600274, -16.3609534 ], [ 46.6611744, -16.3624994 ] ] ] } }
]
}
