{
"type": "FeatureCollection",
"name": "MDG-2303-2015-boundary_modification-001",
"crs": { "type": "name", "properties": { "name": "urn:ogc:def:crs:OGC:1.3:CRS84" } },
"features": [
{ "type": "Feature", "properties": { }, "geometry": { "type": "MultiPolygon", "coordinates": [ [ [ [ 46.6483468, -24.4896804 ], [ 46.6465694, -24.4903365 ], [ 46.6478171, -24.4909845 ], [ 46.6483468, -24.4896804 ] ] ], [ [ [ 46.7935228, -24.8730686 ], [ 46.8065581, -24.8531438 ], [ 46.8155644, -24.8473539 ], [ 46.8283081, -24.8216415 ], [ 46.839114900000013, -24.8014572 ], [ 46.8419067, -24.7802166 ], [ 46.8567464, -24.767091 ], [ 46.8630427, -24.7629645 ], [ 46.8730572, -24.7756534 ], [ 46.8980786, -24.7797435 ], [ 46.9065486, -24.7632628 ], [ 46.903889, -24.7440247 ], [ 46.8753496, -24.7292118 ], [ 46.8565195, -24.7217561 ], [ 46.8461404, -24.6977496 ], [ 46.8310647, -24.7042073 ], [ 46.8276819, -24.7136163 ], [ 46.7922517, -24.7222191 ], [ 46.7841163, -24.6963621 ], [ 46.788845699999989, -24.6777838 ], [ 46.7806441, -24.6594502 ], [ 46.8125151, -24.6320347 ], [ 46.829227, -24.6217045 ], [ 46.843624299999988, -24.6197735 ], [ 46.8375331, -24.5973305 ], [ 46.8183674, -24.5884495 ], [ 46.8372222, -24.5843056 ], [ 46.8277188, -24.570015 ], [ 46.860568699999988, -24.5771734 ], [ 46.8754089, -24.5857438 ], [ 46.8783065, -24.5532251 ], [ 46.8594056, -24.5329294 ], [ 46.8263467, -24.5143946 ], [ 46.8011909, -24.53471 ], [ 46.774581499999989, -24.534884 ], [ 46.7686944, -24.5476011 ], [ 46.7539518, -24.5211896 ], [ 46.7437295, -24.5158575 ], [ 46.7302188, -24.517224 ], [ 46.7113679, -24.5228058 ], [ 46.6980934, -24.5178713 ], [ 46.6881188, -24.5156215 ], [ 46.6926839, -24.5379914 ], [ 46.6760158, -24.5433336 ], [ 46.6709879, -24.5644382 ], [ 46.6707645, -24.5819588 ], [ 46.6730127, -24.6170286 ], [ 46.6761878, -24.6388699 ], [ 46.695638, -24.6619912 ], [ 46.6702912, -24.6903766 ], [ 46.6663355, -24.7032984 ], [ 46.6802847, -24.7102044 ], [ 46.6682867, -24.7496444 ], [ 46.6839902, -24.7587741 ], [ 46.7021454, -24.7625281 ], [ 46.7065081, -24.7477389 ], [ 46.7275485, -24.7560708 ], [ 46.7035716, -24.7790883 ], [ 46.6985953, -24.7920915 ], [ 46.7110085, -24.8076052 ], [ 46.7310045, -24.8171174 ], [ 46.7202827, -24.8257721 ], [ 46.7103974, -24.8472683 ], [ 46.7143077, -24.8661526 ], [ 46.7104934, -24.8930721 ], [ 46.6800255, -24.9076343 ], [ 46.6728977, -24.9170661 ], [ 46.672671, -24.9479398 ], [ 46.6693023, -24.959615 ], [ 46.6773318, -24.9625451 ], [ 46.6824849, -24.9940234 ], [ 46.7139448, -25.0087728 ], [ 46.7257626, -24.9983122 ], [ 46.727253, -24.9874204 ], [ 46.7266221, -24.9793353 ], [ 46.7455698, -24.9613834 ], [ 46.73831340000001, -24.939869 ], [ 46.7369311, -24.9229996 ], [ 46.773406400000013, -24.929866 ], [ 46.7820816, -24.9247788 ], [ 46.7772674, -24.8972693 ], [ 46.7868366, -24.8830805 ], [ 46.7935228, -24.8730686 ] ] ], [ [ [ 46.5368141, -24.8280506 ], [ 46.5391258, -24.840527 ], [ 46.5418317, -24.8496985 ], [ 46.5468412, -24.8675527 ], [ 46.5556245, -24.8912713 ], [ 46.5659061, -24.921593 ], [ 46.5756745, -24.9264963 ], [ 46.5537004, -24.9458406 ], [ 46.5540251, -24.9725566 ], [ 46.5920602, -24.9616621 ], [ 46.619273, -24.9514343 ], [ 46.6214276, -24.9536307 ], [ 46.6291824, -24.9449219 ], [ 46.6281183, -24.9417924 ], [ 46.6264951, -24.9402082 ], [ 46.6259866, -24.9370322 ], [ 46.6261276, -24.93465 ], [ 46.6244765, -24.9320433 ], [ 46.6232294, -24.9312524 ], [ 46.6239704, -24.9295482 ], [ 46.624116, -24.9282897 ], [ 46.6232132, -24.9263728 ], [ 46.6212146, -24.9241087 ], [ 46.6195939, -24.9232053 ], [ 46.6184631, -24.9199175 ], [ 46.6164658, -24.9179937 ], [ 46.6149638, -24.9152742 ], [ 46.6149546, -24.9124372 ], [ 46.6154405, -24.9088046 ], [ 46.6150562, -24.9054012 ], [ 46.6144257, -24.9027928 ], [ 46.6174034, -24.9001747 ], [ 46.6195115, -24.8980129 ], [ 46.6213718, -24.8961921 ], [ 46.6228569, -24.893805 ], [ 46.6234697, -24.8909663 ], [ 46.6240816, -24.8879006 ], [ 46.6259417, -24.8860798 ], [ 46.6278022, -24.8843725 ], [ 46.6300327, -24.8817562 ], [ 46.6343639, -24.8749353 ], [ 46.6359645, -24.8700511 ], [ 46.6368234, -24.8665308 ], [ 46.6374323, -24.8626707 ], [ 46.6384185, -24.8600579 ], [ 46.6405283, -24.8586902 ], [ 46.6420142, -24.8567568 ], [ 46.6443653, -24.8532322 ], [ 46.6449802, -24.8511877 ], [ 46.6429767, -24.8472216 ], [ 46.6434687, -24.8456315 ], [ 46.6455798, -24.8447176 ], [ 46.6488192, -24.8464105 ], [ 46.6499294, -24.8437973 ], [ 46.6508999, -24.8367586 ], [ 46.6520604, -24.832606 ], [ 46.655666, -24.8285698 ], [ 46.6563345, -24.8256775 ], [ 46.6591833, -24.8230033 ], [ 46.6571807, -24.8192642 ], [ 46.655059, -24.8170008 ], [ 46.6530661, -24.8159852 ], [ 46.6488589, -24.8167408 ], [ 46.6465491, -24.8158001 ], [ 46.6434034, -24.8148758 ], [ 46.6415813, -24.8131827 ], [ 46.6376264, -24.8122081 ], [ 46.6303906, -24.8118454 ], [ 46.6221959, -24.8097625 ], [ 46.6203159, -24.8101908 ], [ 46.6188605, -24.81484 ], [ 46.6170171, -24.8188088 ], [ 46.6141634, -24.8207455 ], [ 46.6126659, -24.8190472 ], [ 46.6112873, -24.8163052 ], [ 46.610167, -24.8151953 ], [ 46.609043, -24.8136094 ], [ 46.605561599999987, -24.8136185 ], [ 46.6014606, -24.8143099 ], [ 46.5994739, -24.8152228 ], [ 46.5981066, -24.8153398 ], [ 46.5954975, -24.8160273 ], [ 46.5923866, -24.8152407 ], [ 46.5901465, -24.8145653 ], [ 46.5869114, -24.8137789 ], [ 46.5854178, -24.8142562 ], [ 46.5825533, -24.8194425 ], [ 46.5793484, -24.8212874 ], [ 46.5779786, -24.8206098 ], [ 46.5768481, -24.8166405 ], [ 46.5749749, -24.8138078 ], [ 46.5720373, -24.8120995 ], [ 46.5682539, -24.8114404 ], [ 46.5642773, -24.812244 ], [ 46.5600545, -24.813956 ], [ 46.5580756, -24.8178191 ], [ 46.5565908, -24.8205462 ], [ 46.5536077, -24.8210069 ], [ 46.5487549, -24.8197693 ], [ 46.5457703, -24.8196624 ], [ 46.5409573, -24.8229023 ], [ 46.5380145, -24.8256007 ], [ 46.5368141, -24.8280506 ] ] ], [ [ [ 46.6261445, -25.0015169 ], [ 46.6276403, -25.0062586 ], [ 46.6297033, -25.0124339 ], [ 46.6300907, -25.0135933 ], [ 46.6285135, -25.0195128 ], [ 46.6312478, -25.0256211 ], [ 46.6401707, -25.0244657 ], [ 46.6518037, -25.0185006 ], [ 46.6450259, -25.0125899 ], [ 46.644897600000014, -25.0113476 ], [ 46.6438376, -25.0095997 ], [ 46.6411668, -25.008026 ], [ 46.6394094, -25.0066022 ], [ 46.631472, -25.0006545 ], [ 46.630042, -24.9993594 ], [ 46.6284915, -24.9990814 ], [ 46.6266941, -24.9990865 ], [ 46.625830799999981, -25.0003881 ], [ 46.6261445, -25.0015169 ] ] ] ] } }
]
}
