{
"type": "FeatureCollection",
"name": "MDG-354012-NODATE-secondary_zoning-001",
"crs": { "type": "name", "properties": { "name": "urn:ogc:def:crs:OGC:1.3:CRS84" } },
"features": [
{ "type": "Feature", "properties": { }, "geometry": { "type": "MultiPolygon", "coordinates": [ [ [ [ 43.5016275, -22.7866719 ], [ 43.4921623, -22.7340476 ], [ 43.4001793, -22.7099252 ], [ 43.4521574, -22.794414 ], [ 43.5016275, -22.7866719 ] ] ], [ [ [ 43.4466753, -22.5438317 ], [ 43.3406997, -22.5487224 ], [ 43.3690052, -22.587243 ], [ 43.3909018, -22.685211 ], [ 43.4449262, -22.6658563 ], [ 43.4466753, -22.5438317 ] ] ], [ [ [ 43.3915105, -22.5287144 ], [ 43.4146361, -22.4797024 ], [ 43.3412214, -22.4713794 ], [ 43.343884700000011, -22.547449 ], [ 43.3915105, -22.5287144 ] ] ], [ [ [ 43.3420841, -22.470803 ], [ 43.415260699999983, -22.477883 ], [ 43.4166983, -22.3791885 ], [ 43.3438434, -22.3795769 ], [ 43.3420841, -22.470803 ] ] ], [ [ [ 43.3440813, -22.3783962 ], [ 43.4167079, -22.3787335 ], [ 43.4427555, -22.2666613 ], [ 43.3615277, -22.2318292 ], [ 43.3440813, -22.3783962 ] ] ], [ [ [ 43.3869035, -22.1768934 ], [ 43.3482956, -22.1732447 ], [ 43.3501265, -22.226735500000011 ], [ 43.4428076, -22.2662899 ], [ 43.444076, -22.2157243 ], [ 43.3869035, -22.1768934 ] ] ], [ [ [ 43.4530737, -22.7984004 ], [ 43.4608096, -22.8616817 ], [ 43.5073211, -22.85135 ], [ 43.5028648, -22.7896171 ], [ 43.4530737, -22.7984004 ] ] ], [ [ [ 43.5044393, -22.1469735 ], [ 43.519253, -22.1206226 ], [ 43.5197194, -22.0888505 ], [ 43.4469512, -22.0856768 ], [ 43.4510216, -22.1465179 ], [ 43.5044393, -22.1469735 ] ] ], [ [ [ 43.4663609, -22.0808813 ], [ 43.5497532, -22.0763087 ], [ 43.5739025, -22.0313869 ], [ 43.5930651, -22.031169 ], [ 43.5932784, -21.9773588 ], [ 43.5750961, -21.9770259 ], [ 43.576186500000013, -21.9272735 ], [ 43.5933737, -21.9274346 ], [ 43.5935717, -21.9024368 ], [ 43.576377799999989, -21.8887333 ], [ 43.526404799999987, -21.8883303 ], [ 43.4810007, -21.8354058 ], [ 43.4185652, -21.8393427 ], [ 43.3773915, -21.9104667 ], [ 43.38068220000001, -22.0189037 ], [ 43.4453077, -21.9931921 ], [ 43.4693277, -22.0275913 ], [ 43.4663609, -22.0808813 ] ] ], [ [ [ 43.7720536, -21.8493997 ], [ 43.7703099, -21.8691785 ], [ 43.7997922, -21.8700227 ], [ 43.7720536, -21.8493997 ] ] ], [ [ [ 43.71365, -21.8348105 ], [ 43.7279836, -21.8303913 ], [ 43.7490607, -21.8430023 ], [ 43.7506802, -21.8603395 ], [ 43.769343699999986, -21.8690339 ], [ 43.7715098, -21.84929 ], [ 43.7613817, -21.8257155 ], [ 43.7144077, -21.7939995 ], [ 43.71365, -21.8348105 ] ] ] ] } }
]
}
