{
"type": "FeatureCollection",
"name": "MDG-5040-NODATE-secondary_zoning-001",
"crs": { "type": "name", "properties": { "name": "urn:ogc:def:crs:OGC:1.3:CRS84" } },
"features": [
{ "type": "Feature", "properties": { }, "geometry": { "type": "Polygon", "coordinates": [ [ [ 44.5674956, -20.1651511 ], [ 44.5596775, -20.1561506 ], [ 44.5533681, -20.1479621 ], [ 44.5468754, -20.1410454 ], [ 44.5433255, -20.1418034 ], [ 44.5311603, -20.1439014 ], [ 44.5232154, -20.1455668 ], [ 44.5204032, -20.154931 ], [ 44.512619, -20.1709288 ], [ 44.501795699999988, -20.187052 ], [ 44.5172768, -20.1899287 ], [ 44.5320549, -20.1951851 ], [ 44.564512, -20.2031772 ], [ 44.5771323, -20.1915275 ], [ 44.5750818, -20.179563 ], [ 44.5674956, -20.1651511 ] ] ] } }
]
}
