{
"type": "FeatureCollection",
"name": "MDG-555697908-2015-boundary_modification-001",
"crs": { "type": "name", "properties": { "name": "urn:ogc:def:crs:OGC:1.3:CRS84" } },
"features": [
{ "type": "Feature", "properties": { }, "geometry": { "type": "MultiPolygon", "coordinates": [ [ [ [ 49.923911, -13.059636 ], [ 49.924544, -13.059172 ], [ 49.925642, -13.058201 ], [ 49.925937, -13.057863 ], [ 49.926233, -13.056977 ], [ 49.926106, -13.056259 ], [ 49.925769, -13.055331 ], [ 49.925304, -13.054106 ], [ 49.925473, -13.053389 ], [ 49.925769, -13.052207 ], [ 49.926064, -13.050814 ], [ 49.926571, -13.049548 ], [ 49.926993, -13.048197 ], [ 49.926951, -13.047226 ], [ 49.927035, -13.04655 ], [ 49.927119, -13.046086 ], [ 49.927753, -13.045073 ], [ 49.928513, -13.043722 ], [ 49.928513, -13.043342 ], [ 49.927964, -13.042625 ], [ 49.926571, -13.041401 ], [ 49.924967, -13.039839 ], [ 49.923405, -13.038277 ], [ 49.92256, -13.03739 ], [ 49.922434, -13.036588 ], [ 49.921758, -13.0349 ], [ 49.920787, -13.033591 ], [ 49.919479, -13.033507 ], [ 49.916524, -13.03338 ], [ 49.913907, -13.033169 ], [ 49.912893, -13.032831 ], [ 49.910994, -13.032156 ], [ 49.90901, -13.031312 ], [ 49.907237, -13.02937 ], [ 49.904704, -13.026668 ], [ 49.904408, -13.025655 ], [ 49.903817, -13.023713 ], [ 49.903606, -13.022278 ], [ 49.903606, -13.020716 ], [ 49.903606, -13.018521 ], [ 49.903015, -13.017677 ], [ 49.902171, -13.0162 ], [ 49.901453, -13.015018 ], [ 49.900356, -13.014975 ], [ 49.899343, -13.014764 ], [ 49.898541, -13.016157 ], [ 49.898076, -13.01755 ], [ 49.898372, -13.018648 ], [ 49.898541, -13.019999 ], [ 49.898836, -13.021349 ], [ 49.898709, -13.023882 ], [ 49.898541, -13.026626 ], [ 49.897696, -13.027935 ], [ 49.896346, -13.029708 ], [ 49.895375, -13.031396 ], [ 49.893855, -13.03452 ], [ 49.892926, -13.036462 ], [ 49.892926, -13.037348 ], [ 49.893095, -13.03929 ], [ 49.892251, -13.041612 ], [ 49.892124, -13.042371 ], [ 49.891744, -13.043596 ], [ 49.891618, -13.044482 ], [ 49.891829, -13.04596 ], [ 49.89166, -13.047986 ], [ 49.890815, -13.051278 ], [ 49.890436, -13.052756 ], [ 49.88938, -13.05436 ], [ 49.887987, -13.056513 ], [ 49.886383, -13.058581 ], [ 49.88499, -13.060565 ], [ 49.884019, -13.060818 ], [ 49.882753, -13.061156 ], [ 49.881571, -13.061536 ], [ 49.880304, -13.062127 ], [ 49.878953, -13.062422 ], [ 49.877771, -13.062422 ], [ 49.877645, -13.063267 ], [ 49.877771, -13.064617 ], [ 49.878573, -13.065462 ], [ 49.879375, -13.066306 ], [ 49.880009, -13.067319 ], [ 49.880262, -13.068206 ], [ 49.880769, -13.069641 ], [ 49.881106, -13.070696 ], [ 49.880473, -13.070907 ], [ 49.8787, -13.071709 ], [ 49.876758, -13.072933 ], [ 49.874563, -13.074326 ], [ 49.872706, -13.074369 ], [ 49.871439, -13.074031 ], [ 49.870004, -13.073693 ], [ 49.868526, -13.073566 ], [ 49.86764, -13.073567 ], [ 49.866965, -13.073693 ], [ 49.866205, -13.074284 ], [ 49.865276, -13.075551 ], [ 49.864896, -13.075804 ], [ 49.863461, -13.076184 ], [ 49.862574, -13.076901 ], [ 49.861899, -13.077914 ], [ 49.860844, -13.07935 ], [ 49.859662, -13.080405 ], [ 49.858733, -13.081334 ], [ 49.858015, -13.080954 ], [ 49.857255, -13.0807 ], [ 49.85734, -13.08108 ], [ 49.857973, -13.081967 ], [ 49.858437, -13.083064 ], [ 49.859493, -13.084542 ], [ 49.860928, -13.086863 ], [ 49.862026, -13.089059 ], [ 49.863292, -13.091338 ], [ 49.863461, -13.092267 ], [ 49.863841, -13.093618 ], [ 49.86401, -13.095517 ], [ 49.86439, -13.096193 ], [ 49.864347, -13.09843 ], [ 49.864769, -13.099696 ], [ 49.865783, -13.102187 ], [ 49.866289, -13.103664 ], [ 49.866458, -13.105057 ], [ 49.866838, -13.107252 ], [ 49.867218, -13.109827 ], [ 49.867513, -13.111853 ], [ 49.868147, -13.114555 ], [ 49.868315, -13.117468 ], [ 49.868484, -13.120718 ], [ 49.868484, -13.122575 ], [ 49.86802, -13.123673 ], [ 49.867429, -13.124939 ], [ 49.867767, -13.126248 ], [ 49.867935, -13.127134 ], [ 49.867724, -13.128147 ], [ 49.867513, -13.129709 ], [ 49.867387, -13.130638 ], [ 49.867767, -13.132158 ], [ 49.866162, -13.133382 ], [ 49.86536, -13.134353 ], [ 49.864856, -13.135067 ], [ 49.864347, -13.135888 ], [ 49.864347, -13.138194 ], [ 49.865065, -13.139249 ], [ 49.865783, -13.14022 ], [ 49.865107, -13.142922 ], [ 49.865107, -13.143597 ], [ 49.865487, -13.145328 ], [ 49.865825, -13.147101 ], [ 49.866078, -13.147903 ], [ 49.8665, -13.148747 ], [ 49.866753, -13.149634 ], [ 49.867091, -13.151111 ], [ 49.867471, -13.152504 ], [ 49.867471, -13.153433 ], [ 49.867049, -13.155375 ], [ 49.866796, -13.156725 ], [ 49.866247, -13.158667 ], [ 49.866247, -13.159343 ], [ 49.866416, -13.16006 ], [ 49.867429, -13.160862 ], [ 49.86802, -13.160862 ], [ 49.868822, -13.160651 ], [ 49.870046, -13.159596 ], [ 49.870511, -13.158836 ], [ 49.870511, -13.158161 ], [ 49.870595, -13.157274 ], [ 49.871017, -13.157021 ], [ 49.871861, -13.156894 ], [ 49.87279, -13.157401 ], [ 49.873677, -13.158034 ], [ 49.874647, -13.159174 ], [ 49.874985, -13.16082 ], [ 49.875618, -13.161918 ], [ 49.876209, -13.161158 ], [ 49.877054, -13.160102 ], [ 49.878109, -13.158667 ], [ 49.879798, -13.157781 ], [ 49.881782, -13.156683 ], [ 49.882457, -13.156725 ], [ 49.884821, -13.156979 ], [ 49.888325, -13.157739 ], [ 49.889211, -13.158498 ], [ 49.890267, -13.159596 ], [ 49.891111, -13.16044 ], [ 49.893306, -13.162466 ], [ 49.894319, -13.163606 ], [ 49.894319, -13.163648 ], [ 49.895459, -13.165506 ], [ 49.89643, -13.166856 ], [ 49.897443, -13.168587 ], [ 49.898498, -13.170022 ], [ 49.898583, -13.17074 ], [ 49.898287, -13.171458 ], [ 49.898118, -13.172217 ], [ 49.898076, -13.173062 ], [ 49.898583, -13.173737 ], [ 49.899638, -13.174666 ], [ 49.901369, -13.176481 ], [ 49.90272, -13.17779 ], [ 49.903817, -13.178887 ], [ 49.904873, -13.180533 ], [ 49.905548, -13.181758 ], [ 49.905548, -13.182517 ], [ 49.905421, -13.184375 ], [ 49.905421, -13.185303 ], [ 49.905886, -13.18619 ], [ 49.906097, -13.18695 ], [ 49.905717, -13.188005 ], [ 49.905548, -13.188807 ], [ 49.90597, -13.189989 ], [ 49.906519, -13.191382 ], [ 49.90711, -13.192606 ], [ 49.907785, -13.194084 ], [ 49.90863, -13.195856 ], [ 49.909094, -13.198052 ], [ 49.909643, -13.200542 ], [ 49.909305, -13.201766 ], [ 49.908925, -13.203455 ], [ 49.908292, -13.204974 ], [ 49.908841, -13.204974 ], [ 49.910656, -13.205186 ], [ 49.911796, -13.205017 ], [ 49.91302, -13.204721 ], [ 49.914413, -13.204341 ], [ 49.915722, -13.206114 ], [ 49.916481, -13.207718 ], [ 49.917072, -13.207001 ], [ 49.917917, -13.20603 ], [ 49.918677, -13.205143 ], [ 49.919394, -13.204383 ], [ 49.919436, -13.203666 ], [ 49.919816, -13.203117 ], [ 49.920661, -13.202231 ], [ 49.919901, -13.200669 ], [ 49.920112, -13.199656 ], [ 49.92007, -13.198938 ], [ 49.919816, -13.197841 ], [ 49.919816, -13.196743 ], [ 49.919183, -13.195561 ], [ 49.918212, -13.193873 ], [ 49.918128, -13.192775 ], [ 49.918001, -13.191382 ], [ 49.917621, -13.190496 ], [ 49.917157, -13.188934 ], [ 49.916988, -13.188089 ], [ 49.917621, -13.18543 ], [ 49.917959, -13.183953 ], [ 49.918297, -13.182391 ], [ 49.91893, -13.180027 ], [ 49.919014, -13.179267 ], [ 49.919268, -13.176903 ], [ 49.919605, -13.174075 ], [ 49.919859, -13.171669 ], [ 49.920618, -13.167701 ], [ 49.921336, -13.163986 ], [ 49.921758, -13.161749 ], [ 49.922223, -13.160102 ], [ 49.923362, -13.156177 ], [ 49.924882, -13.150267 ], [ 49.92598, -13.145328 ], [ 49.926486, -13.14212 ], [ 49.927077, -13.138447 ], [ 49.927204, -13.136801 ], [ 49.92733, -13.136379 ], [ 49.927204, -13.134733 ], [ 49.927204, -13.133508 ], [ 49.926571, -13.132918 ], [ 49.925811, -13.133044 ], [ 49.924798, -13.132791 ], [ 49.923785, -13.132369 ], [ 49.9237, -13.131524 ], [ 49.923405, -13.129498 ], [ 49.923911, -13.128232 ], [ 49.923911, -13.12781 ], [ 49.923658, -13.126121 ], [ 49.923489, -13.12342 ], [ 49.924164, -13.121942 ], [ 49.924291, -13.120423 ], [ 49.924333, -13.118903 ], [ 49.925093, -13.11561 ], [ 49.926402, -13.110714 ], [ 49.926402, -13.108434 ], [ 49.926486, -13.108139 ], [ 49.927204, -13.107168 ], [ 49.927204, -13.106577 ], [ 49.927373, -13.105353 ], [ 49.927753, -13.104213 ], [ 49.928428, -13.102651 ], [ 49.928301, -13.101258 ], [ 49.928175, -13.100076 ], [ 49.929694, -13.096446 ], [ 49.930623, -13.093407 ], [ 49.931679, -13.08965 ], [ 49.931847, -13.088721 ], [ 49.931341, -13.087581 ], [ 49.931974, -13.085682 ], [ 49.931763, -13.082389 ], [ 49.930919, -13.080869 ], [ 49.929061, -13.079983 ], [ 49.927922, -13.078294 ], [ 49.926571, -13.076268 ], [ 49.925178, -13.074453 ], [ 49.925178, -13.074115 ], [ 49.924755, -13.072174 ], [ 49.924418, -13.070443 ], [ 49.924629, -13.068459 ], [ 49.924755, -13.067192 ], [ 49.924376, -13.066095 ], [ 49.923362, -13.063858 ], [ 49.923025, -13.06276 ], [ 49.923109, -13.062254 ], [ 49.923573, -13.060903 ], [ 49.923911, -13.059636 ] ] ], [ [ [ 49.452248, -13.100922 ], [ 49.448628, -13.101267 ], [ 49.445238, -13.101669 ], [ 49.442538, -13.102071 ], [ 49.440297, -13.102531 ], [ 49.43886, -13.103508 ], [ 49.437769, -13.10391 ], [ 49.43593, -13.104369 ], [ 49.433976, -13.104944 ], [ 49.434267, -13.106156 ], [ 49.434299, -13.108063 ], [ 49.434138, -13.109582 ], [ 49.433362, -13.110422 ], [ 49.431875, -13.112006 ], [ 49.429354, -13.113363 ], [ 49.427124, -13.113977 ], [ 49.424894, -13.114107 ], [ 49.422793, -13.114171 ], [ 49.421339, -13.11388 ], [ 49.419949, -13.112943 ], [ 49.419238, -13.111844 ], [ 49.417299, -13.109776 ], [ 49.416394, -13.108968 ], [ 49.415974, -13.108871 ], [ 49.415715, -13.109097 ], [ 49.414939, -13.109711 ], [ 49.414455, -13.110422 ], [ 49.414681, -13.111618 ], [ 49.414745, -13.113266 ], [ 49.414552, -13.114785 ], [ 49.414616, -13.115626 ], [ 49.414778, -13.117597 ], [ 49.414519, -13.119278 ], [ 49.414325, -13.120667 ], [ 49.413582, -13.121379 ], [ 49.412903, -13.121669 ], [ 49.411675, -13.12196 ], [ 49.410511, -13.12238 ], [ 49.410382, -13.122898 ], [ 49.410447, -13.123996 ], [ 49.410867, -13.124416 ], [ 49.412031, -13.125677 ], [ 49.413808, -13.126 ], [ 49.41523, -13.126259 ], [ 49.416782, -13.126517 ], [ 49.41746, -13.127067 ], [ 49.418656, -13.127972 ], [ 49.419206, -13.128553 ], [ 49.419206, -13.129361 ], [ 49.418915, -13.129717 ], [ 49.417622, -13.130008 ], [ 49.416362, -13.129749 ], [ 49.415327, -13.129297 ], [ 49.414519, -13.129264 ], [ 49.413647, -13.12962 ], [ 49.413226, -13.130202 ], [ 49.413, -13.130525 ], [ 49.413162, -13.130816 ], [ 49.413647, -13.131236 ], [ 49.413937, -13.132399 ], [ 49.414034, -13.133498 ], [ 49.413808, -13.134274 ], [ 49.413259, -13.135147 ], [ 49.412839, -13.136084 ], [ 49.412806, -13.136504 ], [ 49.413744, -13.138411 ], [ 49.416361, -13.13938 ], [ 49.41746, -13.140318 ], [ 49.417363, -13.14132 ], [ 49.416232, -13.142451 ], [ 49.415166, -13.143259 ], [ 49.414842, -13.143905 ], [ 49.41439, -13.144164 ], [ 49.413388, -13.144681 ], [ 49.412354, -13.145004 ], [ 49.41119, -13.144843 ], [ 49.409994, -13.14481 ], [ 49.410037, -13.14518 ], [ 49.410078, -13.145533 ], [ 49.410091, -13.14565 ], [ 49.410511, -13.146265 ], [ 49.41174, -13.147622 ], [ 49.412806, -13.148882 ], [ 49.414455, -13.150078 ], [ 49.415877, -13.150951 ], [ 49.417396, -13.15108 ], [ 49.418592, -13.151048 ], [ 49.418818, -13.151274 ], [ 49.419206, -13.151856 ], [ 49.419141, -13.152373 ], [ 49.418721, -13.154183 ], [ 49.418365, -13.155508 ], [ 49.418882, -13.156251 ], [ 49.419884, -13.157318 ], [ 49.421145, -13.157835 ], [ 49.42247, -13.158611 ], [ 49.423892, -13.159871 ], [ 49.424409, -13.160582 ], [ 49.424215, -13.161487 ], [ 49.423828, -13.162424 ], [ 49.422987, -13.163135 ], [ 49.422115, -13.163976 ], [ 49.421113, -13.165301 ], [ 49.419787, -13.167595 ], [ 49.419626, -13.168403 ], [ 49.419594, -13.168953 ], [ 49.419141, -13.169761 ], [ 49.418882, -13.170633 ], [ 49.419044, -13.171021 ], [ 49.41969, -13.171021 ], [ 49.420757, -13.17073 ], [ 49.421856, -13.170537 ], [ 49.422599, -13.170472 ], [ 49.423181, -13.170472 ], [ 49.424312, -13.170924 ], [ 49.425185, -13.171345 ], [ 49.425347, -13.172023 ], [ 49.42512, -13.172573 ], [ 49.425153, -13.173607 ], [ 49.424668, -13.174253 ], [ 49.423569, -13.175837 ], [ 49.422567, -13.17713 ], [ 49.421985, -13.177808 ], [ 49.422405, -13.17936 ], [ 49.423246, -13.179457 ], [ 49.423731, -13.179327 ], [ 49.423892, -13.178487 ], [ 49.424151, -13.177841 ], [ 49.425347, -13.17658 ], [ 49.425961, -13.176613 ], [ 49.426413, -13.176257 ], [ 49.427641, -13.175481 ], [ 49.429096, -13.174609 ], [ 49.430292, -13.17393 ], [ 49.43097, -13.173898 ], [ 49.431908, -13.173962 ], [ 49.432748, -13.174447 ], [ 49.433556, -13.175223 ], [ 49.434041, -13.176225 ], [ 49.433556, -13.176807 ], [ 49.432586, -13.177679 ], [ 49.431455, -13.178746 ], [ 49.430776, -13.179683 ], [ 49.430744, -13.180168 ], [ 49.431164, -13.180717 ], [ 49.432199, -13.18075 ], [ 49.433039, -13.180653 ], [ 49.434364, -13.180039 ], [ 49.435172, -13.179715 ], [ 49.435883, -13.179683 ], [ 49.43653, -13.179812 ], [ 49.43695, -13.180588 ], [ 49.437693, -13.181978 ], [ 49.438113, -13.182301 ], [ 49.439309, -13.182592 ], [ 49.439923, -13.182172 ], [ 49.440667, -13.181848 ], [ 49.441087, -13.181816 ], [ 49.441798, -13.182139 ], [ 49.442089, -13.182624 ], [ 49.442509, -13.183335 ], [ 49.442832, -13.184208 ], [ 49.442994, -13.185597 ], [ 49.442832, -13.18647 ], [ 49.442509, -13.187246 ], [ 49.442218, -13.188312 ], [ 49.44183, -13.190154 ], [ 49.441539, -13.191447 ], [ 49.44183, -13.192578 ], [ 49.442024, -13.193419 ], [ 49.442864, -13.19358 ], [ 49.443899, -13.193483 ], [ 49.44448, -13.193128 ], [ 49.445612, -13.192546 ], [ 49.446323, -13.192191 ], [ 49.447001, -13.192191 ], [ 49.447228, -13.192514 ], [ 49.447325, -13.193193 ], [ 49.447357, -13.194162 ], [ 49.447195, -13.194582 ], [ 49.446807, -13.195584 ], [ 49.446517, -13.196295 ], [ 49.446323, -13.197911 ], [ 49.446678, -13.198137 ], [ 49.447615, -13.198622 ], [ 49.448165, -13.198687 ], [ 49.449458, -13.198751 ], [ 49.449781, -13.198525 ], [ 49.450007, -13.197847 ], [ 49.450427, -13.197039 ], [ 49.450783, -13.196328 ], [ 49.451429, -13.196295 ], [ 49.452043, -13.19636 ], [ 49.452464, -13.196715 ], [ 49.453175, -13.197362 ], [ 49.453562, -13.197911 ], [ 49.453853, -13.198816 ], [ 49.454177, -13.199139 ], [ 49.455049, -13.199753 ], [ 49.455437, -13.199947 ], [ 49.455857, -13.199624 ], [ 49.456277, -13.199269 ], [ 49.456795, -13.199042 ], [ 49.457247, -13.199107 ], [ 49.457635, -13.200012 ], [ 49.458023, -13.200852 ], [ 49.45812, -13.201983 ], [ 49.458055, -13.203341 ], [ 49.457732, -13.203761 ], [ 49.457085, -13.204246 ], [ 49.457085, -13.205312 ], [ 49.457215, -13.205733 ], [ 49.457755, -13.206088 ], [ 49.458628, -13.205571 ], [ 49.460147, -13.204569 ], [ 49.460373, -13.203341 ], [ 49.460535, -13.20221 ], [ 49.459985, -13.201369 ], [ 49.459791, -13.200691 ], [ 49.460018, -13.19943 ], [ 49.461731, -13.198461 ], [ 49.462797, -13.198461 ], [ 49.46367, -13.198525 ], [ 49.463993, -13.199042 ], [ 49.464219, -13.199657 ], [ 49.464122, -13.200303 ], [ 49.463734, -13.201079 ], [ 49.463896, -13.20221 ], [ 49.464122, -13.203761 ], [ 49.464995, -13.20431 ], [ 49.465544, -13.204666 ], [ 49.465771, -13.204601 ], [ 49.466062, -13.203761 ], [ 49.466223, -13.203406 ], [ 49.46674, -13.202888 ], [ 49.467678, -13.202048 ], [ 49.468518, -13.201434 ], [ 49.46897, -13.201305 ], [ 49.469617, -13.201402 ], [ 49.47078, -13.201757 ], [ 49.471491, -13.201984 ], [ 49.471718, -13.202404 ], [ 49.471685, -13.202792 ], [ 49.471297, -13.203276 ], [ 49.470716, -13.203729 ], [ 49.470425, -13.204214 ], [ 49.470393, -13.204892 ], [ 49.470586, -13.205409 ], [ 49.471071, -13.205959 ], [ 49.471297, -13.206314 ], [ 49.470942, -13.206476 ], [ 49.47091, -13.206799 ], [ 49.47091, -13.207381 ], [ 49.471265, -13.207607 ], [ 49.472235, -13.207801 ], [ 49.473107, -13.20806 ], [ 49.473528, -13.208415 ], [ 49.474788, -13.209514 ], [ 49.475111, -13.21016 ], [ 49.475661, -13.211324 ], [ 49.476339, -13.211873 ], [ 49.477374, -13.21239 ], [ 49.477891, -13.212229 ], [ 49.47899, -13.211938 ], [ 49.479604, -13.212261 ], [ 49.479895, -13.212487 ], [ 49.479636, -13.212843 ], [ 49.479054, -13.213522 ], [ 49.478473, -13.213586 ], [ 49.478311, -13.213877 ], [ 49.477988, -13.214717 ], [ 49.477471, -13.214911 ], [ 49.477018, -13.21475 ], [ 49.476404, -13.214426 ], [ 49.476275, -13.214103 ], [ 49.476146, -13.213328 ], [ 49.475952, -13.212746 ], [ 49.475725, -13.212778 ], [ 49.475111, -13.213101 ], [ 49.47453, -13.213037 ], [ 49.47398, -13.213004 ], [ 49.473851, -13.213328 ], [ 49.474012, -13.213716 ], [ 49.474336, -13.214039 ], [ 49.474788, -13.214459 ], [ 49.475079, -13.215008 ], [ 49.474853, -13.215816 ], [ 49.474174, -13.216107 ], [ 49.47356, -13.216301 ], [ 49.47356, -13.216527 ], [ 49.473625, -13.217077 ], [ 49.474109, -13.217109 ], [ 49.474562, -13.217174 ], [ 49.474659, -13.217497 ], [ 49.474562, -13.218079 ], [ 49.474562, -13.218563 ], [ 49.474917, -13.218984 ], [ 49.475338, -13.218984 ], [ 49.475984, -13.218951 ], [ 49.47663, -13.218854 ], [ 49.476986, -13.219145 ], [ 49.477083, -13.219501 ], [ 49.477341, -13.219953 ], [ 49.477632, -13.220373 ], [ 49.477535, -13.220793 ], [ 49.477051, -13.222345 ], [ 49.476566, -13.223864 ], [ 49.476598, -13.224413 ], [ 49.477212, -13.225092 ], [ 49.477632, -13.225286 ], [ 49.478214, -13.224801 ], [ 49.478731, -13.224801 ], [ 49.478893, -13.224543 ], [ 49.479248, -13.224252 ], [ 49.480024, -13.224155 ], [ 49.480606, -13.224252 ], [ 49.481285, -13.224543 ], [ 49.481737, -13.224833 ], [ 49.482933, -13.225577 ], [ 49.483773, -13.226449 ], [ 49.48442, -13.227613 ], [ 49.484743, -13.228292 ], [ 49.485454, -13.228389 ], [ 49.486553, -13.228324 ], [ 49.487102, -13.228389 ], [ 49.48749, -13.228873 ], [ 49.487425, -13.229164 ], [ 49.487522, -13.229843 ], [ 49.488136, -13.229778 ], [ 49.488363, -13.229423 ], [ 49.488848, -13.228679 ], [ 49.489203, -13.228001 ], [ 49.489106, -13.227613 ], [ 49.488945, -13.226999 ], [ 49.489171, -13.226708 ], [ 49.489849, -13.226773 ], [ 49.490593, -13.226967 ], [ 49.491692, -13.226805 ], [ 49.492403, -13.227128 ], [ 49.492726, -13.227839 ], [ 49.493243, -13.229035 ], [ 49.493017, -13.229487 ], [ 49.492726, -13.230199 ], [ 49.492597, -13.231621 ], [ 49.492888, -13.23259 ], [ 49.493566, -13.233204 ], [ 49.493857, -13.233754 ], [ 49.494277, -13.234723 ], [ 49.494601, -13.234949 ], [ 49.495182, -13.234852 ], [ 49.4957, -13.234562 ], [ 49.496152, -13.234174 ], [ 49.496669, -13.233915 ], [ 49.497413, -13.233754 ], [ 49.498027, -13.233754 ], [ 49.498608, -13.234044 ], [ 49.498867, -13.234756 ], [ 49.499158, -13.235822 ], [ 49.499675, -13.236178 ], [ 49.500095, -13.237761 ], [ 49.500871, -13.240379 ], [ 49.50142, -13.242383 ], [ 49.501646, -13.242706 ], [ 49.502293, -13.242803 ], [ 49.502713, -13.242706 ], [ 49.503101, -13.242124 ], [ 49.503618, -13.241446 ], [ 49.504103, -13.241381 ], [ 49.504846, -13.241478 ], [ 49.505137, -13.24206 ], [ 49.50546, -13.242609 ], [ 49.506107, -13.242997 ], [ 49.507238, -13.243773 ], [ 49.508531, -13.244904 ], [ 49.509436, -13.245324 ], [ 49.510147, -13.246261 ], [ 49.510567, -13.246649 ], [ 49.511698, -13.247199 ], [ 49.512829, -13.248362 ], [ 49.513928, -13.248491 ], [ 49.514898, -13.249138 ], [ 49.515641, -13.250463 ], [ 49.516676, -13.252143 ], [ 49.51729, -13.252758 ], [ 49.518453, -13.252919 ], [ 49.519487, -13.252919 ], [ 49.52036, -13.252887 ], [ 49.520845, -13.252952 ], [ 49.521362, -13.253178 ], [ 49.522752, -13.253695 ], [ 49.522978, -13.2546 ], [ 49.523204, -13.254988 ], [ 49.523915, -13.254794 ], [ 49.524271, -13.254923 ], [ 49.52482, -13.255666 ], [ 49.525144, -13.255763 ], [ 49.525919, -13.255278 ], [ 49.527632, -13.25418 ], [ 49.529313, -13.252984 ], [ 49.531769, -13.250883 ], [ 49.533353, -13.249461 ], [ 49.53345, -13.251239 ], [ 49.533482, -13.252111 ], [ 49.533288, -13.252564 ], [ 49.532739, -13.252887 ], [ 49.532771, -13.253339 ], [ 49.5329, -13.253889 ], [ 49.533094, -13.25447 ], [ 49.533191, -13.25502 ], [ 49.5329, -13.25544 ], [ 49.532416, -13.256183 ], [ 49.531834, -13.256959 ], [ 49.531705, -13.257605 ], [ 49.531995, -13.257993 ], [ 49.53248, -13.258284 ], [ 49.533191, -13.258413 ], [ 49.534161, -13.258446 ], [ 49.535001, -13.258704 ], [ 49.535583, -13.259124 ], [ 49.536003, -13.259835 ], [ 49.536003, -13.26045 ], [ 49.53568, -13.261548 ], [ 49.535389, -13.262777 ], [ 49.535551, -13.263391 ], [ 49.536133, -13.263843 ], [ 49.536359, -13.264263 ], [ 49.536294, -13.264877 ], [ 49.535842, -13.26533 ], [ 49.535389, -13.26533 ], [ 49.534678, -13.264974 ], [ 49.533967, -13.264716 ], [ 49.532739, -13.264328 ], [ 49.531381, -13.264005 ], [ 49.531123, -13.264263 ], [ 49.530735, -13.265007 ], [ 49.530444, -13.265168 ], [ 49.529895, -13.265265 ], [ 49.529571, -13.265782 ], [ 49.529184, -13.266461 ], [ 49.528666, -13.267269 ], [ 49.528117, -13.267463 ], [ 49.527955, -13.267786 ], [ 49.527665, -13.268594 ], [ 49.527341, -13.26924 ], [ 49.527438, -13.269758 ], [ 49.527794, -13.270501 ], [ 49.528182, -13.271471 ], [ 49.528699, -13.272279 ], [ 49.529184, -13.27286 ], [ 49.529668, -13.27299 ], [ 49.53025, -13.273054 ], [ 49.530476, -13.273474 ], [ 49.530379, -13.273765 ], [ 49.530186, -13.274315 ], [ 49.530283, -13.275155 ], [ 49.530573, -13.275607 ], [ 49.53122, -13.27564 ], [ 49.532222, -13.275478 ], [ 49.533062, -13.275607 ], [ 49.534258, -13.276125 ], [ 49.534937, -13.276545 ], [ 49.534937, -13.277547 ], [ 49.534807, -13.278419 ], [ 49.534613, -13.279647 ], [ 49.534613, -13.280617 ], [ 49.535066, -13.281231 ], [ 49.535906, -13.282007 ], [ 49.536617, -13.282136 ], [ 49.537619, -13.282265 ], [ 49.53833, -13.282653 ], [ 49.539203, -13.283332 ], [ 49.540108, -13.283946 ], [ 49.540787, -13.28414 ], [ 49.541465, -13.284204 ], [ 49.541724, -13.284722 ], [ 49.542047, -13.2854 ], [ 49.542338, -13.285885 ], [ 49.543308, -13.286855 ], [ 49.544245, -13.28776 ], [ 49.545344, -13.288115 ], [ 49.546184, -13.288341 ], [ 49.547315, -13.288729 ], [ 49.548414, -13.289311 ], [ 49.549352, -13.289893 ], [ 49.549513, -13.290313 ], [ 49.549481, -13.290733 ], [ 49.549125, -13.290701 ], [ 49.548576, -13.290701 ], [ 49.5478, -13.290701 ], [ 49.54738, -13.291638 ], [ 49.546734, -13.292898 ], [ 49.546346, -13.293739 ], [ 49.546378, -13.294062 ], [ 49.546992, -13.294482 ], [ 49.547768, -13.29487 ], [ 49.548544, -13.294838 ], [ 49.549675, -13.294611 ], [ 49.55058, -13.29445 ], [ 49.551291, -13.29445 ], [ 49.552002, -13.294902 ], [ 49.553068, -13.295549 ], [ 49.553424, -13.295646 ], [ 49.55407, -13.295516 ], [ 49.554781, -13.295516 ], [ 49.555493, -13.296777 ], [ 49.556042, -13.297843 ], [ 49.556204, -13.298393 ], [ 49.555977, -13.299136 ], [ 49.555557, -13.300073 ], [ 49.555363, -13.301043 ], [ 49.555169, -13.302853 ], [ 49.554814, -13.304469 ], [ 49.554846, -13.305923 ], [ 49.555008, -13.307313 ], [ 49.555363, -13.307927 ], [ 49.555977, -13.30825 ], [ 49.556301, -13.30825 ], [ 49.55685, -13.307572 ], [ 49.557238, -13.30699 ], [ 49.557496, -13.306311 ], [ 49.557367, -13.305762 ], [ 49.557399, -13.305471 ], [ 49.558014, -13.305018 ], [ 49.558401, -13.304921 ], [ 49.559145, -13.304889 ], [ 49.559759, -13.304889 ], [ 49.560114, -13.305277 ], [ 49.560114, -13.305535 ], [ 49.559694, -13.306085 ], [ 49.559597, -13.307119 ], [ 49.559468, -13.308315 ], [ 49.559274, -13.309091 ], [ 49.559177, -13.309802 ], [ 49.559436, -13.310674 ], [ 49.559791, -13.311224 ], [ 49.55992, -13.311838 ], [ 49.559533, -13.312613 ], [ 49.559274, -13.313389 ], [ 49.559371, -13.313712 ], [ 49.559985, -13.314229 ], [ 49.560599, -13.3141 ], [ 49.561343, -13.313777 ], [ 49.561763, -13.313292 ], [ 49.5627, -13.312516 ], [ 49.563379, -13.311999 ], [ 49.563928, -13.311999 ], [ 49.564413, -13.311999 ], [ 49.564833, -13.312161 ], [ 49.564833, -13.312678 ], [ 49.56493, -13.313292 ], [ 49.564865, -13.314197 ], [ 49.564736, -13.314617 ], [ 49.564122, -13.315231 ], [ 49.563379, -13.316039 ], [ 49.562829, -13.316621 ], [ 49.562668, -13.317235 ], [ 49.563508, -13.317655 ], [ 49.564542, -13.318237 ], [ 49.566158, -13.318948 ], [ 49.567419, -13.319433 ], [ 49.568518, -13.319788 ], [ 49.569778, -13.320305 ], [ 49.570845, -13.320435 ], [ 49.571491, -13.320532 ], [ 49.572396, -13.321081 ], [ 49.57301, -13.321598 ], [ 49.573463, -13.321146 ], [ 49.57398, -13.320661 ], [ 49.574691, -13.320467 ], [ 49.57621, -13.320144 ], [ 49.577277, -13.319885 ], [ 49.577697, -13.319562 ], [ 49.578214, -13.31898 ], [ 49.579022, -13.318334 ], [ 49.579507, -13.317849 ], [ 49.579571, -13.317849 ], [ 49.580024, -13.318075 ], [ 49.580638, -13.318625 ], [ 49.581026, -13.318786 ], [ 49.581575, -13.31898 ], [ 49.582189, -13.319174 ], [ 49.582674, -13.319433 ], [ 49.582965, -13.320112 ], [ 49.583159, -13.320305 ], [ 49.584064, -13.320273 ], [ 49.585098, -13.320402 ], [ 49.586294, -13.32079 ], [ 49.586747, -13.320726 ], [ 49.587458, -13.320241 ], [ 49.588298, -13.319756 ], [ 49.589235, -13.320176 ], [ 49.589817, -13.320144 ], [ 49.590463, -13.319853 ], [ 49.590916, -13.319853 ], [ 49.591239, -13.320144 ], [ 49.591789, -13.320758 ], [ 49.59237, -13.321081 ], [ 49.59292, -13.321016 ], [ 49.593308, -13.320532 ], [ 49.593695, -13.320241 ], [ 49.594083, -13.32037 ], [ 49.594342, -13.32079 ], [ 49.594406, -13.321437 ], [ 49.594859, -13.321857 ], [ 49.595247, -13.321857 ], [ 49.59599, -13.321404 ], [ 49.596637, -13.320952 ], [ 49.597509, -13.320855 ], [ 49.598414, -13.320823 ], [ 49.599287, -13.321534 ], [ 49.600095, -13.322083 ], [ 49.601258, -13.321986 ], [ 49.603521, -13.321857 ], [ 49.606107, -13.321404 ], [ 49.608918, -13.32092 ], [ 49.611149, -13.320499 ], [ 49.613088, -13.320112 ], [ 49.614445, -13.319756 ], [ 49.616158, -13.319077 ], [ 49.617096, -13.317784 ], [ 49.617516, -13.317461 ], [ 49.618453, -13.3173 ], [ 49.61897, -13.316847 ], [ 49.619681, -13.316169 ], [ 49.62078, -13.315037 ], [ 49.621168, -13.313874 ], [ 49.621491, -13.31271 ], [ 49.621717, -13.311482 ], [ 49.621782, -13.310383 ], [ 49.621911, -13.309996 ], [ 49.622396, -13.309866 ], [ 49.623398, -13.309705 ], [ 49.624335, -13.309446 ], [ 49.625046, -13.308897 ], [ 49.625661, -13.308477 ], [ 49.625887, -13.30741 ], [ 49.626178, -13.306343 ], [ 49.626307, -13.305665 ], [ 49.627923, -13.304113 ], [ 49.630315, -13.301657 ], [ 49.632319, -13.299233 ], [ 49.634128, -13.296648 ], [ 49.634128, -13.29613 ], [ 49.63429, -13.295355 ], [ 49.634484, -13.294385 ], [ 49.634613, -13.293771 ], [ 49.635389, -13.292608 ], [ 49.635971, -13.291864 ], [ 49.636876, -13.290992 ], [ 49.637393, -13.290668 ], [ 49.638589, -13.289957 ], [ 49.638427, -13.28902 ], [ 49.638427, -13.288115 ], [ 49.638653, -13.287469 ], [ 49.638944, -13.286758 ], [ 49.638686, -13.285885 ], [ 49.638653, -13.285174 ], [ 49.638718, -13.284011 ], [ 49.638492, -13.28317 ], [ 49.637716, -13.282589 ], [ 49.637458, -13.282136 ], [ 49.637425, -13.281748 ], [ 49.637813, -13.281296 ], [ 49.638298, -13.280811 ], [ 49.638621, -13.280455 ], [ 49.638621, -13.279938 ], [ 49.638266, -13.279551 ], [ 49.637458, -13.278872 ], [ 49.636973, -13.278161 ], [ 49.636779, -13.277482 ], [ 49.636908, -13.277062 ], [ 49.637522, -13.276642 ], [ 49.637942, -13.276189 ], [ 49.637781, -13.275769 ], [ 49.637425, -13.275737 ], [ 49.636843, -13.275187 ], [ 49.636843, -13.274767 ], [ 49.637102, -13.274347 ], [ 49.637328, -13.273895 ], [ 49.637264, -13.273442 ], [ 49.636811, -13.27328 ], [ 49.636165, -13.27286 ], [ 49.635777, -13.27202 ], [ 49.635745, -13.271244 ], [ 49.636003, -13.27076 ], [ 49.636003, -13.270146 ], [ 49.635745, -13.269305 ], [ 49.635906, -13.268917 ], [ 49.63665, -13.267754 ], [ 49.636908, -13.266881 ], [ 49.63652, -13.266461 ], [ 49.635745, -13.26617 ], [ 49.635357, -13.265653 ], [ 49.635227, -13.265104 ], [ 49.635551, -13.264716 ], [ 49.636262, -13.26449 ], [ 49.637425, -13.264069 ], [ 49.638007, -13.263552 ], [ 49.638007, -13.263003 ], [ 49.637716, -13.262421 ], [ 49.637296, -13.261775 ], [ 49.636617, -13.261452 ], [ 49.635615, -13.261225 ], [ 49.634775, -13.260805 ], [ 49.634613, -13.260417 ], [ 49.634807, -13.25948 ], [ 49.63471, -13.259157 ], [ 49.634032, -13.258317 ], [ 49.633838, -13.257799 ], [ 49.633514, -13.257056 ], [ 49.632836, -13.25586 ], [ 49.632383, -13.25502 ], [ 49.632739, -13.254438 ], [ 49.633611, -13.25405 ], [ 49.635195, -13.253856 ], [ 49.636488, -13.253598 ], [ 49.636746, -13.253275 ], [ 49.636746, -13.252693 ], [ 49.636229, -13.252144 ], [ 49.635227, -13.251562 ], [ 49.634452, -13.251239 ], [ 49.634484, -13.250721 ], [ 49.634872, -13.250495 ], [ 49.635615, -13.250204 ], [ 49.636229, -13.25001 ], [ 49.636779, -13.249267 ], [ 49.637264, -13.248782 ], [ 49.637845, -13.248394 ], [ 49.63833, -13.248815 ], [ 49.638718, -13.248847 ], [ 49.639171, -13.248362 ], [ 49.639494, -13.247554 ], [ 49.639979, -13.246617 ], [ 49.640076, -13.245356 ], [ 49.638686, -13.243837 ], [ 49.637845, -13.242609 ], [ 49.636779, -13.240961 ], [ 49.635874, -13.239442 ], [ 49.635712, -13.238472 ], [ 49.635486, -13.23747 ], [ 49.635357, -13.236339 ], [ 49.635518, -13.234723 ], [ 49.635357, -13.234174 ], [ 49.63471, -13.232655 ], [ 49.634161, -13.231782 ], [ 49.632868, -13.230069 ], [ 49.631381, -13.228776 ], [ 49.627988, -13.225932 ], [ 49.62482, -13.223314 ], [ 49.623657, -13.222377 ], [ 49.621879, -13.221537 ], [ 49.621362, -13.220955 ], [ 49.620877, -13.220212 ], [ 49.619099, -13.219856 ], [ 49.61855, -13.219695 ], [ 49.617031, -13.218822 ], [ 49.615641, -13.218014 ], [ 49.614478, -13.217271 ], [ 49.61396, -13.216786 ], [ 49.613217, -13.215881 ], [ 49.612118, -13.214071 ], [ 49.611601, -13.212617 ], [ 49.610922, -13.210839 ], [ 49.610535, -13.20932 ], [ 49.610405, -13.208318 ], [ 49.610341, -13.206638 ], [ 49.610567, -13.205733 ], [ 49.610793, -13.205054 ], [ 49.61131, -13.20347 ], [ 49.611763, -13.201919 ], [ 49.611827, -13.200626 ], [ 49.611795, -13.199236 ], [ 49.61131, -13.197556 ], [ 49.610858, -13.195972 ], [ 49.611536, -13.195067 ], [ 49.611633, -13.194518 ], [ 49.611924, -13.194065 ], [ 49.612474, -13.194033 ], [ 49.612894, -13.194389 ], [ 49.613476, -13.19497 ], [ 49.614187, -13.194712 ], [ 49.614995, -13.194712 ], [ 49.614995, -13.194485 ], [ 49.614801, -13.193807 ], [ 49.615027, -13.193257 ], [ 49.61548, -13.192611 ], [ 49.616643, -13.191738 ], [ 49.615383, -13.192255 ], [ 49.614284, -13.192449 ], [ 49.612732, -13.192482 ], [ 49.611181, -13.19232 ], [ 49.610438, -13.192191 ], [ 49.609436, -13.191221 ], [ 49.608563, -13.191253 ], [ 49.60811, -13.191221 ], [ 49.607109, -13.192029 ], [ 49.606333, -13.193128 ], [ 49.605266, -13.193225 ], [ 49.602939, -13.192934 ], [ 49.601679, -13.192385 ], [ 49.599901, -13.191609 ], [ 49.598576, -13.191221 ], [ 49.596895, -13.190607 ], [ 49.59473, -13.189314 ], [ 49.592597, -13.188474 ], [ 49.591078, -13.188151 ], [ 49.5893, -13.187084 ], [ 49.587231, -13.185598 ], [ 49.586003, -13.185307 ], [ 49.584355, -13.184887 ], [ 49.583127, -13.184369 ], [ 49.58164, -13.183723 ], [ 49.581026, -13.183077 ], [ 49.580476, -13.182301 ], [ 49.580056, -13.181364 ], [ 49.579539, -13.180394 ], [ 49.578957, -13.180006 ], [ 49.577923, -13.179651 ], [ 49.577406, -13.179101 ], [ 49.576856, -13.178132 ], [ 49.575984, -13.177227 ], [ 49.574723, -13.176677 ], [ 49.573463, -13.176225 ], [ 49.572816, -13.175772 ], [ 49.572202, -13.175061 ], [ 49.571427, -13.174738 ], [ 49.570683, -13.174577 ], [ 49.56994, -13.174124 ], [ 49.569487, -13.173219 ], [ 49.569229, -13.172282 ], [ 49.568679, -13.172023 ], [ 49.567645, -13.171926 ], [ 49.566676, -13.171409 ], [ 49.565997, -13.170795 ], [ 49.564898, -13.169632 ], [ 49.563476, -13.168727 ], [ 49.561634, -13.167692 ], [ 49.560696, -13.166917 ], [ 49.559921, -13.16627 ], [ 49.559597, -13.165107 ], [ 49.559403, -13.163976 ], [ 49.558854, -13.162392 ], [ 49.558304, -13.161422 ], [ 49.558078, -13.160711 ], [ 49.557658, -13.159613 ], [ 49.556107, -13.158094 ], [ 49.555105, -13.156865 ], [ 49.554749, -13.155767 ], [ 49.554167, -13.154506 ], [ 49.553521, -13.153343 ], [ 49.553262, -13.152987 ], [ 49.551905, -13.152858 ], [ 49.55155, -13.152793 ], [ 49.551, -13.152147 ], [ 49.550127, -13.151533 ], [ 49.548899, -13.150951 ], [ 49.546928, -13.14969 ], [ 49.545506, -13.148656 ], [ 49.544956, -13.148107 ], [ 49.544116, -13.147202 ], [ 49.543696, -13.147008 ], [ 49.54292, -13.146588 ], [ 49.541789, -13.146426 ], [ 49.540916, -13.145812 ], [ 49.539171, -13.145004 ], [ 49.537587, -13.145683 ], [ 49.536423, -13.146394 ], [ 49.535486, -13.14704 ], [ 49.534484, -13.147428 ], [ 49.533353, -13.148268 ], [ 49.532707, -13.148947 ], [ 49.532513, -13.149432 ], [ 49.532093, -13.150886 ], [ 49.531705, -13.151113 ], [ 49.530703, -13.151177 ], [ 49.530283, -13.151145 ], [ 49.529539, -13.15066 ], [ 49.528764, -13.150305 ], [ 49.527374, -13.150143 ], [ 49.526533, -13.149238 ], [ 49.525079, -13.148979 ], [ 49.523851, -13.148753 ], [ 49.523625, -13.147719 ], [ 49.523204, -13.14662 ], [ 49.522493, -13.145424 ], [ 49.521976, -13.145295 ], [ 49.521104, -13.145327 ], [ 49.520522, -13.145554 ], [ 49.519358, -13.146459 ], [ 49.518744, -13.146717 ], [ 49.517871, -13.146459 ], [ 49.516902, -13.145683 ], [ 49.515609, -13.144584 ], [ 49.514866, -13.143841 ], [ 49.514801, -13.143065 ], [ 49.515027, -13.142548 ], [ 49.515609, -13.141675 ], [ 49.516417, -13.140447 ], [ 49.516934, -13.139574 ], [ 49.517031, -13.13896 ], [ 49.516902, -13.138314 ], [ 49.516482, -13.137312 ], [ 49.5159, -13.135825 ], [ 49.515415, -13.134565 ], [ 49.515027, -13.133208 ], [ 49.515027, -13.132626 ], [ 49.515447, -13.132044 ], [ 49.516449, -13.130622 ], [ 49.517419, -13.129588 ], [ 49.517678, -13.129038 ], [ 49.517871, -13.128133 ], [ 49.517807, -13.127681 ], [ 49.517096, -13.126647 ], [ 49.516223, -13.124869 ], [ 49.51535, -13.123124 ], [ 49.514349, -13.121088 ], [ 49.513993, -13.120506 ], [ 49.513153, -13.119956 ], [ 49.512506, -13.119924 ], [ 49.511634, -13.119924 ], [ 49.510793, -13.12015 ], [ 49.51005, -13.120474 ], [ 49.509339, -13.120668 ], [ 49.508466, -13.120247 ], [ 49.508078, -13.119827 ], [ 49.507787, -13.119084 ], [ 49.507723, -13.118341 ], [ 49.508369, -13.117856 ], [ 49.508951, -13.117306 ], [ 49.509533, -13.116628 ], [ 49.509662, -13.115755 ], [ 49.509565, -13.115109 ], [ 49.50908, -13.115012 ], [ 49.508434, -13.115109 ], [ 49.507529, -13.115109 ], [ 49.506786, -13.115399 ], [ 49.505751, -13.115981 ], [ 49.50504, -13.117015 ], [ 49.504265, -13.118534 ], [ 49.503521, -13.119504 ], [ 49.502487, -13.120312 ], [ 49.50155, -13.121055 ], [ 49.500743, -13.121089 ], [ 49.500226, -13.120687 ], [ 49.499652, -13.119768 ], [ 49.498847, -13.118906 ], [ 49.498388, -13.118331 ], [ 49.497928, -13.117297 ], [ 49.497526, -13.116493 ], [ 49.496779, -13.116493 ], [ 49.496606, -13.116953 ], [ 49.496032, -13.117872 ], [ 49.495227, -13.117872 ], [ 49.494538, -13.117757 ], [ 49.494308, -13.117182 ], [ 49.494308, -13.116091 ], [ 49.494365, -13.115344 ], [ 49.494653, -13.114654 ], [ 49.495227, -13.114137 ], [ 49.496262, -13.113792 ], [ 49.49563, -13.113218 ], [ 49.494595, -13.112931 ], [ 49.493676, -13.112126 ], [ 49.492642, -13.111379 ], [ 49.49109, -13.111092 ], [ 49.489941, -13.11 ], [ 49.488734, -13.109541 ], [ 49.487873, -13.108966 ], [ 49.486149, -13.108966 ], [ 49.485115, -13.109311 ], [ 49.483563, -13.110402 ], [ 49.482069, -13.11046 ], [ 49.481035, -13.109943 ], [ 49.478679, -13.108851 ], [ 49.476266, -13.107357 ], [ 49.475174, -13.107185 ], [ 49.473795, -13.107185 ], [ 49.471152, -13.107874 ], [ 49.470922, -13.107242 ], [ 49.470578, -13.106151 ], [ 49.468854, -13.104944 ], [ 49.467302, -13.103278 ], [ 49.465981, -13.102014 ], [ 49.464085, -13.100922 ], [ 49.463165, -13.100865 ], [ 49.460407, -13.101209 ], [ 49.458511, -13.101497 ], [ 49.455638, -13.101209 ], [ 49.452248, -13.100922 ] ] ], [ [ [ 49.659782, -12.894555 ], [ 49.658492, -12.894555 ], [ 49.657621, -12.894071 ], [ 49.655622, -12.893104 ], [ 49.654139, -12.892233 ], [ 49.652462, -12.891234 ], [ 49.651043, -12.890234 ], [ 49.650205, -12.889621 ], [ 49.649367, -12.888654 ], [ 49.648561, -12.887751 ], [ 49.647916, -12.887106 ], [ 49.647206, -12.887074 ], [ 49.646013, -12.886881 ], [ 49.645046, -12.886687 ], [ 49.644014, -12.886429 ], [ 49.642369, -12.887042 ], [ 49.64037, -12.88817 ], [ 49.639145, -12.889815 ], [ 49.639274, -12.891298 ], [ 49.639435, -12.893362 ], [ 49.639532, -12.89549 ], [ 49.6395, -12.897263 ], [ 49.639338, -12.899392 ], [ 49.639145, -12.900875 ], [ 49.639209, -12.902036 ], [ 49.6395, -12.90368 ], [ 49.639919, -12.905969 ], [ 49.640338, -12.907678 ], [ 49.640725, -12.908904 ], [ 49.640499, -12.91029 ], [ 49.640273, -12.911225 ], [ 49.640402, -12.912257 ], [ 49.640725, -12.91345 ], [ 49.641628, -12.914933 ], [ 49.642305, -12.916094 ], [ 49.642466, -12.916932 ], [ 49.642627, -12.917771 ], [ 49.642305, -12.918287 ], [ 49.641531, -12.919093 ], [ 49.640693, -12.919963 ], [ 49.640435, -12.920931 ], [ 49.640531, -12.921995 ], [ 49.640757, -12.922769 ], [ 49.640983, -12.923607 ], [ 49.641015, -12.924381 ], [ 49.640918, -12.924994 ], [ 49.640273, -12.925219 ], [ 49.639532, -12.925477 ], [ 49.638984, -12.925767 ], [ 49.638855, -12.926316 ], [ 49.639016, -12.92696 ], [ 49.639725, -12.928057 ], [ 49.639886, -12.929314 ], [ 49.64008, -12.930056 ], [ 49.641047, -12.930636 ], [ 49.642144, -12.930926 ], [ 49.64324, -12.931185 ], [ 49.64324, -12.932055 ], [ 49.643498, -12.932378 ], [ 49.644175, -12.933022 ], [ 49.644723, -12.933442 ], [ 49.644562, -12.934377 ], [ 49.644433, -12.935408 ], [ 49.64453, -12.93644 ], [ 49.645046, -12.936956 ], [ 49.645916, -12.937633 ], [ 49.646787, -12.93802 ], [ 49.647754, -12.938859 ], [ 49.64798, -12.939826 ], [ 49.647916, -12.940858 ], [ 49.647851, -12.941438 ], [ 49.647206, -12.94276 ], [ 49.646851, -12.943695 ], [ 49.646851, -12.944437 ], [ 49.647851, -12.944953 ], [ 49.648367, -12.945823 ], [ 49.64898, -12.946339 ], [ 49.649883, -12.946823 ], [ 49.650044, -12.947436 ], [ 49.649915, -12.948371 ], [ 49.649334, -12.948951 ], [ 49.64856, -12.950015 ], [ 49.648464, -12.951789 ], [ 49.648367, -12.954304 ], [ 49.647625, -12.955432 ], [ 49.646336, -12.955658 ], [ 49.645497, -12.955851 ], [ 49.644723, -12.957206 ], [ 49.644304, -12.958173 ], [ 49.644143, -12.95956 ], [ 49.644465, -12.960043 ], [ 49.644788, -12.96072 ], [ 49.6454, -12.961688 ], [ 49.645465, -12.962848 ], [ 49.645336, -12.963397 ], [ 49.645271, -12.964428 ], [ 49.644788, -12.964719 ], [ 49.643498, -12.96517 ], [ 49.642789, -12.965235 ], [ 49.641628, -12.964525 ], [ 49.640499, -12.963848 ], [ 49.639564, -12.963461 ], [ 49.638532, -12.96388 ], [ 49.638145, -12.964977 ], [ 49.637178, -12.96575 ], [ 49.636114, -12.967653 ], [ 49.634566, -12.970587 ], [ 49.633437, -12.972876 ], [ 49.632406, -12.974618 ], [ 49.631116, -12.976294 ], [ 49.630503, -12.977101 ], [ 49.63031, -12.978132 ], [ 49.629955, -12.979067 ], [ 49.629536, -12.979777 ], [ 49.628472, -12.981744 ], [ 49.62744, -12.983291 ], [ 49.626892, -12.984452 ], [ 49.626601, -12.985774 ], [ 49.626537, -12.986967 ], [ 49.625763, -12.987548 ], [ 49.625571, -12.987717 ], [ 49.624832, -12.988507 ], [ 49.624828, -12.988515 ], [ 49.624634, -12.989128 ], [ 49.624183, -12.989901 ], [ 49.624892, -12.990063 ], [ 49.625602, -12.990256 ], [ 49.626311, -12.99045 ], [ 49.627085, -12.990643 ], [ 49.628181, -12.991062 ], [ 49.629503, -12.991223 ], [ 49.630826, -12.991514 ], [ 49.631535, -12.991933 ], [ 49.632728, -12.992932 ], [ 49.633792, -12.993674 ], [ 49.635598, -12.995125 ], [ 49.636146, -12.995673 ], [ 49.636759, -12.996834 ], [ 49.637275, -12.997705 ], [ 49.6385, -12.998543 ], [ 49.640015, -12.999414 ], [ 49.641434, -13.000123 ], [ 49.642402, -13.000381 ], [ 49.643401, -13.000961 ], [ 49.644788, -13.001864 ], [ 49.646336, -13.002735 ], [ 49.648883, -13.003831 ], [ 49.650592, -13.004476 ], [ 49.651495, -13.004669 ], [ 49.653784, -13.005089 ], [ 49.656009, -13.00554 ], [ 49.657428, -13.005669 ], [ 49.658589, -13.005927 ], [ 49.660459, -13.007281 ], [ 49.661136, -13.00741 ], [ 49.661942, -13.0077 ], [ 49.663039, -13.007733 ], [ 49.665102, -13.007668 ], [ 49.666102, -13.007571 ], [ 49.667521, -13.007507 ], [ 49.668391, -13.007475 ], [ 49.669649, -13.0077 ], [ 49.671164, -13.007829 ], [ 49.67239, -13.008087 ], [ 49.673422, -13.008249 ], [ 49.674357, -13.008603 ], [ 49.674873, -13.008668 ], [ 49.675389, -13.008603 ], [ 49.676034, -13.008506 ], [ 49.676614, -13.008152 ], [ 49.677065, -13.008023 ], [ 49.677549, -13.007991 ], [ 49.678323, -13.008055 ], [ 49.67929, -13.008184 ], [ 49.679774, -13.008474 ], [ 49.680677, -13.009216 ], [ 49.681161, -13.009313 ], [ 49.682096, -13.009184 ], [ 49.683385, -13.009119 ], [ 49.684675, -13.009184 ], [ 49.685772, -13.009345 ], [ 49.687384, -13.009538 ], [ 49.688738, -13.009732 ], [ 49.689351, -13.0097 ], [ 49.690383, -13.009603 ], [ 49.691511, -13.009506 ], [ 49.692769, -13.009667 ], [ 49.694059, -13.009829 ], [ 49.69522, -13.009409 ], [ 49.696735, -13.008958 ], [ 49.698089, -13.008507 ], [ 49.699379, -13.008055 ], [ 49.700024, -13.006959 ], [ 49.700895, -13.005701 ], [ 49.701443, -13.005314 ], [ 49.704248, -13.003251 ], [ 49.706796, -13.001477 ], [ 49.707827, -13.00109 ], [ 49.709311, -13.000349 ], [ 49.711794, -13.000381 ], [ 49.71347, -13.000349 ], [ 49.714019, -13.000155 ], [ 49.714664, -13.000026 ], [ 49.715728, -12.999575 ], [ 49.715631, -12.998188 ], [ 49.715663, -12.997447 ], [ 49.716018, -12.996963 ], [ 49.716566, -12.996125 ], [ 49.717469, -12.995157 ], [ 49.718565, -12.994093 ], [ 49.719726, -12.993126 ], [ 49.720758, -12.992288 ], [ 49.722951, -12.990708 ], [ 49.72466, -12.989418 ], [ 49.724885, -12.989063 ], [ 49.724982, -12.988483 ], [ 49.725208, -12.987838 ], [ 49.725466, -12.987644 ], [ 49.72711, -12.986322 ], [ 49.729206, -12.984775 ], [ 49.730464, -12.984162 ], [ 49.732721, -12.983001 ], [ 49.734881, -12.982002 ], [ 49.737171, -12.981937 ], [ 49.737654, -12.981486 ], [ 49.738493, -12.980873 ], [ 49.740008, -12.979487 ], [ 49.740234, -12.978906 ], [ 49.740847, -12.977133 ], [ 49.741234, -12.976649 ], [ 49.742427, -12.974779 ], [ 49.744877, -12.971071 ], [ 49.746715, -12.96804 ], [ 49.746803, -12.967425 ], [ 49.747425, -12.965654 ], [ 49.747586, -12.965041 ], [ 49.747522, -12.964429 ], [ 49.747457, -12.963429 ], [ 49.74736, -12.962139 ], [ 49.747264, -12.960753 ], [ 49.747038, -12.960398 ], [ 49.746361, -12.959689 ], [ 49.745587, -12.958689 ], [ 49.745361, -12.958044 ], [ 49.745361, -12.957496 ], [ 49.745458, -12.956754 ], [ 49.745877, -12.955078 ], [ 49.746071, -12.953756 ], [ 49.746006, -12.952208 ], [ 49.74578, -12.951531 ], [ 49.745103, -12.950015 ], [ 49.744974, -12.949628 ], [ 49.74462, -12.94779 ], [ 49.74333, -12.946114 ], [ 49.742298, -12.944921 ], [ 49.74104, -12.94347 ], [ 49.740137, -12.942148 ], [ 49.73917, -12.940632 ], [ 49.73859, -12.939665 ], [ 49.737977, -12.938794 ], [ 49.737171, -12.938053 ], [ 49.735172, -12.936569 ], [ 49.73385, -12.935344 ], [ 49.732302, -12.933796 ], [ 49.73069, -12.932087 ], [ 49.729077, -12.930346 ], [ 49.727239, -12.928476 ], [ 49.725143, -12.926832 ], [ 49.723467, -12.926058 ], [ 49.721661, -12.925187 ], [ 49.720145, -12.925058 ], [ 49.718565, -12.924897 ], [ 49.71705, -12.924736 ], [ 49.715502, -12.924639 ], [ 49.713954, -12.92451 ], [ 49.712406, -12.924284 ], [ 49.710794, -12.924091 ], [ 49.709311, -12.924284 ], [ 49.708343, -12.92422 ], [ 49.70786, -12.923672 ], [ 49.706602, -12.922736 ], [ 49.705474, -12.922253 ], [ 49.704958, -12.921608 ], [ 49.704281, -12.920834 ], [ 49.7037, -12.920221 ], [ 49.702733, -12.919061 ], [ 49.701604, -12.917964 ], [ 49.700572, -12.917416 ], [ 49.699573, -12.917061 ], [ 49.699089, -12.916674 ], [ 49.698702, -12.915772 ], [ 49.698347, -12.91503 ], [ 49.69738, -12.913224 ], [ 49.696864, -12.912418 ], [ 49.696284, -12.912193 ], [ 49.695607, -12.912322 ], [ 49.694897, -12.912579 ], [ 49.69451, -12.912773 ], [ 49.694155, -12.912547 ], [ 49.693607, -12.91187 ], [ 49.692866, -12.911096 ], [ 49.691511, -12.910838 ], [ 49.690705, -12.910516 ], [ 49.689286, -12.90971 ], [ 49.688158, -12.909097 ], [ 49.687481, -12.908678 ], [ 49.6869, -12.908807 ], [ 49.686191, -12.909 ], [ 49.685256, -12.908968 ], [ 49.684514, -12.908646 ], [ 49.683901, -12.90813 ], [ 49.683224, -12.907517 ], [ 49.683031, -12.907001 ], [ 49.68245, -12.905873 ], [ 49.682096, -12.905454 ], [ 49.681612, -12.905357 ], [ 49.68087, -12.905131 ], [ 49.680774, -12.904712 ], [ 49.680612, -12.904035 ], [ 49.680419, -12.90339 ], [ 49.679935, -12.902809 ], [ 49.679258, -12.902197 ], [ 49.678774, -12.901681 ], [ 49.67871, -12.900649 ], [ 49.678516, -12.899585 ], [ 49.678355, -12.898972 ], [ 49.677936, -12.898682 ], [ 49.676517, -12.897779 ], [ 49.675647, -12.897618 ], [ 49.67455, -12.897167 ], [ 49.673454, -12.896683 ], [ 49.672293, -12.89649 ], [ 49.671519, -12.896199 ], [ 49.67081, -12.895877 ], [ 49.669939, -12.895683 ], [ 49.669649, -12.895683 ], [ 49.668875, -12.895845 ], [ 49.668069, -12.896103 ], [ 49.667005, -12.896167 ], [ 49.666199, -12.896199 ], [ 49.66578, -12.896038 ], [ 49.665038, -12.895264 ], [ 49.6642, -12.89449 ], [ 49.663361, -12.894587 ], [ 49.662426, -12.894619 ], [ 49.661491, -12.894587 ], [ 49.659782, -12.894555 ] ] ], [ [ [ 49.751662, -13.115724 ], [ 49.751093, -13.114148 ], [ 49.75048, -13.112484 ], [ 49.750261, -13.110864 ], [ 49.75013, -13.109243 ], [ 49.749122, -13.108017 ], [ 49.747721, -13.106879 ], [ 49.746802, -13.106091 ], [ 49.746188, -13.105259 ], [ 49.745225, -13.104076 ], [ 49.744043, -13.101931 ], [ 49.743474, -13.100705 ], [ 49.742554, -13.098647 ], [ 49.741021, -13.09707 ], [ 49.740102, -13.096151 ], [ 49.73962, -13.094355 ], [ 49.739226, -13.092472 ], [ 49.738525, -13.091553 ], [ 49.736861, -13.089232 ], [ 49.736336, -13.0884 ], [ 49.736423, -13.087524 ], [ 49.736423, -13.086605 ], [ 49.736248, -13.086298 ], [ 49.735723, -13.08551 ], [ 49.73454, -13.085116 ], [ 49.733139, -13.08481 ], [ 49.732658, -13.084547 ], [ 49.732439, -13.083802 ], [ 49.732526, -13.082708 ], [ 49.732526, -13.081088 ], [ 49.732526, -13.079599 ], [ 49.732307, -13.079292 ], [ 49.73165, -13.078373 ], [ 49.730731, -13.077278 ], [ 49.72968, -13.076402 ], [ 49.729067, -13.075702 ], [ 49.729023, -13.075001 ], [ 49.728935, -13.073775 ], [ 49.728629, -13.073118 ], [ 49.727884, -13.071498 ], [ 49.727228, -13.069878 ], [ 49.726177, -13.068564 ], [ 49.725388, -13.067601 ], [ 49.72517, -13.066769 ], [ 49.724469, -13.065149 ], [ 49.723199, -13.063134 ], [ 49.722017, -13.062171 ], [ 49.721097, -13.061208 ], [ 49.721053, -13.060376 ], [ 49.720791, -13.058975 ], [ 49.720572, -13.058318 ], [ 49.719827, -13.057442 ], [ 49.718995, -13.056654 ], [ 49.718951, -13.055909 ], [ 49.718776, -13.05499 ], [ 49.718338, -13.054245 ], [ 49.717506, -13.053107 ], [ 49.716455, -13.052275 ], [ 49.715623, -13.051662 ], [ 49.715229, -13.050523 ], [ 49.71466, -13.04921 ], [ 49.713959, -13.047852 ], [ 49.713434, -13.046802 ], [ 49.712033, -13.045444 ], [ 49.709975, -13.043474 ], [ 49.707654, -13.04124 ], [ 49.706209, -13.039839 ], [ 49.705114, -13.03835 ], [ 49.703756, -13.036424 ], [ 49.702662, -13.035066 ], [ 49.701217, -13.03419 ], [ 49.699115, -13.033008 ], [ 49.697319, -13.03187 ], [ 49.696225, -13.03349 ], [ 49.694167, -13.037343 ], [ 49.694167, -13.039357 ], [ 49.693028, -13.041021 ], [ 49.691627, -13.0447 ], [ 49.690839, -13.045575 ], [ 49.689875, -13.046583 ], [ 49.688737, -13.047371 ], [ 49.68681, -13.048334 ], [ 49.685978, -13.049035 ], [ 49.684883, -13.050086 ], [ 49.683701, -13.051399 ], [ 49.682562, -13.052187 ], [ 49.680767, -13.053195 ], [ 49.680241, -13.054946 ], [ 49.679585, -13.055603 ], [ 49.677702, -13.057135 ], [ 49.676081, -13.058975 ], [ 49.674812, -13.061033 ], [ 49.673498, -13.06331 ], [ 49.673191, -13.065192 ], [ 49.672929, -13.066856 ], [ 49.67271, -13.068564 ], [ 49.672228, -13.069396 ], [ 49.671921, -13.070141 ], [ 49.67214, -13.072593 ], [ 49.671527, -13.074957 ], [ 49.671352, -13.076402 ], [ 49.671221, -13.079905 ], [ 49.670301, -13.080737 ], [ 49.669732, -13.082445 ], [ 49.668243, -13.084065 ], [ 49.667148, -13.085335 ], [ 49.665003, -13.087524 ], [ 49.662857, -13.089363 ], [ 49.660405, -13.092954 ], [ 49.658215, -13.096589 ], [ 49.657471, -13.097771 ], [ 49.657777, -13.098997 ], [ 49.65804, -13.100442 ], [ 49.658259, -13.1025 ], [ 49.658522, -13.104733 ], [ 49.658697, -13.10574 ], [ 49.659222, -13.107098 ], [ 49.659222, -13.107536 ], [ 49.658785, -13.109331 ], [ 49.658478, -13.110645 ], [ 49.658347, -13.112133 ], [ 49.658215, -13.114016 ], [ 49.657996, -13.114717 ], [ 49.657471, -13.115812 ], [ 49.657208, -13.116556 ], [ 49.65769, -13.117169 ], [ 49.65779, -13.117282 ], [ 49.65803, -13.117553 ], [ 49.658697, -13.118307 ], [ 49.65931, -13.118921 ], [ 49.660317, -13.119008 ], [ 49.661193, -13.118964 ], [ 49.661806, -13.119534 ], [ 49.662594, -13.120278 ], [ 49.663164, -13.12146 ], [ 49.663514, -13.122248 ], [ 49.664214, -13.123474 ], [ 49.66509, -13.124613 ], [ 49.66566, -13.125839 ], [ 49.665791, -13.126802 ], [ 49.665966, -13.128335 ], [ 49.666054, -13.129605 ], [ 49.66636, -13.130612 ], [ 49.666798, -13.131356 ], [ 49.666973, -13.132013 ], [ 49.666973, -13.132539 ], [ 49.66671, -13.133414 ], [ 49.666667, -13.134422 ], [ 49.666886, -13.135954 ], [ 49.667324, -13.13753 ], [ 49.667499, -13.138932 ], [ 49.667937, -13.140289 ], [ 49.668287, -13.140902 ], [ 49.668944, -13.14169 ], [ 49.669206, -13.142216 ], [ 49.66925, -13.142916 ], [ 49.668988, -13.143748 ], [ 49.66855, -13.144887 ], [ 49.668812, -13.150273 ], [ 49.669031, -13.154258 ], [ 49.669294, -13.157761 ], [ 49.669382, -13.160081 ], [ 49.669382, -13.162884 ], [ 49.669338, -13.16573 ], [ 49.669294, -13.167438 ], [ 49.669688, -13.168445 ], [ 49.669732, -13.169583 ], [ 49.670433, -13.170547 ], [ 49.671133, -13.17186 ], [ 49.67144, -13.172298 ], [ 49.672316, -13.172999 ], [ 49.673148, -13.173524 ], [ 49.673323, -13.174181 ], [ 49.673542, -13.175363 ], [ 49.673585, -13.17602 ], [ 49.673366, -13.176896 ], [ 49.673016, -13.17821 ], [ 49.672666, -13.179611 ], [ 49.672447, -13.180968 ], [ 49.672534, -13.182588 ], [ 49.672578, -13.18434 ], [ 49.672753, -13.185829 ], [ 49.672622, -13.186486 ], [ 49.672184, -13.187318 ], [ 49.671571, -13.188193 ], [ 49.671396, -13.189025 ], [ 49.671527, -13.19012 ], [ 49.671965, -13.190821 ], [ 49.67271, -13.191653 ], [ 49.673104, -13.193054 ], [ 49.673366, -13.195068 ], [ 49.673542, -13.196469 ], [ 49.674155, -13.198396 ], [ 49.674724, -13.200542 ], [ 49.675512, -13.203519 ], [ 49.676257, -13.206059 ], [ 49.678052, -13.207022 ], [ 49.679453, -13.207942 ], [ 49.681292, -13.209168 ], [ 49.682956, -13.210263 ], [ 49.683876, -13.209869 ], [ 49.68427, -13.209868 ], [ 49.685934, -13.209912 ], [ 49.687861, -13.209912 ], [ 49.689525, -13.21 ], [ 49.690882, -13.21 ], [ 49.691714, -13.210832 ], [ 49.69224, -13.211051 ], [ 49.69294, -13.211226 ], [ 49.693159, -13.211708 ], [ 49.693291, -13.212496 ], [ 49.693685, -13.212977 ], [ 49.694123, -13.213503 ], [ 49.693904, -13.215123 ], [ 49.693991, -13.215342 ], [ 49.694604, -13.215867 ], [ 49.695217, -13.216349 ], [ 49.695918, -13.216656 ], [ 49.696662, -13.216787 ], [ 49.697276, -13.216743 ], [ 49.697845, -13.216174 ], [ 49.698852, -13.215517 ], [ 49.701392, -13.215867 ], [ 49.701654, -13.215649 ], [ 49.702311, -13.214685 ], [ 49.702837, -13.213897 ], [ 49.702837, -13.213196 ], [ 49.703012, -13.212364 ], [ 49.703231, -13.211357 ], [ 49.703581, -13.211138 ], [ 49.704326, -13.210482 ], [ 49.704676, -13.210394 ], [ 49.705377, -13.210744 ], [ 49.705946, -13.210613 ], [ 49.706646, -13.210569 ], [ 49.707391, -13.21035 ], [ 49.708267, -13.210306 ], [ 49.709274, -13.21035 ], [ 49.71015, -13.211883 ], [ 49.711288, -13.211883 ], [ 49.711638, -13.212014 ], [ 49.712733, -13.212715 ], [ 49.713171, -13.212583 ], [ 49.714222, -13.212233 ], [ 49.715229, -13.212408 ], [ 49.716368, -13.21254 ], [ 49.718426, -13.212715 ], [ 49.720265, -13.212977 ], [ 49.722411, -13.211795 ], [ 49.7247109, -13.2115343 ], [ 49.727052, -13.211927 ], [ 49.7294998, -13.2122148 ], [ 49.7315246, -13.2115175 ], [ 49.7329781, -13.2108706 ], [ 49.7338392, -13.2107404 ], [ 49.7359564, -13.2107572 ], [ 49.736536, -13.21204 ], [ 49.73695, -13.213306 ], [ 49.737899, -13.21333 ], [ 49.738995, -13.213379 ], [ 49.739263, -13.213671 ], [ 49.739433, -13.214523 ], [ 49.739336, -13.215302 ], [ 49.73863, -13.2163 ], [ 49.73807, -13.217079 ], [ 49.73751, -13.217907 ], [ 49.737656, -13.218662 ], [ 49.737899, -13.219709 ], [ 49.738021, -13.220707 ], [ 49.737729, -13.22117 ], [ 49.737047, -13.2219 ], [ 49.736195, -13.222923 ], [ 49.735781, -13.223629 ], [ 49.73583, -13.224042 ], [ 49.736097, -13.22431 ], [ 49.736438, -13.224651 ], [ 49.736804, -13.224797 ], [ 49.73729, -13.224724 ], [ 49.737997, -13.224505 ], [ 49.738483, -13.224237 ], [ 49.738703, -13.22431 ], [ 49.738435, -13.224797 ], [ 49.737948, -13.225308 ], [ 49.737363, -13.225941 ], [ 49.736438, -13.226769 ], [ 49.736779, -13.227353 ], [ 49.737558, -13.228011 ], [ 49.738118, -13.228376 ], [ 49.739165, -13.2284 ], [ 49.739579, -13.228498 ], [ 49.739165, -13.229277 ], [ 49.738849, -13.230056 ], [ 49.7388, -13.230616 ], [ 49.740066, -13.230738 ], [ 49.740796, -13.230859 ], [ 49.740991, -13.231078 ], [ 49.740553, -13.231857 ], [ 49.740285, -13.232612 ], [ 49.740796, -13.23305 ], [ 49.740796, -13.233416 ], [ 49.740431, -13.234049 ], [ 49.739725, -13.234268 ], [ 49.739214, -13.23473 ], [ 49.740188, -13.23624 ], [ 49.740577, -13.236702 ], [ 49.740577, -13.238528 ], [ 49.741015, -13.238966 ], [ 49.741941, -13.239502 ], [ 49.742744, -13.240184 ], [ 49.743085, -13.241182 ], [ 49.743304, -13.24257 ], [ 49.744059, -13.242716 ], [ 49.745374, -13.243178 ], [ 49.746177, -13.243641 ], [ 49.746518, -13.245637 ], [ 49.746956, -13.246441 ], [ 49.747833, -13.247293 ], [ 49.748003, -13.247853 ], [ 49.748587, -13.248437 ], [ 49.748709, -13.2487 ], [ 49.748821, -13.248941 ], [ 49.74905, -13.249435 ], [ 49.749732, -13.250945 ], [ 49.749829, -13.253379 ], [ 49.750365, -13.25445 ], [ 49.750365, -13.255911 ], [ 49.750632, -13.256155 ], [ 49.75073, -13.256641 ], [ 49.75129, -13.257615 ], [ 49.751509, -13.258151 ], [ 49.751752, -13.260123 ], [ 49.751971, -13.261949 ], [ 49.752288, -13.263799 ], [ 49.752775, -13.26543 ], [ 49.753262, -13.267256 ], [ 49.753408, -13.267743 ], [ 49.754114, -13.267621 ], [ 49.754893, -13.267354 ], [ 49.755331, -13.267402 ], [ 49.755502, -13.267914 ], [ 49.75521, -13.268863 ], [ 49.755136, -13.269934 ], [ 49.755623, -13.270348 ], [ 49.756743, -13.270811 ], [ 49.756378, -13.27176 ], [ 49.75538, -13.272174 ], [ 49.754747, -13.272588 ], [ 49.754771, -13.27344 ], [ 49.755015, -13.27473 ], [ 49.755429, -13.275169 ], [ 49.756135, -13.275607 ], [ 49.757401, -13.275144 ], [ 49.757839, -13.27495 ], [ 49.758399, -13.274779 ], [ 49.759665, -13.27473 ], [ 49.762148, -13.274755 ], [ 49.763268, -13.275047 ], [ 49.76507, -13.275631 ], [ 49.766823, -13.276216 ], [ 49.767748, -13.27585 ], [ 49.7686, -13.275509 ], [ 49.769817, -13.274998 ], [ 49.770986, -13.27456 ], [ 49.772447, -13.274 ], [ 49.773883, -13.273124 ], [ 49.774565, -13.272856 ], [ 49.776196, -13.272247 ], [ 49.779167, -13.271492 ], [ 49.781747, -13.270665 ], [ 49.784036, -13.269593 ], [ 49.785375, -13.268181 ], [ 49.785204, -13.267281 ], [ 49.784523, -13.265869 ], [ 49.783938, -13.264895 ], [ 49.781991, -13.262606 ], [ 49.779946, -13.26061 ], [ 49.778704, -13.259319 ], [ 49.778022, -13.25781 ], [ 49.777949, -13.25708 ], [ 49.77846, -13.256495 ], [ 49.77941, -13.255424 ], [ 49.780481, -13.25428 ], [ 49.780798, -13.254183 ], [ 49.783622, -13.254183 ], [ 49.785278, -13.254548 ], [ 49.78686, -13.254913 ], [ 49.788418, -13.255302 ], [ 49.789149, -13.2554 ], [ 49.790756, -13.255278 ], [ 49.792265, -13.255181 ], [ 49.793312, -13.255059 ], [ 49.793969, -13.254329 ], [ 49.79582, -13.251967 ], [ 49.796477, -13.251164 ], [ 49.7975, -13.2498 ], [ 49.798498, -13.248218 ], [ 49.799326, -13.246757 ], [ 49.799788, -13.24666 ], [ 49.800738, -13.24666 ], [ 49.801492, -13.246635 ], [ 49.802223, -13.246027 ], [ 49.801711, -13.244493 ], [ 49.801322, -13.242959 ], [ 49.801249, -13.24201 ], [ 49.800957, -13.240354 ], [ 49.800908, -13.239088 ], [ 49.800689, -13.237993 ], [ 49.800251, -13.237725 ], [ 49.79952, -13.23736 ], [ 49.79935, -13.236142 ], [ 49.799131, -13.234876 ], [ 49.799009, -13.233854 ], [ 49.799009, -13.233391 ], [ 49.79935, -13.232637 ], [ 49.799861, -13.231663 ], [ 49.800786, -13.229618 ], [ 49.8012, -13.228303 ], [ 49.8012, -13.227305 ], [ 49.800908, -13.225771 ], [ 49.800397, -13.22431 ], [ 49.799545, -13.222679 ], [ 49.799155, -13.221876 ], [ 49.799106, -13.221121 ], [ 49.798936, -13.219587 ], [ 49.79879, -13.218613 ], [ 49.798693, -13.217493 ], [ 49.798303, -13.216398 ], [ 49.797694, -13.215156 ], [ 49.797207, -13.214255 ], [ 49.795966, -13.212649 ], [ 49.794992, -13.211504 ], [ 49.794359, -13.210579 ], [ 49.794627, -13.20888 ], [ 49.794018, -13.20798 ], [ 49.792874, -13.20647 ], [ 49.791559, -13.204693 ], [ 49.791218, -13.20406 ], [ 49.791364, -13.203573 ], [ 49.791656, -13.202721 ], [ 49.791656, -13.200822 ], [ 49.791462, -13.199556 ], [ 49.791218, -13.198241 ], [ 49.790926, -13.197146 ], [ 49.790682, -13.196026 ], [ 49.790196, -13.194736 ], [ 49.789514, -13.192934 ], [ 49.789027, -13.191668 ], [ 49.788857, -13.190719 ], [ 49.788516, -13.18916 ], [ 49.78669, -13.188041 ], [ 49.785838, -13.187115 ], [ 49.785542, -13.187271 ], [ 49.784438, -13.187906 ], [ 49.783404, -13.18854 ], [ 49.782181, -13.18941 ], [ 49.780865, -13.189621 ], [ 49.778961, -13.189833 ], [ 49.778021, -13.189974 ], [ 49.777279, -13.189991 ], [ 49.777279, -13.189857 ], [ 49.7765896, -13.1888841 ], [ 49.776491, -13.187799 ], [ 49.776097, -13.186617 ], [ 49.776009, -13.185873 ], [ 49.776272, -13.185084 ], [ 49.776797, -13.183552 ], [ 49.776754, -13.182983 ], [ 49.775922, -13.181625 ], [ 49.775221, -13.180312 ], [ 49.775308, -13.179523 ], [ 49.775396, -13.17821 ], [ 49.775177, -13.176458 ], [ 49.774783, -13.174794 ], [ 49.774126, -13.173262 ], [ 49.773075, -13.172123 ], [ 49.771849, -13.170678 ], [ 49.771236, -13.168445 ], [ 49.770711, -13.167 ], [ 49.769922, -13.165555 ], [ 49.768652, -13.164022 ], [ 49.767383, -13.162709 ], [ 49.767207, -13.162096 ], [ 49.766419, -13.160169 ], [ 49.765412, -13.158899 ], [ 49.76423, -13.157673 ], [ 49.762566, -13.156053 ], [ 49.762391, -13.154739 ], [ 49.762172, -13.152681 ], [ 49.76134, -13.151324 ], [ 49.760683, -13.150185 ], [ 49.759457, -13.148915 ], [ 49.75788, -13.14747 ], [ 49.756742, -13.146025 ], [ 49.755603, -13.144405 ], [ 49.754552, -13.143004 ], [ 49.754202, -13.14226 ], [ 49.753852, -13.140639 ], [ 49.753501, -13.138713 ], [ 49.753545, -13.137749 ], [ 49.753239, -13.136086 ], [ 49.75302, -13.13429 ], [ 49.753239, -13.13267 ], [ 49.753852, -13.131094 ], [ 49.754727, -13.128817 ], [ 49.755822, -13.127153 ], [ 49.757311, -13.125138 ], [ 49.758581, -13.123562 ], [ 49.760026, -13.121986 ], [ 49.759457, -13.121635 ], [ 49.757793, -13.121635 ], [ 49.756961, -13.121198 ], [ 49.75534, -13.12019 ], [ 49.753852, -13.119183 ], [ 49.753107, -13.118264 ], [ 49.7521, -13.116819 ], [ 49.751662, -13.115724 ] ], [ [ 49.7765896, -13.1888841 ], [ 49.7732002, -13.1909863 ], [ 49.7740641, -13.1904421 ], [ 49.7765896, -13.1888841 ] ], [ [ 49.7421265, -13.2063535 ], [ 49.7391827, -13.2089256 ], [ 49.7419048, -13.2065395 ], [ 49.7421265, -13.2063535 ] ] ] ] } }
]
}
