{
"type": "FeatureCollection",
"name": "MDG-5021-NODATE-secondary_zoning-001",
"crs": { "type": "name", "properties": { "name": "urn:ogc:def:crs:OGC:1.3:CRS84" } },
"features": [
{ "type": "Feature", "properties": { }, "geometry": { "type": "Polygon", "coordinates": [ [ [ 48.4389718, -18.9349209 ], [ 48.440252, -18.9345667 ], [ 48.440644, -18.9340333 ], [ 48.4405827, -18.9330787 ], [ 48.4407581, -18.9319065 ], [ 48.4405759, -18.930679 ], [ 48.4409065, -18.929629 ], [ 48.441373, -18.9290155 ], [ 48.4413878, -18.9282056 ], [ 48.4407141, -18.9268532 ], [ 48.4405043, -18.9257327 ], [ 48.4388004, -18.9243449 ], [ 48.437864, -18.9231973 ], [ 48.4374613, -18.9218767 ], [ 48.4358123, -18.920925 ], [ 48.4314454, -18.9190844 ], [ 48.4308577, -18.9189575 ], [ 48.4300594, -18.9192677 ], [ 48.4288075, -18.9206125 ], [ 48.4278334, -18.9219522 ], [ 48.427435, -18.9229965 ], [ 48.4274627, -18.9239863 ], [ 48.4275997, -18.924587 ], [ 48.4281248, -18.9252041 ], [ 48.4299846, -18.9271573 ], [ 48.43049, -18.9279379 ], [ 48.43027210000001, -18.9283723 ], [ 48.429966, -18.9285646 ], [ 48.4286852, -18.9291204 ], [ 48.4273314, -18.9292162 ], [ 48.4261707, -18.9295594 ], [ 48.4264106, -18.9302719 ], [ 48.4270345, -18.9307804 ], [ 48.4284001, -18.9308742 ], [ 48.428968399999988, -18.9313752 ], [ 48.429294, -18.9327743 ], [ 48.4299456, -18.9332781 ], [ 48.4304774, -18.9340699 ], [ 48.4318915, -18.9351198 ], [ 48.4322714, -18.935626 ], [ 48.4327264, -18.9361469 ], [ 48.432872200000013, -18.9371093 ], [ 48.4333732, -18.9374712 ], [ 48.434019, -18.9379377 ], [ 48.4347274, -18.9387478 ], [ 48.4350592, -18.9391488 ], [ 48.4353938, -18.9389278 ], [ 48.4363894, -18.9386734 ], [ 48.4372795, -18.9387104 ], [ 48.438341, -18.9394127 ], [ 48.4373532, -18.9374916 ], [ 48.437720099999986, -18.9356874 ], [ 48.4389718, -18.9349209 ] ] ] } }
]
}
