{
"type": "FeatureCollection",
"name": "MDG-555697886-NODATE-secondary_zoning-001",
"crs": { "type": "name", "properties": { "name": "urn:ogc:def:crs:OGC:1.3:CRS84" } },
"features": [
{ "type": "Feature", "properties": { }, "geometry": { "type": "Polygon", "coordinates": [ [ [ 48.0287195, -19.6417083 ], [ 48.0292637, -19.6423043 ], [ 48.0296524, -19.6433927 ], [ 48.0297561, -19.6445847 ], [ 48.0299375, -19.645103 ], [ 48.0299116, -19.6453621 ], [ 48.0296265, -19.6458027 ], [ 48.0293156, -19.6459581 ], [ 48.029186, -19.6465801 ], [ 48.0293156, -19.6473056 ], [ 48.0294192, -19.6483422 ], [ 48.0293415, -19.6495083 ], [ 48.0292896, -19.649897 ], [ 48.0282531, -19.6499747 ], [ 48.0289528, -19.6507003 ], [ 48.0292637, -19.6511408 ], [ 48.0298857, -19.6512963 ], [ 48.0308185, -19.6510372 ], [ 48.0317514, -19.6510372 ], [ 48.033308, -19.6503504 ], [ 48.0339902, -19.6497853 ], [ 48.0339541, -19.6491196 ], [ 48.0341096, -19.6484199 ], [ 48.0339541, -19.6477203 ], [ 48.033332099999988, -19.6472538 ], [ 48.0330989, -19.6467874 ], [ 48.032684300000014, -19.6463728 ], [ 48.0325029, -19.6453621 ], [ 48.0323993, -19.6443256 ], [ 48.0330212, -19.6438073 ], [ 48.0337209, -19.6437555 ], [ 48.0340504, -19.6428574 ], [ 48.0338534, -19.6426041 ], [ 48.0329953, -19.6429263 ], [ 48.0325807, -19.6426671 ], [ 48.0314145, -19.6423302 ], [ 48.030948099999989, -19.6424598 ], [ 48.0298079, -19.6415528 ], [ 48.0292378, -19.64062 ], [ 48.02859, -19.6411901 ], [ 48.0287195, -19.6417083 ] ] ] } }
]
}
