{
"type": "FeatureCollection",
"name": "MDG-352253-NODATE-secondary_zoning-001",
"crs": { "type": "name", "properties": { "name": "urn:ogc:def:crs:OGC:1.3:CRS84" } },
"features": [
{ "type": "Feature", "properties": { }, "geometry": { "type": "MultiPolygon", "coordinates": [ [ [ [ 43.7888659, -23.6758666 ], [ 43.788755, -23.6753985 ], [ 43.7886718, -23.6733335 ], [ 43.7885436, -23.6701496 ], [ 43.7884246, -23.6655939 ], [ 43.7802142, -23.6647284 ], [ 43.7671163, -23.6667661 ], [ 43.7648575, -23.6675278 ], [ 43.7632633, -23.6682291 ], [ 43.7623878, -23.6681272 ], [ 43.7618456, -23.6676793 ], [ 43.7596059, -23.6685821 ], [ 43.7583579, -23.6693561 ], [ 43.7570581, -23.6695861 ], [ 43.7560464, -23.6686963 ], [ 43.7510454, -23.6701485 ], [ 43.7503121, -23.67118 ], [ 43.7495585, -23.6718777 ], [ 43.7495007, -23.6721039 ], [ 43.7506939, -23.6721616 ], [ 43.7528795, -23.6723229 ], [ 43.7547656, -23.6724349 ], [ 43.7567363, -23.672553 ], [ 43.7586157, -23.6731961 ], [ 43.7598414, -23.6736299 ], [ 43.760614699999984, -23.6739368 ], [ 43.7611839, -23.6741906 ], [ 43.7626751, -23.6748556 ], [ 43.7636019, -23.675269 ], [ 43.7652395, -23.6763668 ], [ 43.7664322, -23.6771768 ], [ 43.7674734, -23.6776942 ], [ 43.7690837, -23.6784943 ], [ 43.7703924, -23.6791446 ], [ 43.7722752, -23.6800802 ], [ 43.7726952, -23.6802889 ], [ 43.7759959, -23.6806411 ], [ 43.7798635, -23.6793603 ], [ 43.7804977, -23.6790168 ], [ 43.7817263, -23.6783512 ], [ 43.7839, -23.677642 ], [ 43.7849496, -23.6773237 ], [ 43.7855048, -23.6772664 ], [ 43.7863819, -23.6768407 ], [ 43.7880767, -23.6760253 ], [ 43.7889659, -23.6760044 ], [ 43.7888659, -23.6758666 ] ] ], [ [ [ 43.8994619, -23.5416275 ], [ 43.9036036, -23.5399562 ], [ 43.9052884, -23.5377628 ], [ 43.9066597, -23.5306383 ], [ 43.9072548, -23.5268747 ], [ 43.9066775, -23.5249172 ], [ 43.906638, -23.5247832 ], [ 43.9055381, -23.5217001 ], [ 43.9010105, -23.5212796 ], [ 43.899986, -23.5221596 ], [ 43.8982695, -23.5208401 ], [ 43.8985306, -23.5192136 ], [ 43.898159699999987, -23.5185581 ], [ 43.895021, -23.5186598 ], [ 43.8937692, -23.5175337 ], [ 43.8930135, -23.5180033 ], [ 43.8929816, -23.5195852 ], [ 43.8922119, -23.5207711 ], [ 43.8905406, -23.5200086 ], [ 43.8900467, -23.5219062 ], [ 43.8900737, -23.5219201 ], [ 43.8899901, -23.5221235 ], [ 43.8938894, -23.527321 ], [ 43.8927189, -23.532048 ], [ 43.887613699999989, -23.532316 ], [ 43.8825192, -23.5354352 ], [ 43.882014, -23.540247 ], [ 43.8819391, -23.5411695 ], [ 43.883682, -23.5463658 ], [ 43.8801619, -23.548274 ], [ 43.8800417, -23.5482912 ], [ 43.8800405, -23.5482918 ], [ 43.8747039, -23.5491661 ], [ 43.8730414, -23.5494384 ], [ 43.872316, -23.5495572 ], [ 43.872280099999983, -23.5495763 ], [ 43.8717446, -23.5498606 ], [ 43.8700949, -23.5507364 ], [ 43.8663088, -23.5527463 ], [ 43.8623199, -23.5605112 ], [ 43.853780399999984, -23.5661912 ], [ 43.8550323, -23.5724626 ], [ 43.8616068, -23.5752419 ], [ 43.8682961, -23.5757393 ], [ 43.8762081, -23.5753938 ], [ 43.8786196, -23.5713964 ], [ 43.8836939, -23.5706376 ], [ 43.8936786, -23.5764273 ], [ 43.8939085, -23.5765606 ], [ 43.8976383, -23.5787233 ], [ 43.8980784, -23.5850655 ], [ 43.8964065, -23.5901455 ], [ 43.8968797, -23.5904393 ], [ 43.9005289, -23.5927047 ], [ 43.9063268, -23.5930507 ], [ 43.9076163, -23.5884587 ], [ 43.9079269, -23.5861711 ], [ 43.9119279, -23.5790013 ], [ 43.9157212, -23.5677427 ], [ 43.9109181, -23.5662462 ], [ 43.9000356, -23.5595846 ], [ 43.8957833, -23.5580485 ], [ 43.8924641, -23.5563508 ], [ 43.8906989, -23.5502243 ], [ 43.8924451, -23.5483732 ], [ 43.8981239, -23.5457799 ], [ 43.8994619, -23.5416275 ] ] ], [ [ [ 44.0947731, -23.5573012 ], [ 44.0938154, -23.5566413 ], [ 44.0935303, -23.5551091 ], [ 44.097223199999988, -23.5539106 ], [ 44.0987042, -23.5524837 ], [ 44.0980858, -23.5520987 ], [ 44.0966696, -23.5465264 ], [ 44.0861491, -23.5436699 ], [ 44.0814202, -23.5395342 ], [ 44.076806, -23.5333199 ], [ 44.0736407, -23.532863 ], [ 44.0751363, -23.5292556 ], [ 44.0741675, -23.5258064 ], [ 44.0732278, -23.5254474 ], [ 44.0729576, -23.5249248 ], [ 44.0735419, -23.5248608 ], [ 44.0741332, -23.5243913 ], [ 44.0743564, -23.522648 ], [ 44.0742017, -23.5191975 ], [ 44.0736426, -23.5147579 ], [ 44.0710023, -23.5139285 ], [ 44.0681738, -23.5139741 ], [ 44.0665114, -23.5169422 ], [ 44.0665797, -23.5173442 ], [ 44.0667094, -23.519467 ], [ 44.0663779, -23.521213 ], [ 44.066725, -23.5238534 ], [ 44.0646503, -23.525546 ], [ 44.0647968, -23.5264073 ], [ 44.064846, -23.5283667 ], [ 44.0637267, -23.5329726 ], [ 44.062319, -23.5371874 ], [ 44.0617358, -23.5394461 ], [ 44.0638916, -23.5418887 ], [ 44.0641576, -23.5440633 ], [ 44.0626417, -23.550721 ], [ 44.0671341, -23.5566529 ], [ 44.070751, -23.5559125 ], [ 44.0740186, -23.5565489 ], [ 44.0775127, -23.5580971 ], [ 44.0823491, -23.5578492 ], [ 44.0822787, -23.558042 ], [ 44.0834643, -23.5612737 ], [ 44.0835987, -23.5653872 ], [ 44.0875152, -23.5683425 ], [ 44.0876185, -23.5684204 ], [ 44.0902218, -23.566533 ], [ 44.0902203, -23.5643052 ], [ 44.0908247, -23.5632248 ], [ 44.0904308, -23.5614253 ], [ 44.0909579, -23.5594365 ], [ 44.0902794, -23.5587572 ], [ 44.0905407, -23.5581188 ], [ 44.0928549, -23.5584699 ], [ 44.0947731, -23.5573012 ] ] ], [ [ [ 43.7867783, -23.5546231 ], [ 43.7868014, -23.5546362 ], [ 43.786811, -23.5546417 ], [ 43.790294, -23.5541962 ], [ 43.7903037, -23.5541939 ], [ 43.7920894, -23.5537704 ], [ 43.7942123, -23.5535146 ], [ 43.794193799999981, -23.553478 ], [ 43.794341, -23.5529177 ], [ 43.7951085, -23.5518762 ], [ 43.7961866, -23.5505415 ], [ 43.7984881, -23.5489337 ], [ 43.7988569, -23.5488196 ], [ 43.8008356, -23.5486853 ], [ 43.804043, -23.5484034 ], [ 43.8059425, -23.5490038 ], [ 43.8076627, -23.5484569 ], [ 43.8083459, -23.5471249 ], [ 43.8075499, -23.5451618 ], [ 43.8069849, -23.5442609 ], [ 43.8052286, -23.5414843 ], [ 43.8037614, -23.5410458 ], [ 43.8027837, -23.5406843 ], [ 43.8024672, -23.5402263 ], [ 43.8028026, -23.5385201 ], [ 43.8036529, -23.5357185 ], [ 43.8047326, -23.5313575 ], [ 43.8067804, -23.5302068 ], [ 43.8080146, -23.5290019 ], [ 43.8094362, -23.5284916 ], [ 43.8114963, -23.5285096 ], [ 43.8117568, -23.5281151 ], [ 43.8127422, -23.5266229 ], [ 43.8144688, -23.5240084 ], [ 43.8125912, -23.5236986 ], [ 43.8100045, -23.5221659 ], [ 43.8088688, -23.5212468 ], [ 43.8069492, -23.5196164 ], [ 43.8051224, -23.5168448 ], [ 43.8047919, -23.5165315 ], [ 43.8029788, -23.5147817 ], [ 43.8013425, -23.5123255 ], [ 43.8002194, -23.5089046 ], [ 43.7990122, -23.5063775 ], [ 43.7979111, -23.5061584 ], [ 43.7959132, -23.5059757 ], [ 43.7923522, -23.5042677 ], [ 43.7835844, -23.5057563 ], [ 43.7823979, -23.5105173 ], [ 43.7767147, -23.5181875 ], [ 43.7742731, -23.5195895 ], [ 43.7742677, -23.5200648 ], [ 43.771042899999983, -23.5254156 ], [ 43.7661905, -23.5292894 ], [ 43.7643445, -23.5322916 ], [ 43.7675013, -23.5393094 ], [ 43.7675143, -23.5413026 ], [ 43.7675142, -23.5413603 ], [ 43.7687295, -23.5404954 ], [ 43.7711766, -23.5395177 ], [ 43.7711924, -23.5395209 ], [ 43.7740417, -23.5400981 ], [ 43.7740457, -23.5400941 ], [ 43.781943, -23.5322656 ], [ 43.7819655, -23.532267 ], [ 43.783552, -23.5323634 ], [ 43.783567, -23.5323643 ], [ 43.7839752, -23.5323891 ], [ 43.7851186, -23.534054 ], [ 43.7853312, -23.5367828 ], [ 43.783429399999982, -23.5401198 ], [ 43.7833564, -23.5433334 ], [ 43.7833793, -23.5433321 ], [ 43.7833794, -23.5433347 ], [ 43.7834147, -23.54702 ], [ 43.7831792, -23.5480447 ], [ 43.7828962, -23.5492763 ], [ 43.7828956, -23.5493459 ], [ 43.782873099999989, -23.5518011 ], [ 43.7828965, -23.5518179 ], [ 43.7828965, -23.5518878 ], [ 43.7856289, -23.553968 ], [ 43.7867783, -23.5546231 ] ] ], [ [ [ 44.1701086, -23.546133 ], [ 44.1786652, -23.5404245 ], [ 44.179404, -23.5400879 ], [ 44.1786819, -23.5400894 ], [ 44.1796496, -23.5359923 ], [ 44.1811747, -23.5295355 ], [ 44.1830908, -23.5141406 ], [ 44.1759789, -23.5115579 ], [ 44.1755578, -23.5203279 ], [ 44.1729568, -23.5199288 ], [ 44.1660946, -23.523209 ], [ 44.1622222, -23.5213074 ], [ 44.157377, -23.5291789 ], [ 44.1611522, -23.5375882 ], [ 44.1614228, -23.538191 ], [ 44.161813, -23.5390601 ], [ 44.1629371, -23.5408106 ], [ 44.1701086, -23.546133 ] ] ], [ [ [ 44.0570564, -23.5145868 ], [ 44.0587816, -23.5136257 ], [ 44.0587476, -23.5117846 ], [ 44.0584257, -23.5107137 ], [ 44.058802, -23.508188 ], [ 44.0583011, -23.5077579 ], [ 44.0552899, -23.506643199999989 ], [ 44.0531984, -23.5068456 ], [ 44.0513998, -23.5050999 ], [ 44.0493631, -23.5037563 ], [ 44.0482595, -23.5033767 ], [ 44.0471259, -23.5034995 ], [ 44.0461996, -23.5046333 ], [ 44.0460904, -23.5055277 ], [ 44.0442446, -23.5060441 ], [ 44.0423096, -23.5065822 ], [ 44.0425535, -23.5053757 ], [ 44.0423744, -23.5053643 ], [ 44.042185, -23.506774 ], [ 44.0392177, -23.5086465 ], [ 44.0378918, -23.5136667 ], [ 44.0418047, -23.5168107 ], [ 44.0453484, -23.5177028 ], [ 44.0474077, -23.5226716 ], [ 44.0460851, -23.5247188 ], [ 44.0427872, -23.5260027 ], [ 44.0415783, -23.5277469 ], [ 44.0407971, -23.5302962 ], [ 44.0429813, -23.5324634 ], [ 44.0413882, -23.5334743 ], [ 44.0441205, -23.5403225 ], [ 44.0493945, -23.5396668 ], [ 44.050349800000014, -23.538212 ], [ 44.0491166, -23.5353155 ], [ 44.0497263, -23.5328451 ], [ 44.0532389, -23.5294002 ], [ 44.0554862, -23.5266873 ], [ 44.0558199, -23.5246347 ], [ 44.0564952, -23.5235996 ], [ 44.0568871, -23.5213276 ], [ 44.0563058, -23.5197496 ], [ 44.056484, -23.5170114 ], [ 44.0570564, -23.5145868 ] ] ], [ [ [ 44.1584699, -23.5185446 ], [ 44.1616637, -23.5147554 ], [ 44.1605364, -23.5119998 ], [ 44.1614093, -23.5066956 ], [ 44.1625087, -23.5023926 ], [ 44.1604464, -23.498631 ], [ 44.1586662, -23.498235 ], [ 44.1538744, -23.4971688 ], [ 44.144427100000016, -23.4985129 ], [ 44.1396817, -23.5007492 ], [ 44.139497, -23.5009932 ], [ 44.1368604, -23.5044768 ], [ 44.135556, -23.5088244 ], [ 44.1315654, -23.5074388 ], [ 44.1300158, -23.5080597 ], [ 44.1300099, -23.5080272 ], [ 44.1279639, -23.5068365 ], [ 44.1267868, -23.5077936 ], [ 44.1243165, -23.507313 ], [ 44.1239642, -23.5102401 ], [ 44.1224425, -23.5097277 ], [ 44.1205747, -23.5074763 ], [ 44.11891390000001, -23.508504 ], [ 44.1160716, -23.5092553 ], [ 44.1172881, -23.5111179 ], [ 44.1174599, -23.5126172 ], [ 44.112263, -23.5110952 ], [ 44.110111, -23.5128753 ], [ 44.1058023, -23.5108979 ], [ 44.1036275, -23.5115266 ], [ 44.1020501, -23.5134904 ], [ 44.098992, -23.5146002 ], [ 44.0987191, -23.51574 ], [ 44.097197, -23.5177396 ], [ 44.0954415, -23.5178262 ], [ 44.0967004, -23.5202208 ], [ 44.0998677, -23.5266216 ], [ 44.1026371, -23.5286765 ], [ 44.1032367, -23.5291214 ], [ 44.1035423, -23.5290708 ], [ 44.1044365, -23.5289227 ], [ 44.1050725, -23.5297374 ], [ 44.1057004, -23.5305418 ], [ 44.1057823, -23.5302513 ], [ 44.1073892, -23.5307466 ], [ 44.1167755, -23.5269725 ], [ 44.1282993, -23.5210796 ], [ 44.142642, -23.5192211 ], [ 44.1474851, -23.5199279 ], [ 44.1501792, -23.5217279 ], [ 44.1500636, -23.5193315 ], [ 44.1513545, -23.5176447 ], [ 44.1513936, -23.5175936 ], [ 44.151401300000011, -23.5176033 ], [ 44.1563999, -23.5239191 ], [ 44.1584699, -23.5185446 ] ] ], [ [ [ 43.9092993, -23.4723038 ], [ 43.910678899999986, -23.4717351 ], [ 43.9133445, -23.467733 ], [ 43.913203599999989, -23.467681 ], [ 43.9094409, -23.4662926 ], [ 43.8988895, -23.4678841 ], [ 43.8932954, -23.4652935 ], [ 43.8912745, -23.4628019 ], [ 43.8841015, -23.4627499 ], [ 43.8823006, -23.4625857 ], [ 43.8799194, -23.4627009 ], [ 43.8798087, -23.4627378 ], [ 43.8822256, -23.4652731 ], [ 43.8831787, -23.4657909 ], [ 43.883924, -23.4661958 ], [ 43.8845976, -23.4666534 ], [ 43.8850103, -23.4672991 ], [ 43.8852527, -23.4679659 ], [ 43.8854557, -23.4686425 ], [ 43.8855269, -23.4692325 ], [ 43.8855516, -23.4700874 ], [ 43.885441, -23.4705477 ], [ 43.8851017, -23.4710914 ], [ 43.8846876, -23.4715646 ], [ 43.8842073, -23.4718895 ], [ 43.883727, -23.4720508 ], [ 43.883217900000012, -23.4720919 ], [ 43.8829141, -23.4720361 ], [ 43.8826338, -23.4719847 ], [ 43.8822334, -23.4717996 ], [ 43.8817914, -23.4718076 ], [ 43.8812549, -23.4718174 ], [ 43.8807369, -23.4718047 ], [ 43.8804597, -23.4717979 ], [ 43.8799723, -23.4716561 ], [ 43.8794154, -23.4712964 ], [ 43.8790632, -23.4708533 ], [ 43.8788023, -23.4700921 ], [ 43.8786523, -23.4695333 ], [ 43.8784997, -23.4689649 ], [ 43.8783649, -23.468463 ], [ 43.8782289, -23.4679564 ], [ 43.8780931, -23.4674508 ], [ 43.8778224, -23.4669805 ], [ 43.8776092, -23.4666079 ], [ 43.8774781, -23.4662842 ], [ 43.877413200000014, -23.4658956 ], [ 43.877457799999988, -23.4654259 ], [ 43.8775948, -23.4650536 ], [ 43.8776969, -23.4648905 ], [ 43.8780555, -23.4645294 ], [ 43.8771365, -23.4636286 ], [ 43.8738838, -23.4675637 ], [ 43.876278899999988, -23.4702718 ], [ 43.876526, -23.4719879 ], [ 43.8723485, -23.4759474 ], [ 43.8708819, -23.4759361 ], [ 43.8694654, -23.4752474 ], [ 43.868138, -23.4753453 ], [ 43.8667247, -23.4751629 ], [ 43.8662091, -23.47826 ], [ 43.8644683, -23.478669 ], [ 43.8634333, -23.484349 ], [ 43.8639297, -23.4859363 ], [ 43.864126, -23.4859132 ], [ 43.8687822, -23.4853661 ], [ 43.8747495, -23.484878 ], [ 43.888267399999989, -23.4877629 ], [ 43.8925994, -23.4908168 ], [ 43.8938149, -23.5037144 ], [ 43.8954664, -23.5065081 ], [ 43.8978372, -23.5062996 ], [ 43.8994727, -23.5063696 ], [ 43.9019069, -23.5061046 ], [ 43.9027181, -23.505344 ], [ 43.9041766, -23.5039764 ], [ 43.9074779, -23.50249 ], [ 43.9090773, -23.4981207 ], [ 43.910997, -23.4952374 ], [ 43.9110618, -23.4932327 ], [ 43.9102993, -23.492131 ], [ 43.9110486, -23.4868865 ], [ 43.9127623, -23.4835159 ], [ 43.9126018, -23.4793192 ], [ 43.91165, -23.4769131 ], [ 43.9097477, -23.4737337 ], [ 43.9092993, -23.4723038 ] ] ], [ [ [ 43.8502024, -23.4403192 ], [ 43.8499559, -23.4398715 ], [ 43.84943590000001, -23.4390793 ], [ 43.8462838, -23.4396128 ], [ 43.8431594, -23.4385713 ], [ 43.8415924, -23.4388513 ], [ 43.8414087, -23.4387565 ], [ 43.8396726, -23.4378609 ], [ 43.8372392, -23.4372125 ], [ 43.836867900000016, -23.4381747 ], [ 43.8378473, -23.439053 ], [ 43.8371596, -23.4395156 ], [ 43.8346414, -23.4400346 ], [ 43.8338001, -23.438538 ], [ 43.8322935, -23.4369919 ], [ 43.8316629, -23.4384892 ], [ 43.8272664, -23.4391355 ], [ 43.8252278, -23.4361498 ], [ 43.8262482, -23.4339699 ], [ 43.8240902, -23.431194 ], [ 43.8239448, -23.4312187 ], [ 43.8193954, -23.4317474 ], [ 43.8173153, -23.4309751 ], [ 43.8145551, -23.427294099999987 ], [ 43.8121696, -23.4253638 ], [ 43.8103254, -23.4239276 ], [ 43.806441, -23.4233099 ], [ 43.804734499999988, -23.4375285 ], [ 43.8119954, -23.462398 ], [ 43.8129715, -23.4662055 ], [ 43.8160241, -23.4697265 ], [ 43.8217047, -23.4792233 ], [ 43.826105099999985, -23.4804055 ], [ 43.829589, -23.4873767 ], [ 43.8370762, -23.4897539 ], [ 43.83838, -23.4895663 ], [ 43.8414699, -23.4881043 ], [ 43.8414714, -23.4880924 ], [ 43.8414727, -23.4880823 ], [ 43.8399472, -23.4847399 ], [ 43.8394491, -23.483655 ], [ 43.8406727, -23.4834139 ], [ 43.8422275, -23.4829665 ], [ 43.8423561, -23.4829294 ], [ 43.8439281, -23.4821191 ], [ 43.8460683, -23.4810528 ], [ 43.8455491, -23.4742699 ], [ 43.843946099999989, -23.4738821 ], [ 43.8400597, -23.4701551 ], [ 43.840029199999989, -23.468224 ], [ 43.8452037, -23.4656791 ], [ 43.8458205, -23.4648071 ], [ 43.846574, -23.4637764 ], [ 43.8484779, -23.4549087 ], [ 43.8486378, -23.4523503 ], [ 43.848975799999984, -23.4479293 ], [ 43.8497123, -23.4441951 ], [ 43.8498496, -23.4431091 ], [ 43.8502024, -23.4403192 ] ] ], [ [ [ 43.8609406, -23.4388492 ], [ 43.8632959, -23.4399602 ], [ 43.8654348, -23.4395723 ], [ 43.866086, -23.4389114 ], [ 43.8677505, -23.4360771 ], [ 43.8698568, -23.4360143 ], [ 43.872791, -23.4359757 ], [ 43.8728256, -23.4358889 ], [ 43.872893, -23.4357572 ], [ 43.8732347, -23.4350255 ], [ 43.8733283, -23.434825 ], [ 43.8735902, -23.434264 ], [ 43.871588, -23.4300532 ], [ 43.8736709, -23.4246374 ], [ 43.8804851, -23.4195727 ], [ 43.8769483, -23.4121958 ], [ 43.8765267, -23.406841 ], [ 43.8754037, -23.4015677 ], [ 43.875095900000012, -23.4014196 ], [ 43.8744645, -23.4011159 ], [ 43.8729224, -23.4023646 ], [ 43.8716681, -23.4033803 ], [ 43.871657, -23.4033839 ], [ 43.8643803, -23.405741 ], [ 43.8646768, -23.408046 ], [ 43.8556118, -23.4163087 ], [ 43.852963, -23.4158053 ], [ 43.8520568, -23.4167212 ], [ 43.852895, -23.418188 ], [ 43.8540659, -23.4202369 ], [ 43.8516462, -23.421016 ], [ 43.8499448, -23.423915 ], [ 43.8484659, -23.4261227 ], [ 43.8490464, -23.4279012 ], [ 43.8482531, -23.4303077 ], [ 43.8502379, -23.431686 ], [ 43.850094, -23.4330081 ], [ 43.8500201, -23.4336874 ], [ 43.8513037, -23.4333458 ], [ 43.8550736, -23.4343359 ], [ 43.8562289, -23.4341552 ], [ 43.8569943, -23.4332563 ], [ 43.8575755, -23.4330651 ], [ 43.8576416, -23.4323829 ], [ 43.8579109, -23.432359 ], [ 43.8609406, -23.4388492 ] ] ] ] } }
]
}
