{
"type": "FeatureCollection",
"name": "MDG-5039-2015-boundary_modification-001",
"crs": { "type": "name", "properties": { "name": "urn:ogc:def:crs:OGC:1.3:CRS84" } },
"features": [
{ "type": "Feature", "properties": { }, "geometry": { "type": "Polygon", "coordinates": [ [ [ 49.7684846, -15.4776921 ], [ 49.7680486, -15.478648 ], [ 49.7676006, -15.478874 ], [ 49.7675349, -15.4794591 ], [ 49.7674704, -15.4801172 ], [ 49.7669471, -15.4803443 ], [ 49.7662805, -15.4810117 ], [ 49.7653844, -15.4814636 ], [ 49.7648671, -15.4820557 ], [ 49.7644287, -15.4828656 ], [ 49.7628576, -15.4834739 ], [ 49.7616616, -15.4840034 ], [ 49.7600105, -15.4843209 ], [ 49.7594143, -15.4846952 ], [ 49.7589782, -15.485651 ], [ 49.7586174, -15.4866058 ], [ 49.758556500000012, -15.4874828 ], [ 49.758574400000015, -15.4885777 ], [ 49.7585852, -15.4892347 ], [ 49.7595112, -15.4906076 ], [ 49.759528, -15.4916295 ], [ 49.7595352, -15.4920675 ], [ 49.7597694, -15.4925749 ], [ 49.7596248, -15.4929422 ], [ 49.7595711, -15.4942572 ], [ 49.7598149, -15.4953487 ], [ 49.760196, -15.4956348 ], [ 49.7612523, -15.4957645 ], [ 49.7616322, -15.4959777 ], [ 49.7624053, -15.497207 ], [ 49.7624998, -15.4983737 ], [ 49.7625978, -15.4997594 ], [ 49.762617, -15.5009273 ], [ 49.7621809, -15.5018831 ], [ 49.7615835, -15.5021844 ], [ 49.7611354, -15.5024104 ], [ 49.7608331, -15.502342 ], [ 49.7603026, -15.5021312 ], [ 49.759543799999989, -15.5017778 ], [ 49.7589416, -15.5017871 ], [ 49.7581888, -15.5017987 ], [ 49.7578208, -15.5023155 ], [ 49.7573811, -15.5030524 ], [ 49.756939, -15.5036433 ], [ 49.7561982, -15.5043848 ], [ 49.7559808, -15.5048992 ], [ 49.7559915, -15.5055561 ], [ 49.7564504, -15.5059871 ], [ 49.7571375, -15.5065606 ], [ 49.7577529, -15.5073543 ], [ 49.7578401, -15.508083 ], [ 49.7577039, -15.5089613 ], [ 49.7577159, -15.5096912 ], [ 49.7578736, -15.5101268 ], [ 49.758029, -15.5104165 ], [ 49.7581162, -15.5111452 ], [ 49.7585787, -15.5117952 ], [ 49.7592586, -15.5119307 ], [ 49.759788, -15.5120686 ], [ 49.7603126, -15.5119145 ], [ 49.7609076, -15.5114672 ], [ 49.761730899999989, -15.5111625 ], [ 49.7624084, -15.511152 ], [ 49.7635316, -15.5107696 ], [ 49.7645067, -15.5105355 ], [ 49.7651818, -15.5103791 ], [ 49.7655582, -15.5103733 ], [ 49.7666097, -15.510211 ], [ 49.7673553, -15.5097614 ], [ 49.7674222, -15.5092493 ], [ 49.7672608, -15.5085947 ], [ 49.7673265, -15.5080096 ], [ 49.7676192, -15.507494 ], [ 49.7681474, -15.5075588 ], [ 49.7689862, -15.5082029 ], [ 49.7697438, -15.5084833 ], [ 49.7703485, -15.5086199 ], [ 49.7713307, -15.5088238 ], [ 49.7717872, -15.5091087 ], [ 49.7723882, -15.5090264 ], [ 49.7728363, -15.5088005 ], [ 49.7736535, -15.5081307 ], [ 49.7740227, -15.5076869 ], [ 49.7743859, -15.5068782 ], [ 49.7748912, -15.5055562 ], [ 49.774725, -15.5046096 ], [ 49.774556399999987, -15.5035171 ], [ 49.7747021, -15.5032228 ], [ 49.7748454, -15.5027825 ], [ 49.7750653, -15.502414 ], [ 49.7755838, -15.5018949 ], [ 49.7757163, -15.5007977 ], [ 49.7761475, -15.4995498 ], [ 49.7770448, -15.4991709 ], [ 49.7771857, -15.4985846 ], [ 49.7771785, -15.4981467 ], [ 49.7774664, -15.4973391 ], [ 49.777528399999987, -15.496535 ], [ 49.7782619, -15.4953555 ], [ 49.7788641, -15.4953461 ], [ 49.7793145, -15.4952661 ], [ 49.7794615, -15.4950448 ], [ 49.7789978, -15.4943219 ], [ 49.7787756, -15.4945444 ], [ 49.7784028, -15.4947692 ], [ 49.7780945, -15.4943359 ], [ 49.7777049, -15.4935388 ], [ 49.7770082, -15.4923815 ], [ 49.7769161, -15.4913607 ], [ 49.7772027, -15.4904802 ], [ 49.7770486, -15.4902635 ], [ 49.7768083, -15.4893911 ], [ 49.7761008, -15.4875768 ], [ 49.7758594, -15.4866314 ], [ 49.7761376, -15.4852399 ], [ 49.7759666, -15.4840014 ], [ 49.7753549, -15.4834267 ], [ 49.7745113, -15.4824907 ], [ 49.7742734, -15.4817642 ], [ 49.7733534, -15.4807563 ], [ 49.7728217, -15.4804725 ], [ 49.7716843, -15.479979 ], [ 49.7713712, -15.4792537 ], [ 49.7709076, -15.4785308 ], [ 49.7700712, -15.4780327 ], [ 49.7696208, -15.4781126 ], [ 49.768935, -15.4776122 ], [ 49.7684846, -15.4776921 ] ] ] } }
]
}
