{
"type": "FeatureCollection",
"name": "MDG-10634-NODATE-secondary_zoning-001",
"crs": { "type": "name", "properties": { "name": "urn:ogc:def:crs:OGC:1.3:CRS84" } },
"features": [
{ "type": "Feature", "properties": { }, "geometry": { "type": "MultiPolygon", "coordinates": [ [ [ [ 44.5732948, -23.7167116 ], [ 44.5748518, -23.7179625 ], [ 44.5957967, -23.6941995 ], [ 44.5943346, -23.6933825 ], [ 44.5916105, -23.6918121 ], [ 44.5884156, -23.6904215 ], [ 44.5854058, -23.6902656 ], [ 44.580696, -23.6901878 ], [ 44.57586, -23.6901351 ], [ 44.5642243, -23.6978618 ], [ 44.5618299, -23.6995043 ], [ 44.5598995, -23.7010192 ], [ 44.562925, -23.7102979 ], [ 44.5732948, -23.7167116 ] ] ], [ [ [ 44.617962, -23.6720461 ], [ 44.6194519, -23.667287 ], [ 44.62040780000001, -23.6658976 ], [ 44.6209719, -23.6636808 ], [ 44.6218877, -23.6619205 ], [ 44.6214724, -23.6594051 ], [ 44.6205449, -23.6585308 ], [ 44.6170376, -23.6589188 ], [ 44.6138848, -23.6602094 ], [ 44.6104579, -23.6621215 ], [ 44.6063548, -23.6638034 ], [ 44.6019293, -23.6651373 ], [ 44.5976031, -23.6661742 ], [ 44.59527749999998, -23.6666426 ], [ 44.592891, -23.6667252 ], [ 44.590016, -23.666694 ], [ 44.5880498, -23.6666877 ], [ 44.5766543, -23.6889991 ], [ 44.5800549, -23.6892178 ], [ 44.5866954, -23.6888619 ], [ 44.5889478, -23.6854348 ], [ 44.5934763, -23.6872096 ], [ 44.591900200000012, -23.6900894 ], [ 44.594663, -23.691784 ], [ 44.5968666, -23.6932523 ], [ 44.6166033, -23.6734723 ], [ 44.617962, -23.6720461 ] ] ], [ [ [ 44.5922529, -23.6655144 ], [ 44.5947358, -23.6655413 ], [ 44.5968298, -23.6653231 ], [ 44.6006332, -23.6642807 ], [ 44.6041524, -23.6633482 ], [ 44.6086365, -23.6618386 ], [ 44.6120325, -23.6602512 ], [ 44.6150017, -23.6586776 ], [ 44.6187705, -23.6574829 ], [ 44.6210248, -23.6572417 ], [ 44.621311, -23.6557655 ], [ 44.6215979, -23.6542277 ], [ 44.6222862, -23.6526941 ], [ 44.6227862, -23.6486271 ], [ 44.6228103, -23.6467012 ], [ 44.58907, -23.6654044 ], [ 44.5922529, -23.6655144 ] ] ], [ [ [ 44.6317842, -23.6567153 ], [ 44.6337527, -23.6565303 ], [ 44.633918, -23.6540211 ], [ 44.6345629, -23.6524637 ], [ 44.636085400000013, -23.6510551 ], [ 44.6377699, -23.6496984 ], [ 44.623696, -23.6469769 ], [ 44.6236933, -23.6492386 ], [ 44.6234093, -23.6510414 ], [ 44.6231536, -23.6528882 ], [ 44.6224637, -23.6545451 ], [ 44.6222391, -23.6564534 ], [ 44.6221549, -23.6572879 ], [ 44.6232433, -23.65716 ], [ 44.6250362, -23.6567262 ], [ 44.6260691, -23.6563255 ], [ 44.6274095, -23.6563397 ], [ 44.6284762, -23.6568038 ], [ 44.6309332, -23.656871 ], [ 44.6317842, -23.6567153 ] ] ] ] } }
]
}
