{
"type": "FeatureCollection",
"name": "MDG-555697896-NODATE-secondary_zoning-001",
"crs": { "type": "name", "properties": { "name": "urn:ogc:def:crs:OGC:1.3:CRS84" } },
"features": [
{ "type": "Feature", "properties": { }, "geometry": { "type": "Polygon", "coordinates": [ [ [ 49.3663935, -12.2525115 ], [ 49.3664454, -12.2527652 ], [ 49.3664106, -12.2530181 ], [ 49.3663412, -12.2532374 ], [ 49.3662666, -12.2535871 ], [ 49.366306699999988, -12.2539157 ], [ 49.3663067, -12.254102 ], [ 49.3663352, -12.2542367 ], [ 49.3663504, -12.2544914 ], [ 49.3663655, -12.2547452 ], [ 49.36637, -12.2550588 ], [ 49.366373, -12.2553675 ], [ 49.3663188, -12.2556649 ], [ 49.3662645, -12.2559605 ], [ 49.3663147, -12.2563391 ], [ 49.3663746, -12.2566552 ], [ 49.3664029, -12.2568516 ], [ 49.3674067, -12.2571199 ], [ 49.3682398, -12.2575262 ], [ 49.3687203, -12.2580481 ], [ 49.3692113, -12.2589607 ], [ 49.3698534, -12.2599885 ], [ 49.370165, -12.2607157 ], [ 49.370703, -12.2610277 ], [ 49.3710404, -12.2612449 ], [ 49.3716829, -12.2615749 ], [ 49.372004, -12.2627343 ], [ 49.3721628, -12.2643555 ], [ 49.3722331, -12.2645774 ], [ 49.3726944, -12.2655922 ], [ 49.372816, -12.2659317 ], [ 49.3727754, -12.2660971 ], [ 49.3727844, -12.2664328 ], [ 49.3731509, -12.2671623 ], [ 49.373379, -12.2676848 ], [ 49.3736127, -12.2680534 ], [ 49.373919699999988, -12.2685434 ], [ 49.3743426, -12.268689 ], [ 49.3745968, -12.2692126 ], [ 49.3746404, -12.2697686 ], [ 49.3743026, -12.2699557 ], [ 49.3739977, -12.2698953 ], [ 49.3737317, -12.2696779 ], [ 49.3735873, -12.2696508 ], [ 49.3722679, -12.2703159 ], [ 49.3725748, -12.2707379 ], [ 49.3726369, -12.2709708 ], [ 49.3726989, -12.2712032 ], [ 49.3727607, -12.2714351 ], [ 49.3728886, -12.2716266 ], [ 49.3730281, -12.271766 ], [ 49.3731674, -12.2719054 ], [ 49.3732947, -12.2720963 ], [ 49.3733556, -12.2723264 ], [ 49.3735486, -12.2724767 ], [ 49.3737415, -12.2726268 ], [ 49.3739461, -12.2727254 ], [ 49.374204800000015, -12.2728358 ], [ 49.374385, -12.2730368 ], [ 49.3746189, -12.2732493 ], [ 49.3747689, -12.2733358 ], [ 49.3749727, -12.2734339 ], [ 49.3751765, -12.2735321 ], [ 49.3753679, -12.2736811 ], [ 49.375559, -12.27383 ], [ 49.3757251, -12.2740805 ], [ 49.3759034, -12.2742797 ], [ 49.3761063, -12.2743773 ], [ 49.3763091, -12.2744748 ], [ 49.3765656, -12.274584 ], [ 49.3767682, -12.2746814 ], [ 49.376971, -12.2747789 ], [ 49.3770942, -12.2749655 ], [ 49.377204500000012, -12.2752022 ], [ 49.3773274, -12.2753881 ], [ 49.3775167, -12.2755354 ], [ 49.3777185, -12.2756324 ], [ 49.3779068, -12.2757791 ], [ 49.3779753, -12.2759526 ], [ 49.3779107, -12.2762022 ], [ 49.377979, -12.276375 ], [ 49.3782471, -12.2764337 ], [ 49.3784609, -12.2764802 ], [ 49.3786616, -12.2765765 ], [ 49.3789024, -12.2767339 ], [ 49.379089, -12.2768793 ], [ 49.3792634, -12.2770747 ], [ 49.3794514, -12.2772208 ], [ 49.3796524, -12.2773014 ], [ 49.380423, -12.2777681 ], [ 49.382462, -12.2801412 ], [ 49.3833094, -12.2810856 ], [ 49.3823267, -12.2809645 ], [ 49.3846559, -12.2824804 ], [ 49.385939, -12.2833184 ], [ 49.3877454, -12.2848739 ], [ 49.3882721, -12.285237 ], [ 49.3905168, -12.2841482 ], [ 49.3909349, -12.2839511 ], [ 49.3910955, -12.2835646 ], [ 49.391195599999989, -12.2831757 ], [ 49.3911981, -12.2829394 ], [ 49.3911408, -12.2826433 ], [ 49.3912112, -12.2823877 ], [ 49.3912223, -12.2820773 ], [ 49.3910874, -12.2814816 ], [ 49.3910904, -12.2811324 ], [ 49.3909873, -12.2805682 ], [ 49.3910689, -12.280286 ], [ 49.3910751, -12.2800024 ], [ 49.3911244, -12.2798241 ], [ 49.3912112, -12.2795276 ], [ 49.3913236, -12.2791321 ], [ 49.3913051, -12.2790061 ], [ 49.3914601, -12.2789017 ], [ 49.3916743, -12.2788386 ], [ 49.3918994, -12.2789099 ], [ 49.3919918, -12.2788722 ], [ 49.3922136, -12.2788435 ], [ 49.3923815, -12.2789176 ], [ 49.3924133, -12.278943 ], [ 49.392445, -12.2789683 ], [ 49.3924766, -12.2789934 ], [ 49.392512, -12.2790082 ], [ 49.3925562, -12.2790268 ], [ 49.3926004, -12.2790453 ], [ 49.3926395, -12.2790504 ], [ 49.3926749, -12.2790653 ], [ 49.3927102, -12.2790801 ], [ 49.392733, -12.2791009 ], [ 49.3927772, -12.2791194 ], [ 49.3928125, -12.2791343 ], [ 49.392844, -12.2791587 ], [ 49.3928881, -12.2791772 ], [ 49.3929323, -12.2791958 ], [ 49.392967600000013, -12.2792106 ], [ 49.3930117, -12.2792291 ], [ 49.3930559, -12.2792476 ], [ 49.3931, -12.2792661 ], [ 49.3931265, -12.2792772 ], [ 49.3931837, -12.2792896 ], [ 49.3932234, -12.2792945 ], [ 49.3932631, -12.2792995 ], [ 49.3933029, -12.2793044 ], [ 49.3933427, -12.2793094 ], [ 49.3933916, -12.279318 ], [ 49.3934358, -12.2793136 ], [ 49.3934716, -12.279328 ], [ 49.3935117, -12.279333 ], [ 49.3935565, -12.279351 ], [ 49.3935946, -12.2793617 ], [ 49.393609, -12.2793675 ], [ 49.3936235, -12.2793733 ], [ 49.3936379, -12.279379 ], [ 49.3936524, -12.2793848 ], [ 49.393665, -12.2793947 ], [ 49.3936866, -12.2794033 ], [ 49.3936992, -12.2794132 ], [ 49.3937172, -12.2794204 ], [ 49.3937317, -12.2794262 ], [ 49.3937481, -12.2794279 ], [ 49.3937662, -12.2794351 ], [ 49.3937807, -12.2794409 ], [ 49.3937988, -12.2794481 ], [ 49.3938113, -12.2794579 ], [ 49.3938293, -12.2794652 ], [ 49.3938438, -12.2794709 ], [ 49.393862299999988, -12.2794688 ], [ 49.393882899999987, -12.2794625 ], [ 49.3939037, -12.2794563 ], [ 49.3939224, -12.279454 ], [ 49.3939411, -12.2794518 ], [ 49.3939585, -12.279444 ], [ 49.3939832, -12.2794391 ], [ 49.3940022, -12.2794369 ], [ 49.3940198, -12.279429 ], [ 49.3940389, -12.2794267 ], [ 49.3940567, -12.2794187 ], [ 49.3940768, -12.2794065 ], [ 49.3940953, -12.2794141 ], [ 49.3941138, -12.2794216 ], [ 49.3941286, -12.2794277 ], [ 49.3941633, -12.2794469 ], [ 49.3941818, -12.2794545 ], [ 49.3941942, -12.2794646 ], [ 49.3942067, -12.2794748 ], [ 49.3942215, -12.2794808 ], [ 49.3942338, -12.279491 ], [ 49.3942486, -12.279497 ], [ 49.394261, -12.2795071 ], [ 49.3942758, -12.2795132 ], [ 49.3942857, -12.2795273 ], [ 49.3942978, -12.2795376 ], [ 49.39431, -12.2795478 ], [ 49.3943221, -12.279558 ], [ 49.3943317, -12.2795722 ], [ 49.3943413, -12.2795864 ], [ 49.394353400000014, -12.2795965 ], [ 49.3943544, -12.2796171 ], [ 49.3943542, -12.279632 ], [ 49.3943588, -12.2796538 ], [ 49.3943622, -12.2796701 ], [ 49.3943656, -12.2796863 ], [ 49.3943726, -12.2797039 ], [ 49.394379500000014, -12.2797215 ], [ 49.3943828, -12.2797374 ], [ 49.394391, -12.2797457 ], [ 49.3943954, -12.2797668 ], [ 49.3943987, -12.2797826 ], [ 49.3943984, -12.2797968 ], [ 49.3944087, -12.2798153 ], [ 49.3944084, -12.2798294 ], [ 49.3944151, -12.2798463 ], [ 49.3944266, -12.2798558 ], [ 49.3944333, -12.2798726 ], [ 49.3944399, -12.2798894 ], [ 49.3944538, -12.2798952 ], [ 49.3944653, -12.2799047 ], [ 49.394470799999986, -12.2799163 ], [ 49.3944773, -12.2799328 ], [ 49.3944852, -12.2799407 ], [ 49.3944941, -12.2799537 ], [ 49.394503, -12.2799665 ], [ 49.3945115, -12.2799795 ], [ 49.3945201, -12.2799925 ], [ 49.3945226, -12.2800075 ], [ 49.394531099999988, -12.2800204 ], [ 49.3945361, -12.2800318 ], [ 49.394547, -12.2800412 ], [ 49.3945528, -12.2800575 ], [ 49.3945611, -12.2800702 ], [ 49.3945693, -12.280083 ], [ 49.3945801, -12.2800922 ], [ 49.3945883, -12.2801049 ], [ 49.394599, -12.2801141 ], [ 49.3946097, -12.2801233 ], [ 49.394614600000011, -12.2801344 ], [ 49.3946227, -12.2801469 ], [ 49.3946333, -12.280156 ], [ 49.3946446, -12.2801699 ], [ 49.3946494, -12.2801808 ], [ 49.3946548, -12.2801965 ], [ 49.3946569, -12.2802106 ], [ 49.3946525, -12.2802218 ], [ 49.3946359, -12.2802319 ], [ 49.3946193, -12.2802419 ], [ 49.3946028, -12.2802518 ], [ 49.3945847, -12.2802695 ], [ 49.3945685, -12.2802793 ], [ 49.3945555, -12.2802905 ], [ 49.3945418, -12.280297 ], [ 49.3945186, -12.280316 ], [ 49.394502599999981, -12.2803256 ], [ 49.3944876, -12.2803396 ], [ 49.3944718, -12.2803491 ], [ 49.3944515, -12.2803645 ], [ 49.3944391, -12.2803752 ], [ 49.3944182, -12.2803861 ], [ 49.394406, -12.2803967 ], [ 49.394388499999984, -12.2804088 ], [ 49.3943755, -12.2804149 ], [ 49.3943582, -12.2804269 ], [ 49.3943463, -12.2804372 ], [ 49.394336700000011, -12.2804445 ], [ 49.3939335, -12.2805898 ], [ 49.3939426, -12.2806058 ], [ 49.3939516, -12.2806218 ], [ 49.3939605, -12.2806376 ], [ 49.3939695, -12.2806535 ], [ 49.3939748, -12.2806674 ], [ 49.3939839, -12.2806828 ], [ 49.3939899, -12.2807027 ], [ 49.3940021, -12.2807136 ], [ 49.3940081, -12.2807333 ], [ 49.394014, -12.2807529 ], [ 49.3940261, -12.2807637 ], [ 49.394035, -12.2807788 ], [ 49.394044, -12.2807939 ], [ 49.3940497, -12.2808131 ], [ 49.3940648, -12.2808196 ], [ 49.3940705, -12.2808387 ], [ 49.3940824, -12.2808494 ], [ 49.3940843, -12.2808668 ], [ 49.3940999, -12.280879 ], [ 49.3941118, -12.2808895 ], [ 49.3941205, -12.2809042 ], [ 49.39413540000001, -12.2809106 ], [ 49.3941503, -12.280917 ], [ 49.3941589, -12.2809316 ], [ 49.394166899999988, -12.2809405 ], [ 49.3941824, -12.2809525 ], [ 49.3941909, -12.280967 ], [ 49.3942025, -12.2809774 ], [ 49.3942177, -12.2809835 ], [ 49.3942265, -12.2809976 ], [ 49.3942424, -12.2810092 ], [ 49.3942544, -12.2810192 ], [ 49.3942632, -12.2810333 ], [ 49.3942752, -12.2810433 ], [ 49.394284, -12.2810572 ], [ 49.3942992, -12.2810632 ], [ 49.3943241, -12.2810574 ], [ 49.394345800000011, -12.2810555 ], [ 49.394371, -12.2810497 ], [ 49.3943901, -12.2810573 ], [ 49.3944088, -12.2810594 ], [ 49.3944342, -12.2810535 ], [ 49.3944529, -12.2810556 ], [ 49.3944751, -12.2810537 ], [ 49.3944944, -12.2810613 ], [ 49.3945128, -12.2810579 ], [ 49.3945206, -12.281061 ], [ 49.3945645, -12.2811638 ], [ 49.394615, -12.2812776 ], [ 49.3946598, -12.2814437 ], [ 49.394712299999988, -12.2815155 ], [ 49.3948087, -12.2816173 ], [ 49.3950078, -12.2818831 ], [ 49.3952498, -12.281741 ], [ 49.3954963, -12.2804723 ], [ 49.3962097, -12.2799873 ], [ 49.3957526, -12.2794836 ], [ 49.3951736, -12.2790349 ], [ 49.3947802, -12.2784843 ], [ 49.3946879, -12.2776534 ], [ 49.3938993, -12.2773748 ], [ 49.3937316, -12.2774009 ], [ 49.393714300000013, -12.2773991 ], [ 49.3936969, -12.2773973 ], [ 49.3936772, -12.2773996 ], [ 49.3936575, -12.2774019 ], [ 49.393638, -12.2774041 ], [ 49.3936223, -12.2774078 ], [ 49.3936029, -12.27741 ], [ 49.3935812, -12.2774163 ], [ 49.393562, -12.2774185 ], [ 49.3935442, -12.2774262 ], [ 49.3935241, -12.277438 ], [ 49.3935088, -12.2774416 ], [ 49.3934876, -12.2774478 ], [ 49.3934715, -12.2774609 ], [ 49.393455499999988, -12.2774739 ], [ 49.3934346, -12.2774799 ], [ 49.3934174, -12.2774874 ], [ 49.3933981, -12.2774988 ], [ 49.3933797, -12.2775007 ], [ 49.3933599, -12.2774973 ], [ 49.39334359999998, -12.2774954 ], [ 49.3933295, -12.2774895 ], [ 49.3933112, -12.2774914 ], [ 49.393293, -12.2774934 ], [ 49.3932784, -12.2774969 ], [ 49.3932583, -12.2775027 ], [ 49.3932383, -12.2775085 ], [ 49.3932223, -12.2775066 ], [ 49.3932064, -12.2775046 ], [ 49.3931881, -12.2775158 ], [ 49.3931773, -12.2775206 ], [ 49.3931538, -12.277534 ], [ 49.3931396, -12.2775374 ], [ 49.3931148, -12.2775456 ], [ 49.393099, -12.2775438 ], [ 49.3930815, -12.2775457 ], [ 49.3930643, -12.2775387 ], [ 49.3930539, -12.2775345 ], [ 49.3930366, -12.2775274 ], [ 49.3930229, -12.2775127 ], [ 49.3930057, -12.2775057 ], [ 49.3929849, -12.2774972 ], [ 49.3929676, -12.2774902 ], [ 49.3929573, -12.2774768 ], [ 49.3929469, -12.2774634 ], [ 49.3929365, -12.27745 ], [ 49.3929278, -12.2774418 ], [ 49.3929138, -12.2774269 ], [ 49.3929051, -12.2774187 ], [ 49.3928911, -12.2774038 ], [ 49.3928822, -12.2773862 ], [ 49.3928716, -12.2773725 ], [ 49.392861, -12.2773588 ], [ 49.3928486, -12.2773491 ], [ 49.3928379, -12.2773353 ], [ 49.3928272, -12.2773215 ], [ 49.3928096, -12.2773143 ], [ 49.3928007, -12.277306 ], [ 49.3927951, -12.2772894 ], [ 49.3927859, -12.2772713 ], [ 49.3927782, -12.277249 ], [ 49.3927689, -12.2772308 ], [ 49.3927631, -12.2772139 ], [ 49.3927537, -12.2771957 ], [ 49.3927586, -12.2771831 ], [ 49.3927524, -12.2771561 ], [ 49.3927464, -12.277139 ], [ 49.3927332, -12.2771189 ], [ 49.3927325, -12.2770987 ], [ 49.3927317, -12.2770785 ], [ 49.3927257, -12.277061 ], [ 49.3927213, -12.277039 ], [ 49.3927172, -12.2770272 ], [ 49.3927107, -12.276999 ], [ 49.3926992, -12.2769841 ], [ 49.3926861, -12.2769734 ], [ 49.3926726, -12.2769521 ], [ 49.3926627, -12.2769323 ], [ 49.3926543, -12.2769077 ], [ 49.3926464, -12.2768938 ], [ 49.3926437, -12.2768767 ], [ 49.3926369, -12.276847 ], [ 49.3926304, -12.2768282 ], [ 49.3926202, -12.2768077 ], [ 49.3926153, -12.2767838 ], [ 49.3926104, -12.2767598 ], [ 49.3925969, -12.2767486 ], [ 49.3925849, -12.2767326 ], [ 49.3925782, -12.2767131 ], [ 49.39257, -12.2766985 ], [ 49.3925595, -12.2766773 ], [ 49.3925489, -12.276656 ], [ 49.3925421, -12.2766362 ], [ 49.3925384, -12.2766061 ], [ 49.3925292, -12.2765793 ], [ 49.3925277, -12.2765555 ], [ 49.3925286, -12.2765384 ], [ 49.392513799999989, -12.2765142 ], [ 49.39251, -12.2764825 ], [ 49.3925045, -12.2764562 ], [ 49.3924903, -12.2764443 ], [ 49.3924746, -12.2764379 ], [ 49.3924579, -12.2764189 ], [ 49.3924452, -12.2764015 ], [ 49.3924363, -12.2763857 ], [ 49.3924235, -12.2763682 ], [ 49.3924067, -12.276349 ], [ 49.3923952, -12.2763258 ], [ 49.3923807, -12.2763136 ], [ 49.3923688, -12.2763087 ], [ 49.3923466, -12.2762747 ], [ 49.3923309, -12.2762495 ], [ 49.3923108, -12.2762413 ], [ 49.3922921, -12.2762273 ], [ 49.392277400000012, -12.276215 ], [ 49.3922627, -12.2762027 ], [ 49.392248, -12.2761903 ], [ 49.3922318, -12.2761837 ], [ 49.3922157, -12.2761771 ], [ 49.392199599999984, -12.2761705 ], [ 49.3921834, -12.2761639 ], [ 49.3921647, -12.2761689 ], [ 49.3921473, -12.2761682 ], [ 49.3921312, -12.2761619 ], [ 49.3921111, -12.276154 ], [ 49.3920951, -12.2761478 ], [ 49.392075, -12.2761399 ], [ 49.3920589, -12.2761336 ], [ 49.3920005, -12.2760896 ], [ 49.3919859, -12.2760719 ], [ 49.3919838, -12.2760533 ], [ 49.3919767, -12.2760328 ], [ 49.3919646, -12.2760102 ], [ 49.391965, -12.2759867 ], [ 49.3919628, -12.275968 ], [ 49.3919682, -12.2759465 ], [ 49.3919611, -12.2759258 ], [ 49.3919591, -12.2758953 ], [ 49.3919569, -12.2758765 ], [ 49.3919573, -12.2758528 ], [ 49.39195, -12.2758321 ], [ 49.3919326, -12.2758192 ], [ 49.3919278, -12.2757935 ], [ 49.3919205, -12.2757727 ], [ 49.3919131, -12.2757519 ], [ 49.3919083, -12.2757261 ], [ 49.3919037, -12.2757002 ], [ 49.3919041, -12.2756763 ], [ 49.3918969, -12.2756553 ], [ 49.3918848, -12.2756322 ], [ 49.3918776, -12.2756112 ], [ 49.391873, -12.2755851 ], [ 49.3918583, -12.275567 ], [ 49.391856, -12.2755479 ], [ 49.391854, -12.2755167 ], [ 49.3918493, -12.2754905 ], [ 49.3918496, -12.2754663 ], [ 49.3918348, -12.2754481 ], [ 49.3918226, -12.2754248 ], [ 49.3918104, -12.2754015 ], [ 49.3918031, -12.2753802 ], [ 49.3917958, -12.2753589 ], [ 49.3917809, -12.2753406 ], [ 49.3917685, -12.2753173 ], [ 49.3917687, -12.2752928 ], [ 49.3917664, -12.2752735 ], [ 49.3917539, -12.2752501 ], [ 49.3917414, -12.2752267 ], [ 49.3917315, -12.2751688 ], [ 49.391722, -12.2751546 ], [ 49.3917147, -12.2751363 ], [ 49.3917073, -12.2751179 ], [ 49.3916944, -12.2750666 ], [ 49.3916916, -12.2750501 ], [ 49.391691, -12.2750294 ], [ 49.3916857, -12.2750067 ], [ 49.3916851, -12.2749859 ], [ 49.3916844, -12.2749651 ], [ 49.3916838, -12.2749443 ], [ 49.391681, -12.2749277 ], [ 49.3916804, -12.2749069 ], [ 49.3916797, -12.274886 ], [ 49.3916773, -12.2748798 ], [ 49.3916599, -12.2748141 ], [ 49.391655, -12.2748017 ], [ 49.3916502, -12.2747892 ], [ 49.3916499, -12.2747751 ], [ 49.3916451, -12.2747626 ], [ 49.3916448, -12.2747485 ], [ 49.3916462, -12.2747385 ], [ 49.3916444, -12.2747273 ], [ 49.3916396, -12.2747147 ], [ 49.3916378, -12.2747035 ], [ 49.3916359, -12.2746851 ], [ 49.3916357, -12.2746709 ], [ 49.3916323, -12.2746554 ], [ 49.391632, -12.2746412 ], [ 49.3916257, -12.2746315 ], [ 49.3916178, -12.2746176 ], [ 49.391613, -12.274605 ], [ 49.3916082, -12.2745924 ], [ 49.391608, -12.2745781 ], [ 49.3916109, -12.274565 ], [ 49.3916168, -12.274546 ], [ 49.3916166, -12.2745316 ], [ 49.391618, -12.2745214 ], [ 49.3916161, -12.2745028 ], [ 49.391619, -12.2744896 ], [ 49.3916235, -12.2744734 ], [ 49.3916264, -12.2744602 ], [ 49.3916262, -12.2744457 ], [ 49.3916291, -12.2744324 ], [ 49.3916258, -12.2744166 ], [ 49.3916271, -12.2743991 ], [ 49.3916269, -12.2743845 ], [ 49.3916298, -12.2743711 ], [ 49.3916296, -12.2743565 ], [ 49.3916294, -12.2743419 ], [ 49.3916292, -12.2743272 ], [ 49.3916275, -12.2743156 ], [ 49.3916319, -12.2742991 ], [ 49.3916317, -12.2742844 ], [ 49.3916347, -12.2742709 ], [ 49.3916391, -12.2742544 ], [ 49.3916343, -12.2742414 ], [ 49.3916341, -12.2742266 ], [ 49.3916339, -12.2742118 ], [ 49.391629, -12.2741988 ], [ 49.3916288, -12.2741839 ], [ 49.3916286, -12.2741691 ], [ 49.3916237, -12.274156 ], [ 49.391622, -12.2741442 ], [ 49.3916186, -12.274128 ], [ 49.3916105, -12.2741136 ], [ 49.3916072, -12.2740974 ], [ 49.3916038, -12.2740812 ], [ 49.3915989, -12.2740681 ], [ 49.3916003, -12.2740574 ], [ 49.3915937, -12.2740399 ], [ 49.3915888, -12.2740267 ], [ 49.391587, -12.2740148 ], [ 49.3915789, -12.2740003 ], [ 49.3915708, -12.2739858 ], [ 49.3915659, -12.2739726 ], [ 49.3915609, -12.2739594 ], [ 49.3915528, -12.2739449 ], [ 49.391551, -12.2739329 ], [ 49.3915477, -12.273924 ], [ 49.3915395, -12.2739019 ], [ 49.3915345, -12.2738886 ], [ 49.3915263, -12.273874 ], [ 49.3915182, -12.2738595 ], [ 49.391507, -12.2738512 ], [ 49.391502, -12.2738379 ], [ 49.3914908, -12.2738297 ], [ 49.3914843, -12.2738195 ], [ 49.3914729, -12.2738036 ], [ 49.3914679, -12.2737903 ], [ 49.391458199999988, -12.2737788 ], [ 49.3914531, -12.2737654 ], [ 49.3914481, -12.273752 ], [ 49.3914369, -12.2737438 ], [ 49.3914272, -12.2737323 ], [ 49.3914221, -12.2737189 ], [ 49.3914124, -12.2737074 ], [ 49.3914105, -12.2736952 ], [ 49.3914023, -12.2736805 ], [ 49.391394, -12.2736658 ], [ 49.391389, -12.2736523 ], [ 49.3913824, -12.2736421 ], [ 49.391378899999985, -12.2736254 ], [ 49.3913753, -12.2736086 ], [ 49.3913734, -12.2735963 ], [ 49.391373, -12.2735808 ], [ 49.3913617, -12.2735725 ], [ 49.3913566, -12.273559 ], [ 49.3913531, -12.2735421 ], [ 49.3913433, -12.2735305 ], [ 49.3913384, -12.2735247 ], [ 49.3913317, -12.2735064 ], [ 49.391326699999986, -12.2734927 ], [ 49.391323099999987, -12.2734757 ], [ 49.3913215, -12.2734711 ], [ 49.3913245, -12.273439 ], [ 49.3913209, -12.2734231 ], [ 49.3913158, -12.2734101 ], [ 49.3913124, -12.2734015 ], [ 49.3913087, -12.2733855 ], [ 49.391306799999988, -12.2733738 ], [ 49.3913046, -12.2733548 ], [ 49.391298, -12.2733448 ], [ 49.3912882, -12.2733335 ], [ 49.3912799, -12.2733192 ], [ 49.3912748, -12.2733061 ], [ 49.391265, -12.2732948 ], [ 49.3912567, -12.2732804 ], [ 49.3912515, -12.2732673 ], [ 49.391251, -12.2732525 ], [ 49.3912458, -12.2732394 ], [ 49.3912438, -12.2732276 ], [ 49.3912369, -12.2732101 ], [ 49.3912318, -12.273197 ], [ 49.3912219, -12.2731856 ], [ 49.3912121, -12.2731741 ], [ 49.3912037, -12.2731596 ], [ 49.3911953, -12.2731451 ], [ 49.3911901, -12.2731319 ], [ 49.3911848, -12.2731187 ], [ 49.391181099999983, -12.2731024 ], [ 49.3911759, -12.2730891 ], [ 49.3911753, -12.2730741 ], [ 49.39117, -12.2730608 ], [ 49.3911648, -12.2730475 ], [ 49.3911595, -12.2730342 ], [ 49.391151, -12.2730196 ], [ 49.391141, -12.2730081 ], [ 49.3911372, -12.2729917 ], [ 49.3911366, -12.2729765 ], [ 49.3911345, -12.2729645 ], [ 49.3911321, -12.2729449 ], [ 49.3911314, -12.2729297 ], [ 49.3911246, -12.2729194 ], [ 49.3911175, -12.2729016 ], [ 49.3911169, -12.2728863 ], [ 49.3910929, -12.2728465 ], [ 49.3910875, -12.2728331 ], [ 49.3910822, -12.2728196 ], [ 49.39108, -12.2728075 ], [ 49.3910794, -12.2727921 ], [ 49.3910725, -12.2727818 ], [ 49.3910686, -12.2727651 ], [ 49.39106, -12.2727503 ], [ 49.3910499, -12.2727386 ], [ 49.3910398, -12.2727269 ], [ 49.3910312, -12.272712 ], [ 49.3910211, -12.2727004 ], [ 49.3910124, -12.2726855 ], [ 49.3910023, -12.2726738 ], [ 49.3909954, -12.2726634 ], [ 49.3909868, -12.2726485 ], [ 49.3909752, -12.27264 ], [ 49.3909622, -12.2726347 ], [ 49.3909506, -12.2726262 ], [ 49.3909387, -12.27261 ], [ 49.3909332, -12.2725964 ], [ 49.3909278, -12.2725827 ], [ 49.3909209, -12.2725723 ], [ 49.3909075, -12.2725592 ], [ 49.3908955, -12.272543 ], [ 49.39089, -12.2725293 ], [ 49.3908878, -12.2725169 ], [ 49.3908823, -12.2725032 ], [ 49.3908783, -12.2724862 ], [ 49.3908728, -12.2724725 ], [ 49.3908626, -12.2724607 ], [ 49.390855699999989, -12.2724503 ], [ 49.3908422, -12.2724371 ], [ 49.3908353, -12.2724267 ], [ 49.3908251, -12.2724148 ], [ 49.3908196, -12.272401 ], [ 49.3908108, -12.2723858 ], [ 49.3907992, -12.2723772 ], [ 49.3907829, -12.2723706 ], [ 49.3907699, -12.2723653 ], [ 49.3907625, -12.2723467 ], [ 49.3907556, -12.2723361 ], [ 49.3907482, -12.2723175 ], [ 49.3907366, -12.2723089 ], [ 49.390726300000011, -12.272297 ], [ 49.3907175, -12.2722817 ], [ 49.3907059, -12.272273 ], [ 49.3906924, -12.2722598 ], [ 49.3906793, -12.2722545 ], [ 49.390663, -12.2722479 ], [ 49.3906467, -12.2722412 ], [ 49.390633699999988, -12.272236 ], [ 49.390617399999989, -12.2722294 ], [ 49.3906038, -12.2722161 ], [ 49.3905908, -12.2722109 ], [ 49.3905759, -12.272201 ], [ 49.3905629, -12.2721958 ], [ 49.3905512, -12.2721873 ], [ 49.3905396, -12.2721787 ], [ 49.3905279, -12.2721702 ], [ 49.3905163, -12.2721617 ], [ 49.3905014, -12.2721518 ], [ 49.3904884, -12.2721466 ], [ 49.3904794, -12.2721314 ], [ 49.3904485, -12.2720956 ], [ 49.3904396, -12.2720804 ], [ 49.3904325, -12.2720697 ], [ 49.3904235, -12.2720544 ], [ 49.3904151, -12.2720472 ], [ 49.3904048, -12.2720352 ], [ 49.390393100000011, -12.2720266 ], [ 49.3903828, -12.2720146 ], [ 49.3903757, -12.2720039 ], [ 49.3903654, -12.2719919 ], [ 49.3903629, -12.2719791 ], [ 49.390358400000011, -12.2719616 ], [ 49.3903527, -12.2719475 ], [ 49.3903502, -12.2719346 ], [ 49.3903444, -12.2719205 ], [ 49.3903399, -12.2719029 ], [ 49.3903295, -12.2718908 ], [ 49.3903191, -12.2718787 ], [ 49.3903166, -12.2718658 ], [ 49.3903154, -12.2718495 ], [ 49.3903096, -12.2718353 ], [ 49.3903052, -12.2718178 ], [ 49.390298, -12.2718072 ], [ 49.3902936, -12.2717897 ], [ 49.3902989, -12.271776 ], [ 49.3902958, -12.271755 ], [ 49.39029, -12.271741 ], [ 49.3902914, -12.2717375 ], [ 49.390276199999988, -12.2716993 ], [ 49.390271, -12.2716859 ], [ 49.3902657, -12.2716726 ], [ 49.3902651, -12.2716573 ], [ 49.3902598, -12.2716439 ], [ 49.390256, -12.2716273 ], [ 49.3902507, -12.2716139 ], [ 49.3902519, -12.2716031 ], [ 49.3902527, -12.2715846 ], [ 49.3902539, -12.2715737 ], [ 49.3902548, -12.2715551 ], [ 49.3902527, -12.2715429 ], [ 49.3902385, -12.2715069 ], [ 49.3902411, -12.2714927 ], [ 49.3902438, -12.2714785 ], [ 49.3902399, -12.2714617 ], [ 49.3902426, -12.2714474 ], [ 49.390242, -12.2714319 ], [ 49.3902414, -12.2714163 ], [ 49.3902375, -12.2713994 ], [ 49.3902321, -12.2713858 ], [ 49.3902348, -12.2713714 ], [ 49.3902374, -12.2713571 ], [ 49.3902401, -12.2713427 ], [ 49.390247500000015, -12.2713263 ], [ 49.3902469, -12.2713105 ], [ 49.3902496, -12.2712961 ], [ 49.3902522, -12.2712816 ], [ 49.3902579, -12.2712605 ], [ 49.3902573, -12.2712446 ], [ 49.3902552, -12.2712321 ], [ 49.3902513, -12.2712149 ], [ 49.3902558, -12.2712049 ], [ 49.3902582, -12.2711823 ], [ 49.3902528, -12.2711684 ], [ 49.3902507, -12.2711558 ], [ 49.3902467, -12.2711386 ], [ 49.3902461, -12.2711225 ], [ 49.390244, -12.2711099 ], [ 49.3902449, -12.2710905 ], [ 49.3902443, -12.2710744 ], [ 49.3902437, -12.2710583 ], [ 49.3902334, -12.2710464 ], [ 49.3902264, -12.2710357 ], [ 49.3902176, -12.2710205 ], [ 49.3902106, -12.2710099 ], [ 49.3902018, -12.2709946 ], [ 49.390199699999989, -12.2709819 ], [ 49.3901942, -12.2709679 ], [ 49.3901901, -12.2709504 ], [ 49.3901894, -12.2709343 ], [ 49.390182400000015, -12.2709236 ], [ 49.3901784, -12.2709062 ], [ 49.3901777, -12.2708899 ], [ 49.3901722, -12.2708758 ], [ 49.3901681, -12.2708583 ], [ 49.3901641, -12.2708408 ], [ 49.3901649, -12.270821 ], [ 49.3901627, -12.2708082 ], [ 49.3901604, -12.2707953 ], [ 49.3901564, -12.2707776 ], [ 49.390159, -12.2707625 ], [ 49.3901549, -12.2707449 ], [ 49.3901445, -12.2707328 ], [ 49.3901341, -12.2707208 ], [ 49.3901237, -12.2707088 ], [ 49.3901181, -12.2706945 ], [ 49.390114, -12.2706768 ], [ 49.3901085, -12.2706625 ], [ 49.3900981, -12.2706504 ], [ 49.3900973, -12.2706337 ], [ 49.3900921, -12.2706276 ], [ 49.3900896, -12.2706062 ], [ 49.390084, -12.2705917 ], [ 49.3900784, -12.2705773 ], [ 49.3900728, -12.2705628 ], [ 49.3900624, -12.2705505 ], [ 49.390052, -12.2705383 ], [ 49.3900464, -12.2705238 ], [ 49.3900408, -12.2705092 ], [ 49.3900337, -12.2704982 ], [ 49.3900232, -12.2704859 ], [ 49.3900146, -12.2704785 ], [ 49.3900057, -12.2704627 ], [ 49.3899967, -12.2704468 ], [ 49.3899896, -12.2704358 ], [ 49.3899806, -12.2704199 ], [ 49.3899701, -12.2704075 ], [ 49.3899596, -12.2703952 ], [ 49.3899539, -12.2703806 ], [ 49.3899521, -12.2703757 ], [ 49.3899322, -12.2703404 ], [ 49.3899287, -12.2703253 ], [ 49.389923700000011, -12.270313 ], [ 49.3899157, -12.2702995 ], [ 49.3899169, -12.2702898 ], [ 49.389908899999988, -12.2702762 ], [ 49.3899008, -12.2702626 ], [ 49.3898959, -12.2702503 ], [ 49.3898909, -12.270238 ], [ 49.3898857, -12.2702187 ], [ 49.3898838, -12.2702076 ], [ 49.3898802, -12.2701925 ], [ 49.3898797, -12.2701786 ], [ 49.3898748, -12.2701662 ], [ 49.389869900000015, -12.2701539 ], [ 49.3898666, -12.2701456 ], [ 49.3898675, -12.2701288 ], [ 49.3898654, -12.2701107 ], [ 49.389859, -12.2701011 ], [ 49.3898524, -12.2700846 ], [ 49.3898474, -12.2700721 ], [ 49.3898394, -12.2700584 ], [ 49.3898344, -12.2700459 ], [ 49.389828, -12.2700364 ], [ 49.3898185, -12.2700255 ], [ 49.3898091, -12.2700146 ], [ 49.3898041, -12.2700021 ], [ 49.389797599999987, -12.2699925 ], [ 49.3897896, -12.2699787 ], [ 49.3897846, -12.2699661 ], [ 49.389776500000011, -12.2699523 ], [ 49.389775900000011, -12.2699382 ], [ 49.389774, -12.2699269 ], [ 49.3897689, -12.2699143 ], [ 49.38975940000001, -12.2699033 ], [ 49.3897485, -12.2698953 ], [ 49.3897404, -12.2698814 ], [ 49.3897294, -12.2698734 ], [ 49.3897199, -12.2698624 ], [ 49.3897148, -12.2698498 ], [ 49.3897097, -12.2698371 ], [ 49.3897002, -12.2698262 ], [ 49.3896965, -12.2698106 ], [ 49.3896811, -12.2698042 ], [ 49.3896715, -12.2697932 ], [ 49.3896588, -12.2697809 ], [ 49.3896568, -12.2697695 ], [ 49.3896472, -12.2697584 ], [ 49.389639, -12.2697444 ], [ 49.3896281, -12.2697364 ], [ 49.3896158, -12.2697313 ], [ 49.3896062, -12.2697202 ], [ 49.3895997, -12.2697104 ], [ 49.3895946, -12.2696977 ], [ 49.3895895, -12.2696849 ], [ 49.3895772, -12.2696798 ], [ 49.3895645, -12.2696675 ], [ 49.3895535, -12.2696594 ], [ 49.3895439, -12.2696483 ], [ 49.3895329, -12.2696402 ], [ 49.3895174, -12.2696338 ], [ 49.389502, -12.2696274 ], [ 49.3894865, -12.269621 ], [ 49.389481399999987, -12.2696082 ], [ 49.3894762, -12.2695954 ], [ 49.389471, -12.2695825 ], [ 49.3894644, -12.2695727 ], [ 49.3894561, -12.2695586 ], [ 49.3894509, -12.2695457 ], [ 49.3894399, -12.2695376 ], [ 49.3894302, -12.2695264 ], [ 49.389425, -12.2695135 ], [ 49.3894197, -12.2695006 ], [ 49.3894145, -12.2694877 ], [ 49.3894137, -12.2694731 ], [ 49.3894129, -12.2694584 ], [ 49.3894107, -12.2694467 ], [ 49.389401, -12.2694355 ], [ 49.3893913, -12.2694243 ], [ 49.3893847, -12.2694143 ], [ 49.38937940000001, -12.2694013 ], [ 49.389379899999987, -12.2693835 ], [ 49.389376, -12.2693674 ], [ 49.389377, -12.2693569 ], [ 49.3893775, -12.269339 ], [ 49.3893784, -12.2693285 ], [ 49.3893714, -12.269311 ], [ 49.3893616, -12.2692997 ], [ 49.3893518, -12.2692884 ], [ 49.3893465, -12.2692753 ], [ 49.3893425, -12.2692591 ], [ 49.3893385, -12.2692428 ], [ 49.3893345, -12.2692265 ], [ 49.3893292, -12.2692133 ], [ 49.3893239, -12.2692001 ], [ 49.3893185, -12.2691612 ], [ 49.3893163, -12.2691492 ], [ 49.389318599999989, -12.2691354 ], [ 49.3893222, -12.2691184 ], [ 49.3893169, -12.2691051 ], [ 49.3893115, -12.2690918 ], [ 49.3893016, -12.2690803 ], [ 49.3892962, -12.269067 ], [ 49.389294, -12.2690549 ], [ 49.3892931, -12.2690397 ], [ 49.3892922, -12.2690244 ], [ 49.3892836, -12.2690097 ], [ 49.3892737, -12.2689982 ], [ 49.3892624, -12.2689899 ], [ 49.3892498, -12.2689847 ], [ 49.389234, -12.2689782 ], [ 49.3892214, -12.268973 ], [ 49.3892186, -12.268953 ], [ 49.3892073, -12.2689446 ], [ 49.3892019, -12.2689311 ], [ 49.3891978, -12.2689143 ], [ 49.389191, -12.2689039 ], [ 49.3891823, -12.268889 ], [ 49.3891768, -12.2688754 ], [ 49.389171399999988, -12.2688617 ], [ 49.3891659, -12.2688482 ], [ 49.3891604, -12.2688348 ], [ 49.3891594, -12.2688194 ], [ 49.3891552, -12.2688028 ], [ 49.3891528, -12.2687906 ], [ 49.389150499999985, -12.2687784 ], [ 49.3891386, -12.2687625 ], [ 49.3891272, -12.2687543 ], [ 49.3891204, -12.2687441 ], [ 49.3891117, -12.2687295 ], [ 49.3891075, -12.2687128 ], [ 49.3891033, -12.268696 ], [ 49.3891054, -12.2686818 ], [ 49.3891044, -12.2686662 ], [ 49.3891097, -12.2686532 ], [ 49.3891182, -12.2686413 ], [ 49.3891236, -12.2686282 ], [ 49.389129, -12.268615 ], [ 49.3891293, -12.2685961 ], [ 49.3891251, -12.2685792 ], [ 49.3890356, -12.2684072 ], [ 49.3890273, -12.2683999 ], [ 49.389014499999988, -12.2683947 ], [ 49.3890011, -12.2683816 ], [ 49.388991, -12.2683698 ], [ 49.3889717, -12.268362 ], [ 49.3889556, -12.2683549 ], [ 49.3889427, -12.2683493 ], [ 49.3889312, -12.2683403 ], [ 49.3889151, -12.2683332 ], [ 49.3889035, -12.2683242 ], [ 49.3888873, -12.2683171 ], [ 49.3888757, -12.2683081 ], [ 49.388866, -12.2683039 ], [ 49.3888525, -12.2682901 ], [ 49.3888409, -12.2682812 ], [ 49.388828, -12.2682757 ], [ 49.388815, -12.2682701 ], [ 49.388795599999987, -12.2682618 ], [ 49.3887827, -12.2682562 ], [ 49.3887698, -12.2682506 ], [ 49.3887536, -12.2682436 ], [ 49.3887406, -12.2682381 ], [ 49.3887277, -12.2682325 ], [ 49.388714699999987, -12.2682269 ], [ 49.3887018, -12.2682213 ], [ 49.3886843, -12.2682177 ], [ 49.3886701, -12.2682155 ], [ 49.3886558, -12.2682132 ], [ 49.3886428, -12.2682076 ], [ 49.3886266, -12.2682006 ], [ 49.3886104, -12.2681937 ], [ 49.3885974, -12.2681881 ], [ 49.3885812, -12.2681811 ], [ 49.388565, -12.2681741 ], [ 49.3885532, -12.2681652 ], [ 49.388537, -12.2681582 ], [ 49.3885227, -12.2681559 ], [ 49.3885085, -12.2681537 ], [ 49.3884942, -12.2681515 ], [ 49.3884784, -12.2681456 ], [ 49.3884627, -12.2681398 ], [ 49.3884501, -12.2681351 ], [ 49.3884343, -12.2681293 ], [ 49.3884218, -12.2681246 ], [ 49.3884048, -12.2681221 ], [ 49.3883922, -12.2681174 ], [ 49.3883765, -12.2681116 ], [ 49.388364, -12.268107 ], [ 49.388345199999989, -12.2680999 ], [ 49.3883326, -12.268095 ], [ 49.38832, -12.2680901 ], [ 49.3883074, -12.2680853 ], [ 49.3882885, -12.268078 ], [ 49.3882759, -12.2680731 ], [ 49.3882627, -12.2680606 ], [ 49.3882515, -12.2680526 ], [ 49.3882415, -12.2680413 ], [ 49.3882403, -12.268026 ], [ 49.3882277, -12.2680212 ], [ 49.3882165, -12.2680131 ], [ 49.3882065, -12.2680019 ], [ 49.3881978, -12.2679874 ], [ 49.3881878, -12.2679762 ], [ 49.3881778, -12.2679649 ], [ 49.388171, -12.2679549 ], [ 49.388161, -12.2679436 ], [ 49.3881485, -12.2679388 ], [ 49.3881385, -12.2679276 ], [ 49.3881329, -12.2679144 ], [ 49.3881273, -12.2679011 ], [ 49.3881218, -12.2678879 ], [ 49.3881093, -12.2678831 ], [ 49.3880993, -12.2678718 ], [ 49.388089, -12.26786 ], [ 49.3880795, -12.267844 ], [ 49.3880675, -12.2678347 ], [ 49.3880612, -12.2678202 ], [ 49.3880562, -12.2678023 ], [ 49.3880532, -12.2677893 ], [ 49.3880436, -12.2677732 ], [ 49.3880418, -12.2677568 ], [ 49.3880372, -12.2677196 ], [ 49.3880349, -12.2677021 ], [ 49.3880301, -12.2676901 ], [ 49.3880295, -12.2676765 ], [ 49.3880305, -12.2676669 ], [ 49.3880354, -12.267649 ], [ 49.388034800000014, -12.2676353 ], [ 49.3880342, -12.2676217 ], [ 49.3880335, -12.267608 ], [ 49.388032700000011, -12.2675942 ], [ 49.3880348, -12.2675816 ], [ 49.388031, -12.2675666 ], [ 49.3880302, -12.2675528 ], [ 49.3880264, -12.2675377 ], [ 49.3880256, -12.2675239 ], [ 49.3880294, -12.2675153 ], [ 49.3880298, -12.2674986 ], [ 49.388032, -12.267486 ], [ 49.3880311, -12.2674721 ], [ 49.3880303, -12.2674583 ], [ 49.3880324, -12.2674456 ], [ 49.3880375, -12.2674342 ], [ 49.3880426, -12.2674228 ], [ 49.3880477, -12.2674114 ], [ 49.3880498, -12.2673987 ], [ 49.3880502, -12.2673819 ], [ 49.3880566, -12.2673676 ], [ 49.3880575, -12.2673578 ], [ 49.3880638, -12.2673435 ], [ 49.3880676, -12.2673349 ], [ 49.3880681, -12.2673181 ], [ 49.3880689, -12.2673083 ], [ 49.3880694, -12.2672915 ], [ 49.3880686, -12.2672775 ], [ 49.388064799999988, -12.2672623 ], [ 49.3880623, -12.2672442 ], [ 49.388061400000012, -12.2672302 ], [ 49.3880593, -12.2672191 ], [ 49.3880531, -12.2672097 ], [ 49.3880465, -12.2671931 ], [ 49.3880415, -12.2671808 ], [ 49.3880395, -12.2671696 ], [ 49.38804, -12.2671527 ], [ 49.388038, -12.2671415 ], [ 49.388034, -12.2671191 ], [ 49.3880345, -12.2671022 ], [ 49.3880308, -12.2670868 ], [ 49.3880229, -12.2670731 ], [ 49.3880149, -12.2670593 ], [ 49.3880146, -12.2670522 ], [ 49.3880121, -12.2670339 ], [ 49.3880046, -12.2670272 ], [ 49.3879979, -12.2670105 ], [ 49.3879899, -12.2669966 ], [ 49.3879862, -12.2669812 ], [ 49.3879769, -12.2669702 ], [ 49.3879719, -12.2669576 ], [ 49.3879681, -12.2669421 ], [ 49.3879644, -12.2669266 ], [ 49.3879578, -12.2669096 ], [ 49.3879545, -12.2669011 ], [ 49.3879493, -12.2668811 ], [ 49.3879486, -12.2668667 ], [ 49.3879391, -12.2668482 ], [ 49.387933799999985, -12.2668281 ], [ 49.3879332, -12.2668136 ], [ 49.3879296, -12.2667977 ], [ 49.3879289, -12.266783 ], [ 49.387928300000013, -12.2667684 ], [ 49.387930599999983, -12.2667551 ], [ 49.3879243, -12.2667451 ], [ 49.3879163, -12.2667307 ], [ 49.3879083, -12.2667164 ], [ 49.3879063, -12.2667046 ], [ 49.3879026, -12.2666885 ], [ 49.3878976, -12.2666754 ], [ 49.387894, -12.2666592 ], [ 49.3878903, -12.266643 ], [ 49.3878883, -12.2666311 ], [ 49.3878833, -12.2666178 ], [ 49.3878796, -12.2666015 ], [ 49.3878745, -12.2665882 ], [ 49.3878712, -12.2665793 ], [ 49.3878644, -12.2665616 ], [ 49.387855, -12.2665499 ], [ 49.3878455, -12.2665382 ], [ 49.387833, -12.2665251 ], [ 49.3878235, -12.2665133 ], [ 49.387814, -12.2665016 ], [ 49.3878045, -12.2664898 ], [ 49.3877905, -12.2664797 ], [ 49.3877796, -12.266471 ], [ 49.387768699999988, -12.2664622 ], [ 49.3877516, -12.2664507 ], [ 49.3877362, -12.2664436 ], [ 49.3877222, -12.2664334 ], [ 49.3877068, -12.2664263 ], [ 49.3877015, -12.2664127 ], [ 49.3876962, -12.2663991 ], [ 49.3876909, -12.2663854 ], [ 49.3876812, -12.2663734 ], [ 49.387679, -12.2663611 ], [ 49.3876795, -12.2663425 ], [ 49.387675499999986, -12.2663255 ], [ 49.3876795, -12.266316 ], [ 49.3876831, -12.2662988 ], [ 49.3876885, -12.2662861 ], [ 49.3876966, -12.266267 ], [ 49.387702, -12.2662543 ], [ 49.38771, -12.2662352 ], [ 49.3877182, -12.2662158 ], [ 49.3877268, -12.2662043 ], [ 49.3877336, -12.2661881 ], [ 49.3877391, -12.2661751 ], [ 49.3877445, -12.2661621 ], [ 49.3877504, -12.2661571 ], [ 49.3877618, -12.266139 ], [ 49.3877704, -12.2661274 ], [ 49.387779, -12.2661159 ], [ 49.3878877, -12.2660458 ], [ 49.3879027, -12.2660372 ], [ 49.3880256, -12.2660137 ], [ 49.3881021, -12.2659672 ], [ 49.3881355, -12.2658906 ], [ 49.3882125, -12.2658271 ], [ 49.3882789, -12.2658206 ], [ 49.388447899999989, -12.2657454 ], [ 49.3885405, -12.26568 ], [ 49.3885693, -12.2656674 ], [ 49.3885846, -12.2656632 ], [ 49.388597, -12.2656578 ], [ 49.388607699999987, -12.2656481 ], [ 49.3886201, -12.2656426 ], [ 49.388629599999987, -12.2656359 ], [ 49.388639100000013, -12.2656292 ], [ 49.388654, -12.2656176 ], [ 49.3886618, -12.2656066 ], [ 49.3886665, -12.2655943 ], [ 49.3886743, -12.2655832 ], [ 49.3886851, -12.2655733 ], [ 49.3886929, -12.2655622 ], [ 49.3887007, -12.2655511 ], [ 49.3887087, -12.26554 ], [ 49.38871730000001, -12.2655186 ], [ 49.3887222, -12.2655063 ], [ 49.3887271, -12.265494 ], [ 49.3887321, -12.2654817 ], [ 49.388738300000014, -12.2654662 ], [ 49.3887432, -12.2654539 ], [ 49.3887489, -12.265431 ], [ 49.3887435, -12.265418 ], [ 49.388741100000011, -12.2654063 ], [ 49.3887418, -12.2653958 ], [ 49.3887376, -12.2653797 ], [ 49.3887291, -12.2653655 ], [ 49.3887237, -12.2653525 ], [ 49.3887195, -12.2653364 ], [ 49.388709800000015, -12.2653253 ], [ 49.3887, -12.2653143 ], [ 49.3886903, -12.2653032 ], [ 49.3886836, -12.2652933 ], [ 49.3886726, -12.2652854 ], [ 49.3886672, -12.2652724 ], [ 49.3886556, -12.2652569 ], [ 49.3886434, -12.2652521 ], [ 49.3886337, -12.265241 ], [ 49.388627, -12.265231 ], [ 49.3886184, -12.2652167 ], [ 49.3886086, -12.2652055 ], [ 49.3886031, -12.2651924 ], [ 49.3885964, -12.2651825 ], [ 49.3885921, -12.2651661 ], [ 49.388590900000011, -12.265151 ], [ 49.3885927, -12.265137 ], [ 49.3885914, -12.2651219 ], [ 49.3885902, -12.2651067 ], [ 49.388595, -12.2650938 ], [ 49.3885938, -12.2650786 ], [ 49.3885883, -12.2650653 ], [ 49.3885839, -12.2650489 ], [ 49.3885772, -12.2650388 ], [ 49.3885716, -12.2650255 ], [ 49.388566, -12.2650122 ], [ 49.3885648, -12.2649969 ], [ 49.3885604, -12.2649803 ], [ 49.3885634, -12.2649629 ], [ 49.3885603, -12.264943 ], [ 49.388559, -12.2649276 ], [ 49.3885534, -12.2649142 ], [ 49.388554, -12.2649032 ], [ 49.3885515, -12.264891 ], [ 49.3885203, -12.2648923 ], [ 49.38849, -12.264873 ], [ 49.3884809, -12.2648625 ], [ 49.388476, -12.2648505 ], [ 49.388469599999986, -12.2648412 ], [ 49.3884603, -12.2648306 ], [ 49.388449600000015, -12.2648228 ], [ 49.3884389, -12.264815 ], [ 49.3884281, -12.2648072 ], [ 49.3884174, -12.2647993 ], [ 49.3884063, -12.2647913 ], [ 49.3883965, -12.2647805 ], [ 49.3883881, -12.264767 ], [ 49.3883814, -12.2647575 ], [ 49.388371600000013, -12.2647468 ], [ 49.3883592, -12.2647415 ], [ 49.3883442, -12.2647353 ], [ 49.3883297, -12.2647292 ], [ 49.3883206, -12.2647188 ], [ 49.3883144, -12.2647096 ], [ 49.3883065, -12.2646963 ], [ 49.3882949, -12.2646915 ], [ 49.388280399999985, -12.2646855 ], [ 49.3882671, -12.2646766 ], [ 49.3882555, -12.2646718 ], [ 49.3882464, -12.2646614 ], [ 49.388236, -12.2646537 ], [ 49.3882215, -12.2646477 ], [ 49.388207, -12.2646417 ], [ 49.3881966, -12.264634 ], [ 49.3881862, -12.2646264 ], [ 49.3881758, -12.2646187 ], [ 49.3881625, -12.2646099 ], [ 49.3881509, -12.264605 ], [ 49.3881364, -12.264599 ], [ 49.388126, -12.2645913 ], [ 49.3881168, -12.2645809 ], [ 49.3881106, -12.2645716 ], [ 49.388101400000011, -12.2645611 ], [ 49.388091, -12.2645535 ], [ 49.3880819, -12.264543 ], [ 49.3880702, -12.2645381 ], [ 49.3880586, -12.2645333 ], [ 49.3880523, -12.264524 ], [ 49.3880402, -12.2645123 ], [ 49.3880298, -12.2645047 ], [ 49.3880235, -12.2644954 ], [ 49.3880142, -12.2644849 ], [ 49.3880067, -12.2644784 ], [ 49.3879903, -12.2644682 ], [ 49.3879786, -12.2644634 ], [ 49.3879693, -12.2644528 ], [ 49.38796, -12.2644423 ], [ 49.3879496, -12.2644346 ], [ 49.3879415, -12.2644213 ], [ 49.387931, -12.2644136 ], [ 49.3879201, -12.2643991 ], [ 49.3879108, -12.2643885 ], [ 49.3878974, -12.2643796 ], [ 49.3878881, -12.2643691 ], [ 49.3878776, -12.2643614 ], [ 49.3878672, -12.2643538 ], [ 49.3878508, -12.2643436 ], [ 49.3878428, -12.2643303 ], [ 49.3878335, -12.2643198 ], [ 49.3878231, -12.2643121 ], [ 49.3878126, -12.2643044 ], [ 49.3878033, -12.2642939 ], [ 49.3877929, -12.2642863 ], [ 49.3877848, -12.2642729 ], [ 49.3877839, -12.2642592 ], [ 49.3877729, -12.2642447 ], [ 49.3877654, -12.2642383 ], [ 49.3877586, -12.2642221 ], [ 49.3877506, -12.2642088 ], [ 49.3877443, -12.2641995 ], [ 49.3877416, -12.2641818 ], [ 49.3877366, -12.2641697 ], [ 49.3877317, -12.2641574 ], [ 49.3877281, -12.2641423 ], [ 49.3877274, -12.2641284 ], [ 49.3877266, -12.2641145 ], [ 49.3877229, -12.2640994 ], [ 49.3877267, -12.2640907 ], [ 49.3877256, -12.2640698 ], [ 49.3877248, -12.2640558 ], [ 49.3877241, -12.2640418 ], [ 49.3877233, -12.2640278 ], [ 49.3877183, -12.2640154 ], [ 49.3877175, -12.2640013 ], [ 49.3877197, -12.2639885 ], [ 49.3877287, -12.2639681 ], [ 49.3877351, -12.2639535 ], [ 49.3877415, -12.2639389 ], [ 49.3877493, -12.2639213 ], [ 49.3877574, -12.2639109 ], [ 49.3877724, -12.2638928 ], [ 49.3877789, -12.2638781 ], [ 49.3877854, -12.2638634 ], [ 49.3877919, -12.2638486 ], [ 49.3877928, -12.2638385 ], [ 49.3877964, -12.2638224 ], [ 49.3878016, -12.2638105 ], [ 49.3878108, -12.2637897 ], [ 49.3878173, -12.2637748 ], [ 49.3878309, -12.2637522 ], [ 49.387841800000011, -12.2637355 ], [ 49.3878444, -12.2637295 ], [ 49.3878514, -12.2637218 ], [ 49.3878666, -12.2637033 ], [ 49.387877599999989, -12.2636865 ], [ 49.3878933, -12.2636752 ], [ 49.387906, -12.2636627 ], [ 49.3879174, -12.2636531 ], [ 49.3879274, -12.2636466 ], [ 49.3879371, -12.2636327 ], [ 49.387949899999988, -12.2636201 ], [ 49.3879613, -12.2636104 ], [ 49.3879684, -12.2636026 ], [ 49.3879842, -12.2635912 ], [ 49.3879913, -12.2635833 ], [ 49.3879982, -12.263568 ], [ 49.3880097, -12.2635584 ], [ 49.3880212, -12.2635487 ], [ 49.3880327, -12.263539 ], [ 49.3880459, -12.2635336 ], [ 49.3880575, -12.2635239 ], [ 49.3880677, -12.2635173 ], [ 49.3880823, -12.2635088 ], [ 49.3880939, -12.2634991 ], [ 49.3881086, -12.2634906 ], [ 49.3881312, -12.2634751 ], [ 49.3881379, -12.2634735 ], [ 49.3881426, -12.2634696 ], [ 49.3881473, -12.2634656 ], [ 49.3881538, -12.263461 ], [ 49.388158, -12.2634583 ], [ 49.388162699999988, -12.2634543 ], [ 49.3881711, -12.2634489 ], [ 49.3881753, -12.2634462 ], [ 49.3881808, -12.263444 ], [ 49.3881856, -12.2634401 ], [ 49.388191600000013, -12.2634366 ], [ 49.3881977, -12.2634332 ], [ 49.3882019, -12.2634304 ], [ 49.3882067, -12.2634264 ], [ 49.3882139, -12.2634204 ], [ 49.3882193, -12.2634151 ], [ 49.3882215, -12.26341 ], [ 49.388226900000014, -12.2634046 ], [ 49.3882305, -12.2634 ], [ 49.3882348, -12.2633972 ], [ 49.3882396, -12.2633932 ], [ 49.3882463, -12.2633884 ], [ 49.3882486, -12.2633832 ], [ 49.3882541, -12.2633778 ], [ 49.3882583, -12.2633718 ], [ 49.3882632, -12.2633677 ], [ 49.3882675, -12.2633649 ], [ 49.388270399999989, -12.2633583 ], [ 49.3882721, -12.2633544 ], [ 49.3882763, -12.2633484 ], [ 49.3882787, -12.2633431 ], [ 49.3882839, -12.2633312 ], [ 49.3882869, -12.2633246 ], [ 49.3882891, -12.263316 ], [ 49.3882909, -12.263312 ], [ 49.3882956, -12.2633013 ], [ 49.3882986, -12.2632946 ], [ 49.388300900000011, -12.2632892 ], [ 49.3883039, -12.2632824 ], [ 49.3883069, -12.2632757 ], [ 49.3883061, -12.2632705 ], [ 49.3883064, -12.2632625 ], [ 49.3883094, -12.2632557 ], [ 49.3883112, -12.2632516 ], [ 49.3883136, -12.2632461 ], [ 49.3883192, -12.2632371 ], [ 49.3883216, -12.2632316 ], [ 49.3883259, -12.2632219 ], [ 49.3883289, -12.263215 ], [ 49.3883326, -12.2632067 ], [ 49.3883357, -12.2631997 ], [ 49.3883394, -12.2631913 ], [ 49.3883411, -12.2631837 ], [ 49.3883448, -12.2631753 ], [ 49.3883461, -12.2631725 ], [ 49.3883478, -12.2631648 ], [ 49.3883496, -12.2631572 ], [ 49.3883521, -12.2631515 ], [ 49.3883546, -12.2631458 ], [ 49.3883578, -12.2631386 ], [ 49.3883621, -12.263125 ], [ 49.3883627, -12.2631201 ], [ 49.3883665, -12.2631114 ], [ 49.3883703, -12.2631027 ], [ 49.3883721, -12.2630913 ], [ 49.3883733, -12.2630848 ], [ 49.3883759, -12.2630789 ], [ 49.3883778, -12.2630745 ], [ 49.3883817, -12.2630656 ], [ 49.3883856, -12.2630567 ], [ 49.3883881, -12.2630472 ], [ 49.3883907, -12.2630413 ], [ 49.3883947, -12.2630323 ], [ 49.3883952, -12.2630236 ], [ 49.388395, -12.2630164 ], [ 49.388397, -12.2630118 ], [ 49.3883982, -12.2630016 ], [ 49.3883994, -12.2629949 ], [ 49.3883999, -12.2629861 ], [ 49.3883998, -12.2629788 ], [ 49.3884017, -12.2629705 ], [ 49.388403, -12.2629638 ], [ 49.3884042, -12.262957 ], [ 49.3884041, -12.2629496 ], [ 49.3884039, -12.2629423 ], [ 49.3884052, -12.2629354 ], [ 49.3884058, -12.2629302 ], [ 49.3884077, -12.262918 ], [ 49.388409, -12.2629112 ], [ 49.3884103, -12.262908 ], [ 49.3884122, -12.2628958 ], [ 49.3884134, -12.2628851 ], [ 49.3884119, -12.2628769 ], [ 49.3884117, -12.2628693 ], [ 49.3884131, -12.2628661 ], [ 49.3884121, -12.2628486 ], [ 49.3884142, -12.2628437 ], [ 49.3884169, -12.2628375 ], [ 49.3884164, -12.2628315 ], [ 49.3884168, -12.2628272 ], [ 49.3884195, -12.262821 ], [ 49.3884222, -12.2628147 ], [ 49.3884243, -12.2628097 ], [ 49.3884276, -12.2628022 ], [ 49.3884298, -12.2627972 ], [ 49.3884325, -12.2627908 ], [ 49.3884353, -12.2627845 ], [ 49.3884381, -12.2627782 ], [ 49.3884397, -12.2627744 ], [ 49.3884393, -12.2627682 ], [ 49.3884375, -12.2627614 ], [ 49.3884365, -12.2627565 ], [ 49.3884361, -12.2627503 ], [ 49.3884351, -12.2627453 ], [ 49.3884333, -12.2627386 ], [ 49.388431, -12.2627331 ], [ 49.3884319, -12.2627274 ], [ 49.388430100000015, -12.2627206 ], [ 49.3884297, -12.2627143 ], [ 49.3884292, -12.262708 ], [ 49.3884314, -12.2627028 ], [ 49.3884329, -12.2626957 ], [ 49.3884292, -12.2626896 ], [ 49.3884249, -12.2626847 ], [ 49.3884226, -12.2626791 ], [ 49.3884208, -12.2626721 ], [ 49.3884184, -12.2626665 ], [ 49.3884135, -12.2626628 ], [ 49.3884081, -12.2626606 ], [ 49.3884033, -12.262657 ], [ 49.388398399999986, -12.2626533 ], [ 49.388393, -12.262651 ], [ 49.3883895, -12.262648 ], [ 49.3883838, -12.2626425 ], [ 49.3883789, -12.2626388 ], [ 49.388374, -12.2626352 ], [ 49.3883686, -12.2626329 ], [ 49.3883661, -12.2626271 ], [ 49.3883631, -12.2626227 ], [ 49.3883607, -12.262617 ], [ 49.3883588, -12.2626098 ], [ 49.3883563, -12.262604 ], [ 49.3883533, -12.2625996 ], [ 49.3883447, -12.2625887 ], [ 49.3883419, -12.2625854 ], [ 49.3883394, -12.2625812 ], [ 49.3883371, -12.2625792 ], [ 49.3883338, -12.2625746 ], [ 49.3883301, -12.2625677 ], [ 49.3883267, -12.2625662 ], [ 49.3883235, -12.2625637 ], [ 49.3883213, -12.2625617 ], [ 49.3883178, -12.262557 ], [ 49.3883147, -12.2625545 ], [ 49.3883118, -12.2625511 ], [ 49.3883083, -12.2625495 ], [ 49.388303199999989, -12.2625472 ], [ 49.3882994, -12.2625466 ], [ 49.3882951, -12.2625447 ], [ 49.3882908, -12.2625427 ], [ 49.3882878, -12.2625393 ], [ 49.3882858, -12.2625362 ], [ 49.388283400000013, -12.2625309 ], [ 49.3882816, -12.2625269 ], [ 49.3882786, -12.2625234 ], [ 49.3882754, -12.2625209 ], [ 49.3882727, -12.2625164 ], [ 49.3882712, -12.2625147 ], [ 49.3882682, -12.2625079 ], [ 49.3882646, -12.2625063 ], [ 49.38826250000001, -12.2625031 ], [ 49.3882598, -12.2624986 ], [ 49.3882591, -12.2624972 ], [ 49.388256, -12.2624903 ], [ 49.388253, -12.2624867 ], [ 49.3882502, -12.2624821 ], [ 49.3882481, -12.2624789 ], [ 49.3882444, -12.2624739 ], [ 49.3882418, -12.2624683 ], [ 49.3882394, -12.262466 ], [ 49.3882345, -12.2624616 ], [ 49.388232900000013, -12.2624597 ], [ 49.38823150000001, -12.2624534 ], [ 49.3882286, -12.2624487 ], [ 49.3882248, -12.2624435 ], [ 49.3882233, -12.2624371 ], [ 49.3882224, -12.2624367 ], [ 49.3882191, -12.2624294 ], [ 49.3882162, -12.2624246 ], [ 49.3882133, -12.2624198 ], [ 49.3882098, -12.262417 ], [ 49.3882066, -12.2624132 ], [ 49.3882029, -12.2624115 ], [ 49.3881983, -12.2624094 ], [ 49.388194800000015, -12.2624066 ], [ 49.3881916, -12.2624028 ], [ 49.3881879, -12.2624011 ], [ 49.3881846, -12.2623972 ], [ 49.3881825, -12.2623927 ], [ 49.3881792, -12.2623888 ], [ 49.3881757, -12.262386 ], [ 49.3881736, -12.2623815 ], [ 49.3881715, -12.2623769 ], [ 49.388169100000013, -12.2623734 ], [ 49.3881674, -12.2623666 ], [ 49.3881665, -12.2623613 ], [ 49.3881631, -12.2623573 ], [ 49.3881626, -12.2623547 ], [ 49.3881583, -12.2623453 ], [ 49.3881563, -12.2623395 ], [ 49.3881551, -12.2623352 ], [ 49.3881531, -12.2623293 ], [ 49.3881511, -12.2623233 ], [ 49.388151, -12.2623183 ], [ 49.38815, -12.2623128 ], [ 49.3881509, -12.2623082 ], [ 49.3881497, -12.2623038 ], [ 49.388151099999988, -12.2622969 ], [ 49.388151, -12.2622917 ], [ 49.388152, -12.262287 ], [ 49.3881522, -12.2622807 ], [ 49.3881534, -12.2622747 ], [ 49.3881545, -12.2622688 ], [ 49.3881557, -12.2622628 ], [ 49.3881577, -12.2622584 ], [ 49.3881596, -12.262254 ], [ 49.3881623, -12.2622513 ], [ 49.3881656, -12.2622461 ], [ 49.3881688, -12.2622409 ], [ 49.3881708, -12.2622364 ], [ 49.3881728, -12.2622319 ], [ 49.3881761, -12.2622266 ], [ 49.3881791, -12.2622226 ], [ 49.3881831, -12.262219 ], [ 49.3881879, -12.2622171 ], [ 49.388191, -12.262213 ], [ 49.3881951, -12.2622093 ], [ 49.38819920000001, -12.2622057 ], [ 49.3882041, -12.2622038 ], [ 49.3882087, -12.2622031 ], [ 49.3882118, -12.262199 ], [ 49.3882147, -12.2621961 ], [ 49.388217100000013, -12.2621901 ], [ 49.388220600000011, -12.2621846 ], [ 49.3882235, -12.2621816 ], [ 49.3882267, -12.2621774 ], [ 49.3882299, -12.2621731 ], [ 49.3882329, -12.2621702 ], [ 49.388238199999989, -12.2621668 ], [ 49.3882448, -12.2621627 ], [ 49.3882494, -12.2621575 ], [ 49.3882535, -12.2621549 ], [ 49.3882585, -12.2621529 ], [ 49.3882633, -12.2621522 ], [ 49.3882671, -12.262151 ], [ 49.388272799999989, -12.2621462 ], [ 49.3882769, -12.2621437 ], [ 49.3882813, -12.2621398 ], [ 49.3882854, -12.2621372 ], [ 49.388291, -12.2621337 ], [ 49.3882944, -12.2621292 ], [ 49.3883006, -12.2621276 ], [ 49.388302700000011, -12.262124 ], [ 49.3883076, -12.2621186 ], [ 49.3883359, -12.2621049 ], [ 49.3883393, -12.262104 ], [ 49.3883439, -12.2621023 ], [ 49.3883485, -12.2621007 ], [ 49.3883522, -12.2620987 ], [ 49.3883567, -12.2620984 ], [ 49.3883611, -12.262098 ], [ 49.3883656, -12.2620977 ], [ 49.3883693, -12.2620958 ], [ 49.3883725, -12.2620961 ], [ 49.3883769, -12.2620919 ], [ 49.388380899999987, -12.2620889 ], [ 49.3883857, -12.2620874 ], [ 49.3883885, -12.2620849 ], [ 49.388392, -12.2620841 ], [ 49.3883961, -12.262081 ], [ 49.3884002, -12.2620779 ], [ 49.388404, -12.2620759 ], [ 49.3884079, -12.2620739 ], [ 49.3884111, -12.2620742 ], [ 49.3884156, -12.2620738 ], [ 49.3884204, -12.2620722 ], [ 49.3884253, -12.2620707 ], [ 49.3884308, -12.2620707 ], [ 49.3884353, -12.2620703 ], [ 49.3884396, -12.262071 ], [ 49.3884438, -12.2620718 ], [ 49.3884483, -12.2620714 ], [ 49.3884526, -12.2620721 ], [ 49.3884584, -12.262071 ], [ 49.3884614, -12.2620724 ], [ 49.3884666, -12.2620736 ], [ 49.3884711, -12.2620732 ], [ 49.3884751, -12.2620712 ], [ 49.38848, -12.2620696 ], [ 49.3884842, -12.2620704 ], [ 49.3884888, -12.2620699 ], [ 49.388493, -12.2620707 ], [ 49.388498, -12.2620691 ], [ 49.3885039, -12.262068 ], [ 49.3885082, -12.2620688 ], [ 49.3885128, -12.2620683 ], [ 49.388517, -12.2620691 ], [ 49.3885216, -12.2620687 ], [ 49.3885272, -12.2620687 ], [ 49.3885319, -12.2620683 ], [ 49.3885365, -12.2620679 ], [ 49.388540800000015, -12.2620686 ], [ 49.3885456, -12.262071 ], [ 49.3885505, -12.2620733 ], [ 49.388555399999987, -12.2620756 ], [ 49.3885596, -12.2620764 ], [ 49.3885635, -12.2620782 ], [ 49.3885683, -12.2620805 ], [ 49.3885722, -12.2620824 ], [ 49.3885761, -12.2620843 ], [ 49.3885805, -12.2620877 ], [ 49.3885844, -12.2620896 ], [ 49.3885882, -12.2620914 ], [ 49.3885917, -12.2620944 ], [ 49.3886, -12.2620997 ], [ 49.3886038, -12.2621015 ], [ 49.3886086, -12.2621038 ], [ 49.3886179, -12.2621122 ], [ 49.3886209, -12.2621162 ], [ 49.388623400000014, -12.2621188 ], [ 49.3886269, -12.2621245 ], [ 49.3886299, -12.2621287 ], [ 49.3886315, -12.2621335 ], [ 49.388634499999988, -12.2621376 ], [ 49.3886374, -12.2621416 ], [ 49.3886394, -12.2621453 ], [ 49.388641, -12.26215 ], [ 49.3886547, -12.2621606 ], [ 49.3886562, -12.2621652 ], [ 49.3886582, -12.2621688 ], [ 49.388662, -12.2621732 ], [ 49.3886675, -12.2621759 ], [ 49.3886712, -12.2621777 ], [ 49.3886744, -12.2621806 ], [ 49.3886772, -12.262182 ], [ 49.3886805, -12.2621874 ], [ 49.3886837, -12.2621903 ], [ 49.3886856, -12.2621938 ], [ 49.3886875, -12.2621972 ], [ 49.3886912, -12.2622016 ], [ 49.3886944, -12.2622044 ], [ 49.388695899999981, -12.2622089 ], [ 49.3886986, -12.2622127 ], [ 49.3887005, -12.2622161 ], [ 49.3886992, -12.2622218 ], [ 49.3886993, -12.2622268 ], [ 49.3886994, -12.2622318 ], [ 49.3886986, -12.2622363 ], [ 49.3886969, -12.2622404 ], [ 49.3886957, -12.2622434 ], [ 49.3886953, -12.2622493 ], [ 49.3886954, -12.2622542 ], [ 49.3886955, -12.2622567 ], [ 49.3886943, -12.2622621 ], [ 49.388694, -12.2622679 ], [ 49.388695, -12.2622731 ], [ 49.3886963, -12.2622773 ], [ 49.3886977, -12.2622815 ], [ 49.3886991, -12.2622857 ], [ 49.3887014, -12.2622902 ], [ 49.3887019, -12.262294 ], [ 49.3887032, -12.2622981 ], [ 49.3887042, -12.2623031 ], [ 49.388704200000014, -12.2623078 ], [ 49.3887039, -12.2623133 ], [ 49.388704, -12.2623179 ], [ 49.3887053, -12.262322 ], [ 49.3887058, -12.2623256 ], [ 49.3887063, -12.2623314 ], [ 49.3887064, -12.2623359 ], [ 49.3887077, -12.2623399 ], [ 49.388709, -12.2623439 ], [ 49.3887091, -12.2623483 ], [ 49.3887104, -12.2623522 ], [ 49.3887113, -12.262357 ], [ 49.3887126, -12.2623609 ], [ 49.3887148, -12.2623652 ], [ 49.3887161, -12.262369 ], [ 49.3887178, -12.262372 ], [ 49.3887195, -12.2623771 ], [ 49.3887216, -12.2623813 ], [ 49.3887228, -12.2623851 ], [ 49.3887241, -12.2623888 ], [ 49.388725, -12.2623935 ], [ 49.3887275, -12.2623967 ], [ 49.3887287, -12.2624005 ], [ 49.3887316, -12.262405 ], [ 49.3887336, -12.262409 ], [ 49.3887349, -12.2624127 ], [ 49.3887361, -12.2624164 ], [ 49.3887371, -12.2624228 ], [ 49.3887384, -12.2624264 ], [ 49.3887397, -12.2624299 ], [ 49.388741, -12.2624334 ], [ 49.3887428, -12.2624381 ], [ 49.3887441, -12.2624416 ], [ 49.3887441, -12.2624455 ], [ 49.3887459, -12.2624501 ], [ 49.3887456, -12.2624549 ], [ 49.388746, -12.262458 ], [ 49.3887481, -12.2624618 ], [ 49.3887478, -12.2624665 ], [ 49.3887491, -12.2624699 ], [ 49.3887492, -12.2624738 ], [ 49.3887492, -12.2624777 ], [ 49.3887505, -12.2624811 ], [ 49.3887506, -12.2624849 ], [ 49.3887503, -12.2624895 ], [ 49.3887504, -12.2624952 ], [ 49.3887504, -12.262499 ], [ 49.3887505, -12.2625028 ], [ 49.3887505, -12.2625066 ], [ 49.3887498, -12.26251 ], [ 49.3887503, -12.262513 ], [ 49.3887499, -12.2625175 ], [ 49.3887492, -12.2625209 ], [ 49.3887484, -12.2625243 ], [ 49.3887477, -12.2625277 ], [ 49.3887625, -12.2625556 ], [ 49.388816, -12.2625794 ], [ 49.3888432, -12.2625697 ], [ 49.3888763, -12.2625526 ], [ 49.3889734, -12.2623392 ], [ 49.3889723, -12.2623213 ], [ 49.3889807, -12.2622903 ], [ 49.3890064, -12.262234 ], [ 49.3890551, -12.2621962 ], [ 49.3890854, -12.2621521 ], [ 49.3891177, -12.2621332 ], [ 49.3891208, -12.2621259 ], [ 49.3891469, -12.2621096 ], [ 49.3891693, -12.2620866 ], [ 49.3892282, -12.2619581 ], [ 49.3892572, -12.2619398 ], [ 49.3892999, -12.2619206 ], [ 49.3893317, -12.2619146 ], [ 49.3893526, -12.2619139 ], [ 49.3894033, -12.2619346 ], [ 49.3894404, -12.2619401 ], [ 49.389463, -12.2619343 ], [ 49.3895141, -12.2618915 ], [ 49.3895743, -12.2618563 ], [ 49.3895875, -12.26183 ], [ 49.3897071, -12.2617509 ], [ 49.3897175, -12.2617449 ], [ 49.3897612, -12.2616932 ], [ 49.3897853, -12.2616411 ], [ 49.3897978, -12.2616063 ], [ 49.3897948, -12.2615785 ], [ 49.3898003, -12.2615559 ], [ 49.3897986, -12.2614695 ], [ 49.389796499999989, -12.2614111 ], [ 49.3898297, -12.2613367 ], [ 49.389854, -12.2613189 ], [ 49.3898869, -12.2612451 ], [ 49.3898906, -12.2612274 ], [ 49.3898666, -12.2611503 ], [ 49.3898478, -12.2611395 ], [ 49.3897906, -12.2610718 ], [ 49.3897695, -12.2610524 ], [ 49.3897381, -12.2610417 ], [ 49.3897119, -12.2610147 ], [ 49.3896626, -12.2609787 ], [ 49.3896396, -12.2609491 ], [ 49.3896198, -12.2609284 ], [ 49.3895875, -12.2609161 ], [ 49.3895674, -12.2608974 ], [ 49.3895557, -12.2608729 ], [ 49.389532200000012, -12.2608411 ], [ 49.3895197, -12.2608128 ], [ 49.389516, -12.2607805 ], [ 49.3895305, -12.2607654 ], [ 49.3895616, -12.2607433 ], [ 49.3895831, -12.2607113 ], [ 49.3896129, -12.260695 ], [ 49.3896319, -12.2606917 ], [ 49.3896565, -12.2606838 ], [ 49.389738199999989, -12.2606642 ], [ 49.3898838, -12.2606111 ], [ 49.389904500000014, -12.2605932 ], [ 49.389944, -12.2605558 ], [ 49.3899644, -12.2605354 ], [ 49.3899811, -12.260517 ], [ 49.3900253, -12.2604787 ], [ 49.3900396, -12.26046 ], [ 49.3900604, -12.2604468 ], [ 49.3900836, -12.2604237 ], [ 49.390102, -12.2603942 ], [ 49.3901307, -12.2603752 ], [ 49.3902642, -12.2600906 ], [ 49.3902795, -12.2600274 ], [ 49.3902839, -12.2600165 ], [ 49.3902868, -12.2600093 ], [ 49.3902898, -12.260002 ], [ 49.3902935, -12.2599929 ], [ 49.3902957, -12.2599875 ], [ 49.390299399999989, -12.2599783 ], [ 49.390305, -12.2599699 ], [ 49.3903057, -12.2599681 ], [ 49.3903129, -12.2599559 ], [ 49.3903144, -12.2599522 ], [ 49.3903208, -12.2599419 ], [ 49.3903246, -12.2599325 ], [ 49.3903261, -12.2599288 ], [ 49.3903322, -12.2599137 ], [ 49.3903368, -12.2599024 ], [ 49.3903391, -12.2598967 ], [ 49.390341899999989, -12.2598844 ], [ 49.3903431, -12.259876 ], [ 49.3903405, -12.2598658 ], [ 49.3903417, -12.2598572 ], [ 49.3903418, -12.2598459 ], [ 49.3903445, -12.2598334 ], [ 49.390346599999987, -12.2598228 ], [ 49.3903497, -12.2598149 ], [ 49.3903529, -12.2598071 ], [ 49.3903568, -12.2597972 ], [ 49.3903561, -12.2597876 ], [ 49.3903574, -12.2597788 ], [ 49.3903567, -12.2597691 ], [ 49.390358, -12.2597602 ], [ 49.3903604, -12.2597542 ], [ 49.3903616, -12.2597453 ], [ 49.3903626, -12.2597314 ], [ 49.3903619, -12.2597215 ], [ 49.3903651, -12.2597134 ], [ 49.3903688, -12.2596981 ], [ 49.3903721, -12.2596899 ], [ 49.3903723, -12.2596778 ], [ 49.3903708, -12.2596698 ], [ 49.3903681, -12.2596588 ], [ 49.3903646, -12.2596499 ], [ 49.390361100000014, -12.259641 ], [ 49.3903604, -12.2596308 ], [ 49.3903597, -12.2596205 ], [ 49.390357, -12.2596094 ], [ 49.390349799999989, -12.2596037 ], [ 49.3903443, -12.2595937 ], [ 49.3903399, -12.2595867 ], [ 49.3903351, -12.2595745 ], [ 49.3903315, -12.2595653 ], [ 49.3903279, -12.2595561 ], [ 49.3903223, -12.259546 ], [ 49.3903187, -12.2595367 ], [ 49.390313, -12.2595265 ], [ 49.3903114, -12.2595181 ], [ 49.3903085, -12.2595066 ], [ 49.3903049, -12.2594972 ], [ 49.3902983, -12.2594891 ], [ 49.3902918, -12.2594809 ], [ 49.3902844, -12.259475 ], [ 49.3902778, -12.2594669 ], [ 49.3902741, -12.2594574 ], [ 49.3902711, -12.2594456 ], [ 49.3902682, -12.2594338 ], [ 49.3902623, -12.2594232 ], [ 49.3902614, -12.2594123 ], [ 49.3902576, -12.2594026 ], [ 49.3902501, -12.2593965 ], [ 49.3902397, -12.2593918 ], [ 49.390233, -12.2593834 ], [ 49.3902263, -12.259375 ], [ 49.3902224, -12.2593651 ], [ 49.3902193, -12.2593526 ], [ 49.3902174, -12.2593434 ], [ 49.3902114, -12.2593321 ], [ 49.3902095, -12.2593229 ], [ 49.3902027, -12.259314 ], [ 49.3901958, -12.2593051 ], [ 49.3901889, -12.2592962 ], [ 49.390182, -12.2592872 ], [ 49.3901771, -12.2592792 ], [ 49.3901739, -12.2592663 ], [ 49.3901676, -12.2592547 ], [ 49.3901585, -12.2592446 ], [ 49.3901522, -12.259233 ], [ 49.3901307, -12.2592228 ], [ 49.3901042, -12.2591956 ], [ 49.3900992, -12.2591874 ], [ 49.3900906, -12.2591745 ], [ 49.3900885, -12.2591647 ], [ 49.3900849, -12.2591512 ], [ 49.3900843, -12.259136 ], [ 49.390080700000013, -12.2591224 ], [ 49.3900815, -12.2591108 ], [ 49.3900823, -12.2590991 ], [ 49.3900831, -12.2590874 ], [ 49.3900824, -12.2590719 ], [ 49.3900832, -12.2590601 ], [ 49.3900788, -12.2590487 ], [ 49.3900774, -12.2590357 ], [ 49.390076, -12.2590226 ], [ 49.3900798, -12.2590091 ], [ 49.3900837, -12.2589957 ], [ 49.3900955, -12.258955 ], [ 49.390100299999986, -12.2589385 ], [ 49.3901051, -12.258922 ], [ 49.3901105, -12.2589119 ], [ 49.3901113, -12.2589091 ], [ 49.3901186, -12.258884 ], [ 49.390125, -12.258871 ], [ 49.3901298, -12.2588635 ], [ 49.3901362, -12.2588504 ], [ 49.3901395, -12.258839 ], [ 49.3901491, -12.2588238 ], [ 49.3901525, -12.2588124 ], [ 49.3901576, -12.258795 ], [ 49.3901656, -12.2587855 ], [ 49.390169, -12.2587738 ], [ 49.3901733, -12.2587592 ], [ 49.39018, -12.2587455 ], [ 49.3901882, -12.2587357 ], [ 49.3901949, -12.2587219 ], [ 49.3902002, -12.258704 ], [ 49.3902046, -12.258689 ], [ 49.3902091, -12.258674 ], [ 49.3902127, -12.258662 ], [ 49.3902163, -12.25865 ], [ 49.3902199, -12.2586379 ], [ 49.3902211, -12.2586247 ], [ 49.3902239, -12.2586156 ], [ 49.390227, -12.2585962 ], [ 49.3902273, -12.2585859 ], [ 49.3902319, -12.2585704 ], [ 49.3902341, -12.2585539 ], [ 49.3902364, -12.2585372 ], [ 49.3902386, -12.2585205 ], [ 49.3902418, -12.2585004 ], [ 49.3902397, -12.2584888 ], [ 49.3902384, -12.2584208 ], [ 49.3902361, -12.2584108 ], [ 49.390232, -12.2584045 ], [ 49.3902297, -12.2583945 ], [ 49.3902312, -12.258386 ], [ 49.3902348, -12.2583784 ], [ 49.3902363, -12.2583699 ], [ 49.390236, -12.2583606 ], [ 49.3902356, -12.2583512 ], [ 49.3902352, -12.2583418 ], [ 49.3902337, -12.2583295 ], [ 49.390232499999982, -12.258322 ], [ 49.390234, -12.2583133 ], [ 49.3902337, -12.2583038 ], [ 49.3902333, -12.2582942 ], [ 49.390232, -12.2582866 ], [ 49.3901812, -12.2578971 ], [ 49.3902688, -12.2576843 ], [ 49.3902683, -12.2576729 ], [ 49.3902691, -12.2576648 ], [ 49.390274, -12.2576527 ], [ 49.3904345, -12.2573735 ], [ 49.3903794, -12.2567477 ], [ 49.3903949, -12.2567198 ], [ 49.3904011, -12.2567117 ], [ 49.3904063, -12.2567005 ], [ 49.3904105, -12.2566916 ], [ 49.390412499999989, -12.2566817 ], [ 49.3904124, -12.2566709 ], [ 49.3904145, -12.2566609 ], [ 49.3904166, -12.2566509 ], [ 49.390421900000014, -12.2566394 ], [ 49.3904273, -12.2566278 ], [ 49.3904327, -12.2566161 ], [ 49.3904371, -12.2566066 ], [ 49.390437100000014, -12.2565955 ], [ 49.3904338, -12.2565858 ], [ 49.3904338, -12.2565746 ], [ 49.3904382, -12.2565651 ], [ 49.390444800000012, -12.2565507 ], [ 49.3904437, -12.2565418 ], [ 49.390447, -12.2565288 ], [ 49.3904515, -12.2565191 ], [ 49.3904754, -12.2564205 ], [ 49.3905232, -12.2563331 ], [ 49.3905304, -12.2563174 ], [ 49.3905364, -12.2563042 ], [ 49.3905389, -12.2562927 ], [ 49.3905437, -12.2562821 ], [ 49.39054740000001, -12.2562741 ], [ 49.3905587, -12.2562311 ], [ 49.3905847, -12.2561799 ], [ 49.3906092, -12.2560232 ], [ 49.390623, -12.2557625 ], [ 49.3906369, -12.2555012 ], [ 49.3906508, -12.2552392 ], [ 49.3905441, -12.2549509 ], [ 49.3904372, -12.2546619 ], [ 49.3901722, -12.2544723 ], [ 49.3898798, -12.2543549 ], [ 49.3897718, -12.2542726 ], [ 49.3895368, -12.2541717 ], [ 49.3893843, -12.2540165 ], [ 49.3893214, -12.2539321 ], [ 49.3892977, -12.2538048 ], [ 49.3892859, -12.2537894 ], [ 49.389278, -12.2537701 ], [ 49.3892701, -12.2537546 ], [ 49.3892661, -12.2537392 ], [ 49.3892543, -12.2537276 ], [ 49.3892385, -12.2537122 ], [ 49.3892267, -12.2537006 ], [ 49.3892267, -12.2536814 ], [ 49.3892227, -12.2536698 ], [ 49.3892148, -12.2536505 ], [ 49.3892148, -12.2536351 ], [ 49.3892148, -12.2536158 ], [ 49.3892148, -12.2535927 ], [ 49.3892148, -12.2535772 ], [ 49.3892109, -12.2535618 ], [ 49.3892109, -12.2535464 ], [ 49.3892109, -12.2535155 ], [ 49.3892069, -12.2534962 ], [ 49.389203, -12.2534847 ], [ 49.389199, -12.2534654 ], [ 49.3891951, -12.25345 ], [ 49.3891951, -12.2534268 ], [ 49.3891951, -12.2534114 ], [ 49.3891951, -12.2533921 ], [ 49.3891951, -12.2533805 ], [ 49.3891951, -12.2533535 ], [ 49.3891951, -12.2533343 ], [ 49.3891872, -12.2533034 ], [ 49.3891872, -12.2532841 ], [ 49.3891833, -12.2532648 ], [ 49.3891754, -12.2532494 ], [ 49.3891714, -12.253234 ], [ 49.3891714, -12.2532186 ], [ 49.3891675, -12.2532108 ], [ 49.3891596, -12.2531877 ], [ 49.3891596, -12.2531723 ], [ 49.3891596, -12.2531568 ], [ 49.3891596, -12.2531414 ], [ 49.3891556, -12.2531299 ], [ 49.3891517, -12.2531067 ], [ 49.3891477, -12.2530951 ], [ 49.3891398, -12.2530797 ], [ 49.3891359, -12.2530643 ], [ 49.3891359, -12.2530489 ], [ 49.389132, -12.2530373 ], [ 49.389128, -12.253018 ], [ 49.3891241, -12.2530026 ], [ 49.3891201, -12.252991 ], [ 49.3891122, -12.2529679 ], [ 49.3891043, -12.2529486 ], [ 49.3891004, -12.252937 ], [ 49.3890925, -12.2529177 ], [ 49.3890925, -12.2529023 ], [ 49.3890885, -12.2528792 ], [ 49.3890885, -12.2528599 ], [ 49.3890885, -12.2528329 ], [ 49.3890885, -12.2528213 ], [ 49.3890885, -12.2527943 ], [ 49.3890846, -12.2527789 ], [ 49.3890807, -12.2527635 ], [ 49.3890728, -12.2527442 ], [ 49.3890728, -12.2527249 ], [ 49.3890609, -12.2527095 ], [ 49.3890491, -12.2526979 ], [ 49.3890333, -12.2526902 ], [ 49.3890215, -12.2526786 ], [ 49.38900959999998, -12.2526478 ], [ 49.3889938, -12.25264 ], [ 49.388989900000013, -12.2526285 ], [ 49.3889859, -12.252613 ], [ 49.3889741, -12.2525899 ], [ 49.3889662, -12.2525745 ], [ 49.3889623, -12.2525668 ], [ 49.3889544, -12.2525436 ], [ 49.3889504, -12.2525282 ], [ 49.3889386, -12.2525166 ], [ 49.3889346, -12.2525089 ], [ 49.3889188, -12.2524896 ], [ 49.388907, -12.2524742 ], [ 49.388907, -12.2524665 ], [ 49.3889031, -12.2524472 ], [ 49.3888991, -12.2524279 ], [ 49.3888912, -12.2524125 ], [ 49.3888912, -12.2523932 ], [ 49.3888912, -12.2523739 ], [ 49.3888833, -12.2523585 ], [ 49.3888833, -12.2523469 ], [ 49.388855, -12.2523026 ], [ 49.388843200000011, -12.2522948 ], [ 49.3888314, -12.2522794 ], [ 49.3888235, -12.2522678 ], [ 49.3888156, -12.2522524 ], [ 49.3888077, -12.252237 ], [ 49.3887998, -12.2522177 ], [ 49.3887919, -12.2522023 ], [ 49.3887879, -12.2521868 ], [ 49.388784, -12.2521637 ], [ 49.38878, -12.2521483 ], [ 49.3887761, -12.2521329 ], [ 49.3887722, -12.2521136 ], [ 49.3887643, -12.2520981 ], [ 49.3887735, -12.2521037 ], [ 49.3887603, -12.2520634 ], [ 49.3887695, -12.2520729 ], [ 49.3887682, -12.2520094 ], [ 49.3888037, -12.2519439 ], [ 49.3888156, -12.2519323 ], [ 49.3888195, -12.2519169 ], [ 49.3888274, -12.2519014 ], [ 49.3888314, -12.251886 ], [ 49.3888314, -12.2518706 ], [ 49.3888314, -12.2518552 ], [ 49.3888432, -12.2518397 ], [ 49.388859, -12.251832 ], [ 49.3888748, -12.2518243 ], [ 49.3888866, -12.2518166 ], [ 49.3888984, -12.2518089 ], [ 49.3889182, -12.251805 ], [ 49.388934, -12.2518012 ], [ 49.3889498, -12.2517935 ], [ 49.3889576, -12.2517857 ], [ 49.3890326, -12.251751 ], [ 49.3891037, -12.2517472 ], [ 49.3891195, -12.2517549 ], [ 49.3891392, -12.2517549 ], [ 49.389155, -12.2517626 ], [ 49.389170799999988, -12.2517665 ], [ 49.3891866, -12.2517703 ], [ 49.3892023, -12.2517742 ], [ 49.3892181, -12.2517819 ], [ 49.38923, -12.2517896 ], [ 49.3892458, -12.2517896 ], [ 49.3892615, -12.2517935 ], [ 49.3892734, -12.2517935 ], [ 49.389293099999989, -12.2517973 ], [ 49.3893089, -12.2517973 ], [ 49.3893286, -12.2517973 ], [ 49.3893484, -12.2517973 ], [ 49.3893681, -12.2517973 ], [ 49.3893839, -12.2518012 ], [ 49.3893997, -12.2518012 ], [ 49.3894194, -12.2518012 ], [ 49.3889039, -12.2509782 ], [ 49.388237400000015, -12.2498095 ], [ 49.3870528, -12.2480335 ], [ 49.386331299999988, -12.2475379 ], [ 49.384637, -12.2477669 ], [ 49.383565, -12.2476958 ], [ 49.3826097, -12.2472874 ], [ 49.3814203, -12.2461326 ], [ 49.3807572, -12.2450924 ], [ 49.3803531, -12.2447233 ], [ 49.3791886, -12.2446651 ], [ 49.378102899999988, -12.244322 ], [ 49.3771484, -12.2437318 ], [ 49.3761158, -12.2427984 ], [ 49.3754274, -12.2420728 ], [ 49.3747179, -12.2409304 ], [ 49.3735192, -12.2406211 ], [ 49.3722618, -12.2399301 ], [ 49.3716859, -12.2393936 ], [ 49.3710873, -12.2388534 ], [ 49.3695591, -12.2374139 ], [ 49.3677957, -12.2354628 ], [ 49.3672535, -12.2368175 ], [ 49.3670701, -12.2372902 ], [ 49.3669194, -12.2376699 ], [ 49.3666717, -12.2384992 ], [ 49.3666256, -12.2386392 ], [ 49.3664602, -12.2390608 ], [ 49.3653046, -12.2402626 ], [ 49.3648026, -12.2405174 ], [ 49.3636232, -12.2411284 ], [ 49.3633957, -12.2412665 ], [ 49.3630981, -12.2420391 ], [ 49.3623904, -12.2422382 ], [ 49.361960700000012, -12.2423826 ], [ 49.3617191, -12.2424734 ], [ 49.3617838, -12.242682 ], [ 49.3618338, -12.2428131 ], [ 49.361801, -12.2430223 ], [ 49.3618463, -12.2432913 ], [ 49.3618134, -12.2436543 ], [ 49.3629578, -12.243731 ], [ 49.3629663, -12.2436486 ], [ 49.3630562, -12.2435589 ], [ 49.3632676, -12.2435213 ], [ 49.363456299999989, -12.2435337 ], [ 49.3640482, -12.2434847 ], [ 49.3641472, -12.2434254 ], [ 49.3643878, -12.2433528 ], [ 49.364617, -12.2433395 ], [ 49.3647567, -12.2433831 ], [ 49.3650205, -12.2434479 ], [ 49.3654138, -12.2435751 ], [ 49.3656485, -12.2437861 ], [ 49.365795, -12.2440173 ], [ 49.366182, -12.2442706 ], [ 49.3662709, -12.2443716 ], [ 49.3664854, -12.2444928 ], [ 49.3666589, -12.2446042 ], [ 49.366853, -12.2446966 ], [ 49.3671138, -12.24474 ], [ 49.3674669, -12.2448639 ], [ 49.367816, -12.2451733 ], [ 49.3682269, -12.2453378 ], [ 49.3684433, -12.2454952 ], [ 49.3687311, -12.2457372 ], [ 49.3692428, -12.2459803 ], [ 49.3693789, -12.2460369 ], [ 49.3696974, -12.2461601 ], [ 49.3699456, -12.2462632 ], [ 49.3701014, -12.2463704 ], [ 49.3702994, -12.2464503 ], [ 49.3705027, -12.2465439 ], [ 49.3706643, -12.2466938 ], [ 49.3707987, -12.2468392 ], [ 49.3710993, -12.2470179 ], [ 49.3715716, -12.2472327 ], [ 49.372004, -12.2474952 ], [ 49.3723138, -12.2475899 ], [ 49.3725599, -12.2483535 ], [ 49.3726384, -12.2485712 ], [ 49.372749, -12.2487806 ], [ 49.37278, -12.2490002 ], [ 49.3728981, -12.2493121 ], [ 49.3730157, -12.2494629 ], [ 49.373195499999987, -12.249678 ], [ 49.3733218, -12.2499128 ], [ 49.3734505, -12.2501257 ], [ 49.3736732, -12.2504674 ], [ 49.3737167, -12.2507253 ], [ 49.3737875, -12.2511116 ], [ 49.3738261, -12.2517179 ], [ 49.3736099, -12.251761 ], [ 49.3733996, -12.2516283 ], [ 49.373137299999982, -12.2516043 ], [ 49.3726362, -12.2515213 ], [ 49.3723545, -12.2515453 ], [ 49.3716897, -12.2524196 ], [ 49.3709664, -12.2528119 ], [ 49.3696205, -12.2520412 ], [ 49.3689284, -12.2521887 ], [ 49.3685774, -12.2522996 ], [ 49.3682404, -12.2524216 ], [ 49.3678133, -12.2525536 ], [ 49.367614, -12.2525825 ], [ 49.3674384, -12.2526554 ], [ 49.3673476, -12.2526601 ], [ 49.367204699999981, -12.2526264 ], [ 49.3671089, -12.2526208 ], [ 49.3669858, -12.2525733 ], [ 49.3668529, -12.2524713 ], [ 49.3667079, -12.2523563 ], [ 49.366559400000014, -12.2523041 ], [ 49.3664997, -12.2523152 ], [ 49.3663527, -12.2522721 ], [ 49.3663935, -12.2525115 ] ] ] } }
]
}
