{
"type": "FeatureCollection",
"name": "MDG-303700-2015-boundary_modification-001",
"crs": { "type": "name", "properties": { "name": "urn:ogc:def:crs:OGC:1.3:CRS84" } },
"features": [
{ "type": "Feature", "properties": { }, "geometry": { "type": "Polygon", "coordinates": [ [ [ 43.8796355, -20.9275906 ], [ 43.8798724, -20.930589 ], [ 43.8797217, -20.9332977 ], [ 43.8788925, -20.9357992 ], [ 43.8785994, -20.9376185 ], [ 43.8770874, -20.940159 ], [ 43.8760615, -20.9418688 ], [ 43.8757301, -20.9428497 ], [ 43.8756653, -20.9445381 ], [ 43.8749058, -20.9450554 ], [ 43.8746209, -20.946382 ], [ 43.8746925, -20.9483546 ], [ 43.8735575, -20.9503092 ], [ 43.8729121, -20.9512361 ], [ 43.8711302, -20.9511109 ], [ 43.8710585, -20.9522434 ], [ 43.8710699, -20.9529786 ], [ 43.871538, -20.9549123 ], [ 43.8719359, -20.9561998 ], [ 43.872238, -20.9575778 ], [ 43.8725282, -20.9593547 ], [ 43.87274570000001, -20.9612307 ], [ 43.873051599999989, -20.9640183 ], [ 43.8731511, -20.9646146 ], [ 43.8735699, -20.9668014 ], [ 43.8738114, -20.9697338 ], [ 43.8739743, -20.9711495 ], [ 43.8777356, -20.9710999 ], [ 43.8825413, -20.9714734 ], [ 43.8874507, -20.9699546 ], [ 43.8925333, -20.9704096 ], [ 43.8970207, -20.96782 ], [ 43.901513, -20.9649268 ], [ 43.9056654, -20.9648911 ], [ 43.909934, -20.963485 ], [ 43.9137474, -20.9626987 ], [ 43.9221575, -20.962423 ], [ 43.9256011, -20.96178 ], [ 43.9290714, -20.9644974 ], [ 43.9318395, -20.9681047 ], [ 43.9356286, -20.9686154 ], [ 43.9388347, -20.9701799 ], [ 43.942456, -20.9710675 ], [ 43.9486836, -20.9707026 ], [ 43.9550092, -20.9742094 ], [ 43.9553374, -20.9689776 ], [ 43.9617561, -20.9611845 ], [ 43.963784, -20.9564258 ], [ 43.9661871, -20.9527417 ], [ 43.9725617, -20.9469804 ], [ 43.9779295, -20.9475682 ], [ 43.981636299999984, -20.9462591 ], [ 43.9872193, -20.9447496 ], [ 43.9914872, -20.941948 ], [ 43.9949137, -20.9398718 ], [ 43.9975218, -20.9390502 ], [ 43.9995065, -20.9371173 ], [ 44.0010683, -20.9359337 ], [ 44.0057645, -20.9327208 ], [ 44.0107176, -20.9308665 ], [ 44.0149741, -20.9304749 ], [ 44.017587299999988, -20.9294185 ], [ 44.0211421, -20.9290078 ], [ 44.0242262, -20.927958 ], [ 44.0281607, -20.9284649 ], [ 44.0310115, -20.9287849 ], [ 44.0338696, -20.9286443 ], [ 44.036373100000013, -20.9290406 ], [ 44.0395957, -20.9283538 ], [ 44.0420953, -20.9283887 ], [ 44.0458456, -20.928992 ], [ 44.049047600000016, -20.9302201 ], [ 44.0508093, -20.9307053 ], [ 44.0564008, -20.9304125 ], [ 44.0583079, -20.9314417 ], [ 44.059658800000015, -20.9323729 ], [ 44.0633288, -20.9344293 ], [ 44.0685362, -20.9359648 ], [ 44.071606, -20.9358264 ], [ 44.0747475, -20.9378753 ], [ 44.0778937, -20.9390117 ], [ 44.081388, -20.9387886 ], [ 44.0843287, -20.9389192 ], [ 44.0887356, -20.9375158 ], [ 44.0934173, -20.9357547 ], [ 44.095018800000013, -20.9354152 ], [ 44.095945, -20.9350224 ], [ 44.0958987, -20.934746 ], [ 44.0981237, -20.9320929 ], [ 44.0982301, -20.9293518 ], [ 44.1030513, -20.9286875 ], [ 44.1075662, -20.9268645 ], [ 44.1123533, -20.9254873 ], [ 44.1165877, -20.9232676 ], [ 44.1213723, -20.9220419 ], [ 44.126098, -20.9208875 ], [ 44.1270864, -20.9210338 ], [ 44.1276483, -20.9213073 ], [ 44.129136100000011, -20.9227456 ], [ 44.1305457, -20.9231191 ], [ 44.1317322, -20.9226474 ], [ 44.1323608, -20.9216364 ], [ 44.1349905, -20.9203419 ], [ 44.1351711, -20.9198567 ], [ 44.135702, -20.919066 ], [ 44.1369316, -20.9188608 ], [ 44.138199, -20.9192767 ], [ 44.1400595, -20.9210302 ], [ 44.1413229, -20.9217119 ], [ 44.1431523, -20.9224011 ], [ 44.1451233, -20.9230923 ], [ 44.1475201, -20.9237004 ], [ 44.1500065, -20.9246199 ], [ 44.1518799, -20.9255313 ], [ 44.1537519, -20.9265313 ], [ 44.1553443, -20.9273059 ], [ 44.1568961, -20.9276367 ], [ 44.157892, -20.9272953 ], [ 44.158844599999988, -20.9266874 ], [ 44.159742799999989, -20.9265663 ], [ 44.1618155, -20.926771 ], [ 44.163691, -20.9275493 ], [ 44.1654243, -20.9283701 ], [ 44.1671084, -20.9293231 ], [ 44.1676599, -20.9303055 ], [ 44.1682492, -20.9319089 ], [ 44.1686808, -20.9338243 ], [ 44.1693251, -20.9356907 ], [ 44.1698641, -20.9362631 ], [ 44.1703921, -20.9369015 ], [ 44.170905, -20.9373072 ], [ 44.1714253, -20.9372254 ], [ 44.1722423, -20.9369209 ], [ 44.1727134, -20.9362672 ], [ 44.173199, -20.9353428 ], [ 44.173646, -20.9338416 ], [ 44.1745109, -20.9327892 ], [ 44.1754229, -20.9317374 ], [ 44.1764692, -20.9311749 ], [ 44.1792248, -20.9298814 ], [ 44.1808836, -20.9293712 ], [ 44.182781600000013, -20.9286426 ], [ 44.1856169, -20.9283251 ], [ 44.187367, -20.9274187 ], [ 44.1887622, -20.9261943 ], [ 44.1894353, -20.925319 ], [ 44.1906591, -20.9242007 ], [ 44.1918756, -20.9235785 ], [ 44.1939993, -20.9228264 ], [ 44.1952995, -20.9216382 ], [ 44.1970576, -20.9201014 ], [ 44.1994914, -20.9187861 ], [ 44.2023696, -20.918393 ], [ 44.2047822, -20.9179368 ], [ 44.2062547, -20.9172466 ], [ 44.2076794, -20.9166002 ], [ 44.2099066, -20.9159198 ], [ 44.212083299999989, -20.9154604 ], [ 44.2147756, -20.9152292 ], [ 44.2176126, -20.9147782 ], [ 44.2196511, -20.9140953 ], [ 44.2207737, -20.9132482 ], [ 44.222146, -20.9122733 ], [ 44.2233715, -20.911013 ], [ 44.2243686, -20.9098915 ], [ 44.2243831, -20.9088992 ], [ 44.2244027, -20.9075525 ], [ 44.2244946, -20.9064194 ], [ 44.2249595, -20.9055747 ], [ 44.2259525, -20.9047367 ], [ 44.2271686, -20.9041143 ], [ 44.2291314, -20.9041834 ], [ 44.2293385, -20.9031828 ], [ 44.2337976, -20.8851553 ], [ 44.2376475, -20.869841 ], [ 44.239987, -20.8701922 ], [ 44.285407, -20.6962835 ], [ 44.2838071, -20.695351 ], [ 44.2823306, -20.6931462 ], [ 44.283187, -20.6909613 ], [ 44.2835133, -20.6896011 ], [ 44.2836094, -20.6882289 ], [ 44.2840727, -20.6853163 ], [ 44.283852, -20.6839403 ], [ 44.2824013, -20.681275 ], [ 44.2808418, -20.6781565 ], [ 44.2805657, -20.6768401 ], [ 44.277161, -20.674147 ], [ 44.2507106, -20.6547325 ], [ 44.2411763, -20.6389253 ], [ 44.2388614, -20.6340748 ], [ 44.235357799999989, -20.62068 ], [ 44.2347404, -20.6088875 ], [ 44.2301821, -20.6015104 ], [ 44.2267505, -20.5968923 ], [ 44.2210531, -20.5897615 ], [ 44.2204809, -20.5878676 ], [ 44.2203867, -20.5838601 ], [ 44.2193989, -20.578225 ], [ 44.2156824, -20.5729257 ], [ 44.2105111, -20.5710121 ], [ 44.2072504, -20.5676666 ], [ 44.2041405, -20.562065 ], [ 44.163455, -20.7215 ], [ 44.138116, -20.7155322 ], [ 44.1192668, -20.7112089 ], [ 44.1005995, -20.7068597 ], [ 44.0817732, -20.7025521 ], [ 44.0761275, -20.7008049 ], [ 44.0715513, -20.7125926 ], [ 44.0644452, -20.7309382 ], [ 44.0655174, -20.7509466 ], [ 44.0759933, -20.7548668 ], [ 44.0757072, -20.722491 ], [ 44.0897529, -20.7273733 ], [ 44.0976112, -20.7342028 ], [ 44.0899941, -20.7807075 ], [ 44.0454607, -20.771892 ], [ 44.0370067, -20.775525 ], [ 44.0373239, -20.7780132 ], [ 44.0434424, -20.7769348 ], [ 44.0478877, -20.7744913 ], [ 44.0511275, -20.7747465 ], [ 44.0530122, -20.7901316 ], [ 44.0498483, -20.8031508 ], [ 44.0468819, -20.8194482 ], [ 44.0395064, -20.835341 ], [ 44.0290983, -20.8347079 ], [ 44.0299471, -20.8404681 ], [ 44.0316584, -20.8496022 ], [ 44.0330816, -20.8564905 ], [ 44.0386035, -20.8639698 ], [ 44.0360167, -20.8736714 ], [ 44.0365593, -20.8777087 ], [ 44.0348238, -20.8787524 ], [ 44.0315054, -20.8792832 ], [ 44.0254113, -20.8803199 ], [ 44.0158949, -20.881267 ], [ 44.0052984, -20.8823853 ], [ 43.9936713, -20.889396 ], [ 43.9851535, -20.8914493 ], [ 43.9623216, -20.8868984 ], [ 43.9480773, -20.8819808 ], [ 43.9272869, -20.8893573 ], [ 43.9031453, -20.8850898 ], [ 43.9059643, -20.8790897 ], [ 43.911713, -20.8673351 ], [ 43.916082, -20.8612139 ], [ 43.9201699, -20.8583803 ], [ 43.9229797, -20.8557808 ], [ 43.931221, -20.847341 ], [ 43.9364737, -20.8373499 ], [ 43.9384397, -20.8319702 ], [ 43.9454809, -20.8201975 ], [ 43.95544610000001, -20.815009 ], [ 43.9640011, -20.810379 ], [ 43.9978724, -20.7929082 ], [ 43.976298, -20.7819769 ], [ 43.958891199999989, -20.7701451 ], [ 43.955865, -20.7743073 ], [ 43.9480856, -20.781478 ], [ 43.9441968, -20.7825657 ], [ 43.9416585, -20.785678 ], [ 43.9363636, -20.7944931 ], [ 43.9330157, -20.8006549 ], [ 43.9281063, -20.8116227 ], [ 43.9248172, -20.8182442 ], [ 43.9185038, -20.8284545 ], [ 43.9131758, -20.8380937 ], [ 43.9104273, -20.841222 ], [ 43.9090582, -20.8424694 ], [ 43.9058919, -20.8436902 ], [ 43.9087997, -20.8450385 ], [ 43.9099253, -20.8465422 ], [ 43.9097523, -20.8482973 ], [ 43.907802, -20.8531357 ], [ 43.9086512, -20.8539593 ], [ 43.9099386, -20.8543839 ], [ 43.9125763, -20.8514483 ], [ 43.9131942, -20.8488886 ], [ 43.917292, -20.8446224 ], [ 43.9193184, -20.8438409 ], [ 43.9206438, -20.8419676 ], [ 43.9223424, -20.8436148 ], [ 43.9125904, -20.8543346 ], [ 43.9116566, -20.8564333 ], [ 43.9114349, -20.8595434 ], [ 43.9048937, -20.8704134 ], [ 43.898950299999981, -20.8699846 ], [ 43.8956956, -20.8803003 ], [ 43.888595, -20.8932854 ], [ 43.8865476, -20.8978443 ], [ 43.8844516, -20.9047061 ], [ 43.8830279, -20.9150199 ], [ 43.8812218, -20.9183622 ], [ 43.8804442, -20.9191947 ], [ 43.8804294, -20.9205326 ], [ 43.8804168, -20.9216674 ], [ 43.8796624, -20.9224195 ], [ 43.8795733, -20.9245751 ], [ 43.8795849, -20.9258609 ], [ 43.8789381, -20.9265062 ], [ 43.87888, -20.9270621 ], [ 43.87882780000001, -20.9275624 ], [ 43.8796355, -20.9275906 ] ] ] } }
]
}
