{
"type": "FeatureCollection",
"name": "MDG-555697909-NODATE-secondary_zoning-001",
"crs": { "type": "name", "properties": { "name": "urn:ogc:def:crs:OGC:1.3:CRS84" } },
"features": [
{ "type": "Feature", "properties": { }, "geometry": { "type": "Polygon", "coordinates": [ [ [ 44.4201865, -20.2487116 ], [ 44.4201456, -20.2487595 ], [ 44.4201147, -20.2488363 ], [ 44.4200637, -20.2488745 ], [ 44.4200026, -20.2488839 ], [ 44.4199517, -20.2488934 ], [ 44.4198906, -20.2488932 ], [ 44.419799, -20.2488929 ], [ 44.4197175, -20.2488926 ], [ 44.4196667, -20.2488924 ], [ 44.4195953, -20.248921 ], [ 44.4195443, -20.2489497 ], [ 44.4195034, -20.2489976 ], [ 44.4194828, -20.2490551 ], [ 44.4194623, -20.2490935 ], [ 44.4194621, -20.2491607 ], [ 44.419472, -20.249228 ], [ 44.4195122, -20.2493722 ], [ 44.4195221, -20.2494491 ], [ 44.4195218, -20.249526 ], [ 44.4195216, -20.2495836 ], [ 44.4195009, -20.24967 ], [ 44.419449799999988, -20.2497275 ], [ 44.419398699999988, -20.2497754 ], [ 44.419347699999989, -20.249804 ], [ 44.4192866, -20.249823 ], [ 44.419205, -20.2498516 ], [ 44.4191643, -20.249861 ], [ 44.4191234, -20.2498993 ], [ 44.4191028, -20.2499665 ], [ 44.419092400000011, -20.2500337 ], [ 44.419061700000015, -20.2500816 ], [ 44.4190106, -20.2501391 ], [ 44.4189596, -20.2501678 ], [ 44.4189288, -20.2502253 ], [ 44.4188879, -20.2502828 ], [ 44.4188062, -20.2503402 ], [ 44.418745, -20.2503784 ], [ 44.4186939, -20.2504359 ], [ 44.4186732, -20.2505223 ], [ 44.4186729, -20.2505991 ], [ 44.4186366, -20.2506819 ], [ 44.4186025, -20.2507425 ], [ 44.418554799999988, -20.2508102 ], [ 44.4185405, -20.250821 ], [ 44.4185168, -20.2508331 ], [ 44.4185086, -20.2508484 ], [ 44.4185038, -20.250858 ], [ 44.418499, -20.2508708 ], [ 44.4184963, -20.2508823 ], [ 44.4184928, -20.250895 ], [ 44.418488, -20.2509078 ], [ 44.418486, -20.2509212 ], [ 44.4184852, -20.2509334 ], [ 44.4184872, -20.2509456 ], [ 44.4184933, -20.2509584 ], [ 44.4184973, -20.250968 ], [ 44.4185034, -20.2509769 ], [ 44.4185108, -20.2509846 ], [ 44.4185398, -20.2510097 ], [ 44.4185581, -20.2510264 ], [ 44.4185709, -20.251045 ], [ 44.4185796, -20.2510695 ], [ 44.4204712, -20.2487798 ], [ 44.4204409, -20.2487221 ], [ 44.4202782, -20.2486831 ], [ 44.4201865, -20.2487116 ] ] ] } }
]
}
