{
"type": "FeatureCollection",
"name": "MDG-2314-NODATE-secondary_zoning-001",
"crs": { "type": "name", "properties": { "name": "urn:ogc:def:crs:OGC:1.3:CRS84" } },
"features": [
{ "type": "Feature", "properties": { }, "geometry": { "type": "MultiPolygon", "coordinates": [ [ [ [ 49.0910688, -12.6220424 ], [ 49.1281871, -12.6019842 ], [ 49.1535057, -12.5975887 ], [ 49.1412131, -12.562825 ], [ 49.1507571, -12.5465957 ], [ 49.1375012, -12.5380212 ], [ 49.1288447, -12.549735 ], [ 49.097858, -12.5624386 ], [ 49.0622082, -12.5675236 ], [ 49.0746375, -12.573633 ], [ 49.1066517, -12.5775614 ], [ 49.1085799, -12.5847941 ], [ 49.1084698, -12.5858754 ], [ 49.1072567, -12.5896011 ], [ 49.105955200000011, -12.5901163 ], [ 49.10453, -12.5923695 ], [ 49.1032176, -12.5939553 ], [ 49.1017398, -12.5944131 ], [ 49.099885799999988, -12.596279 ], [ 49.0989378, -12.5979556 ], [ 49.0977395, -12.598981 ], [ 49.0969354, -12.6000611 ], [ 49.0969501, -12.6012504 ], [ 49.095923799999987, -12.6015005 ], [ 49.0957367, -12.6027846 ], [ 49.0957726, -12.602853 ], [ 49.0908152, -12.6221479 ], [ 49.0910688, -12.6220424 ] ] ], [ [ [ 49.2019405, -12.600274 ], [ 49.2037626, -12.6003457 ], [ 49.2082338, -12.5885605 ], [ 49.2082835, -12.577118 ], [ 49.2082813, -12.5599358 ], [ 49.1857213, -12.5436287 ], [ 49.167209, -12.5493346 ], [ 49.1602871, -12.5700566 ], [ 49.1778619, -12.6020126 ], [ 49.1823855, -12.602757 ], [ 49.1848682, -12.6027169 ], [ 49.1861692, -12.6025612 ], [ 49.1867695, -12.6024935 ], [ 49.1872592, -12.6024152 ], [ 49.1880794, -12.6022726 ], [ 49.1890588, -12.6021039 ], [ 49.1914302, -12.601665 ], [ 49.1924553, -12.6014717 ], [ 49.1942909, -12.6011026 ], [ 49.195530600000012, -12.6009066 ], [ 49.1957742, -12.600768 ], [ 49.1969006, -12.6001065 ], [ 49.1969349, -12.600091 ], [ 49.197702, -12.6001192 ], [ 49.1984498, -12.6001288 ], [ 49.1996776, -12.6002078 ], [ 49.20079, -12.6002506 ], [ 49.2019405, -12.600274 ] ] ], [ [ [ 49.1712952, -12.4691623 ], [ 49.1853621, -12.4810183 ], [ 49.1982253, -12.4682752 ], [ 49.1996289, -12.4657313 ], [ 49.2011363, -12.4585606 ], [ 49.2011516, -12.4577979 ], [ 49.2010263, -12.4538636 ], [ 49.199754, -12.4522311 ], [ 49.1811599, -12.4507992 ], [ 49.1712952, -12.4691623 ] ] ] ] } }
]
}
