{
"type": "FeatureCollection",
"name": "MDG-555785986-NODATE-secondary_zoning-001",
"crs": { "type": "name", "properties": { "name": "urn:ogc:def:crs:OGC:1.3:CRS84" } },
"features": [
{ "type": "Feature", "properties": { }, "geometry": { "type": "MultiPolygon", "coordinates": [ [ [ [ 44.2949888, -25.4426196 ], [ 44.2868928, -25.396321 ], [ 44.2060804, -25.40506280000001 ], [ 44.2125108, -25.4532879 ], [ 44.2949888, -25.4426196 ] ] ], [ [ [ 44.2580397, -25.3611071 ], [ 44.251256600000012, -25.2989409 ], [ 44.194688, -25.3195272 ], [ 44.2013647, -25.3696716 ], [ 44.2580397, -25.3611071 ] ] ], [ [ [ 44.1661423, -25.2403229 ], [ 44.1566853, -25.1902617 ], [ 44.1013555, -25.1969436 ], [ 44.110892, -25.2517024 ], [ 44.1661423, -25.2403229 ] ] ], [ [ [ 44.1655678, -25.1137645 ], [ 44.1984114, -25.088992 ], [ 44.1610128, -25.0735822 ], [ 44.1388495, -25.0744051 ], [ 44.1182468, -25.0924837 ], [ 44.1655678, -25.1137645 ] ] ], [ [ [ 44.0165698, -24.8959238 ], [ 44.0150518, -24.877561 ], [ 44.0048017, -24.8632152 ], [ 43.9912821, -24.8630147 ], [ 43.9909313, -24.8956472 ], [ 44.0165698, -24.8959238 ] ] ], [ [ [ 43.9429151, -24.8231228 ], [ 43.927959, -24.7717306 ], [ 43.9081702, -24.7745787 ], [ 43.9226511, -24.8257465 ], [ 43.9429151, -24.8231228 ] ] ], [ [ [ 43.6586413, -24.402941 ], [ 43.6432358, -24.2416944 ], [ 43.6255023, -24.242293 ], [ 43.6398193, -24.4073507 ], [ 43.6586413, -24.402941 ] ] ], [ [ [ 43.6444927, -24.2155478 ], [ 43.6472952, -24.0669646 ], [ 43.6294709, -24.0660816 ], [ 43.6279655, -24.2155512 ], [ 43.6444927, -24.2155478 ] ] ], [ [ [ 43.6305707, -24.0336945 ], [ 43.6464961, -24.0350555 ], [ 43.6477848, -23.965737 ], [ 43.633356299999988, -23.9644732 ], [ 43.6305707, -24.0336945 ] ] ], [ [ [ 43.6340119, -23.9016444 ], [ 43.6481482, -23.901885 ], [ 43.6485516, -23.8823676 ], [ 43.6349732, -23.8821407 ], [ 43.6340119, -23.9016444 ] ] ] ] } }
]
}
