{
"type": "FeatureCollection",
"name": "MDG-555697908-NODATE-secondary_zoning-001",
"crs": { "type": "name", "properties": { "name": "urn:ogc:def:crs:OGC:1.3:CRS84" } },
"features": [
{ "type": "Feature", "properties": { }, "geometry": { "type": "MultiPolygon", "coordinates": [ [ [ [ 49.6013643, -13.2875088 ], [ 49.6015959, -13.2874935 ], [ 49.6032184, -13.2883927 ], [ 49.6051311, -13.2862517 ], [ 49.6070211, -13.2842343 ], [ 49.6127957, -13.2805548 ], [ 49.6150899, -13.2788418 ], [ 49.6179448, -13.2761569 ], [ 49.6165909, -13.2763128 ], [ 49.6137964, -13.2728265 ], [ 49.6122419, -13.2699003 ], [ 49.6121579, -13.2681725 ], [ 49.6115075, -13.2672587 ], [ 49.6104596, -13.2668004 ], [ 49.608833300000015, -13.2672453 ], [ 49.607719499999988, -13.2670403 ], [ 49.6064444, -13.2675958 ], [ 49.6067756, -13.2656548 ], [ 49.6083804, -13.2644514 ], [ 49.6106534, -13.2621663 ], [ 49.6109222, -13.2606009 ], [ 49.6128932, -13.2575241 ], [ 49.6086268, -13.2551758 ], [ 49.6060118, -13.2562858 ], [ 49.6012229, -13.255468 ], [ 49.5998356, -13.2567171 ], [ 49.600346, -13.2589911 ], [ 49.5999866, -13.2612655 ], [ 49.5987716, -13.2637961 ], [ 49.5987765, -13.2638123 ], [ 49.5956288, -13.2657654 ], [ 49.5946444, -13.2658049 ], [ 49.5921692, -13.2675673 ], [ 49.590278700000013, -13.2681011 ], [ 49.5892833, -13.2688465 ], [ 49.5878765, -13.2694567 ], [ 49.58616, -13.2718637 ], [ 49.5858135, -13.2725976 ], [ 49.5863497, -13.2733581 ], [ 49.587983600000015, -13.2742313 ], [ 49.5904835, -13.2771215 ], [ 49.590963, -13.278746 ], [ 49.5952699, -13.2794095 ], [ 49.5987898, -13.2837556 ], [ 49.5979189, -13.2866784 ], [ 49.5996085, -13.2880481 ], [ 49.6013643, -13.2875088 ] ], [ [ 49.6028924, -13.268611 ], [ 49.6032963, -13.2682685 ], [ 49.6028942, -13.26862 ], [ 49.6027157, -13.2685771 ], [ 49.6028924, -13.268611 ] ], [ [ 49.6006591, -13.2680825 ], [ 49.5993229, -13.2679443 ], [ 49.5993228, -13.2679406 ], [ 49.600816599999987, -13.2680667 ], [ 49.600808, -13.2681183 ], [ 49.6006591, -13.2680825 ] ], [ [ 49.6044812, -13.267876 ], [ 49.6051769, -13.2676943 ], [ 49.6044744, -13.2678881 ], [ 49.603795, -13.2679073 ], [ 49.6044812, -13.267876 ] ], [ [ 49.6064193, -13.2676067 ], [ 49.6056649, -13.2676244 ], [ 49.6064277, -13.267603 ], [ 49.6064193, -13.2676067 ] ] ], [ [ [ 49.5939569, -13.2415011 ], [ 49.597484, -13.2416482 ], [ 49.5999046, -13.2411288 ], [ 49.6028575, -13.2406198 ], [ 49.6052474, -13.2404049 ], [ 49.6082798, -13.2394239 ], [ 49.6117504, -13.237766 ], [ 49.6154594, -13.2351956 ], [ 49.6157856, -13.2344056 ], [ 49.6088506, -13.2301271 ], [ 49.6058238, -13.2287656 ], [ 49.603152199999982, -13.2299483 ], [ 49.6029432, -13.2299757 ], [ 49.5992366, -13.2293673 ], [ 49.5975101, -13.2293223 ], [ 49.5958482, -13.2313399 ], [ 49.5937586, -13.232138 ], [ 49.5939396, -13.2331356 ], [ 49.5924588, -13.2342495 ], [ 49.5909309, -13.2359224 ], [ 49.5914026, -13.2379375 ], [ 49.5917112, -13.23911 ], [ 49.5923795, -13.2405963 ], [ 49.5939569, -13.2415011 ] ] ], [ [ [ 49.5489965, -13.2300738 ], [ 49.549809, -13.2311683 ], [ 49.5499627, -13.2329079 ], [ 49.5492993, -13.2341373 ], [ 49.550326, -13.2357542 ], [ 49.5531299, -13.2372125 ], [ 49.5562856, -13.2366674 ], [ 49.5598123, -13.2389599 ], [ 49.5611232, -13.2387085 ], [ 49.5572665, -13.2335801 ], [ 49.555271, -13.2309057 ], [ 49.5539099, -13.2296792 ], [ 49.5530657, -13.2278308 ], [ 49.5518875, -13.2259602 ], [ 49.5503033, -13.2255775 ], [ 49.5490275, -13.2262123 ], [ 49.5497726, -13.2276418 ], [ 49.5492104, -13.2287353 ], [ 49.5489965, -13.2300738 ] ] ], [ [ [ 49.5507894, -13.2130792 ], [ 49.5527324, -13.215217 ], [ 49.5535914, -13.217245 ], [ 49.5574086, -13.218292 ], [ 49.5610326, -13.2168061 ], [ 49.5641276, -13.2135911 ], [ 49.567349, -13.2117628 ], [ 49.5699601, -13.2092205 ], [ 49.5631143, -13.1988205 ], [ 49.5609682, -13.1994437 ], [ 49.5576246, -13.1980917 ], [ 49.5538989, -13.1998747 ], [ 49.5514199, -13.1999799 ], [ 49.5492627, -13.2009411 ], [ 49.5462179, -13.2011627 ], [ 49.5431855, -13.2054417 ], [ 49.5427752, -13.2104583 ], [ 49.5431734, -13.2128712 ], [ 49.548301, -13.2134876 ], [ 49.5507894, -13.2130792 ] ] ], [ [ [ 49.4743376, -13.1427344 ], [ 49.4763019, -13.1391936 ], [ 49.4771575, -13.1377663 ], [ 49.4779272, -13.1370521 ], [ 49.477365, -13.132839 ], [ 49.4755852, -13.1301599 ], [ 49.473950099999989, -13.1284409 ], [ 49.4718185, -13.1272119 ], [ 49.4709512, -13.1280324 ], [ 49.4698047, -13.1287859 ], [ 49.4680953, -13.1309007 ], [ 49.4669728, -13.1323251 ], [ 49.4685294, -13.1360808 ], [ 49.469015899999988, -13.1395506 ], [ 49.468481, -13.1425438 ], [ 49.4698939, -13.1454932 ], [ 49.4718976, -13.1439964 ], [ 49.4743376, -13.1427344 ] ] ], [ [ [ 49.4426864, -13.1386227 ], [ 49.4436141, -13.1376316 ], [ 49.4447647, -13.136971 ], [ 49.4460014, -13.1348152 ], [ 49.4468101, -13.1345003 ], [ 49.4466288, -13.1313794 ], [ 49.446025299999988, -13.1292923 ], [ 49.4422252, -13.126644 ], [ 49.4410687, -13.1250105 ], [ 49.4397679, -13.1250996 ], [ 49.4374599, -13.1245781 ], [ 49.4356017, -13.1246671 ], [ 49.4346575, -13.1265878 ], [ 49.4343826, -13.1280429 ], [ 49.4339006, -13.1301622 ], [ 49.4365202, -13.1327162 ], [ 49.4389313, -13.1357044 ], [ 49.4391054, -13.1373923 ], [ 49.4401888, -13.1400437 ], [ 49.4426864, -13.1386227 ] ] ], [ [ [ 49.4829365, -13.1333064 ], [ 49.4845241, -13.1340997 ], [ 49.4861818, -13.1338771 ], [ 49.4876541, -13.133606 ], [ 49.489795900000011, -13.1337224 ], [ 49.4909377, -13.1333463 ], [ 49.4912483, -13.1319326 ], [ 49.492368, -13.1322486 ], [ 49.4915045, -13.1294245 ], [ 49.4907502, -13.1283982 ], [ 49.489227099999987, -13.1278103 ], [ 49.4885004, -13.1281488 ], [ 49.4878012, -13.128167 ], [ 49.4868543, -13.1283373 ], [ 49.4855804, -13.1285056 ], [ 49.4842531, -13.1291676 ], [ 49.4830145, -13.1293082 ], [ 49.482292, -13.1307637 ], [ 49.4829365, -13.1333064 ] ] ], [ [ [ 49.7157272, -13.1165211 ], [ 49.7178105, -13.1151856 ], [ 49.7182386, -13.1141705 ], [ 49.7162742, -13.1124472 ], [ 49.7145945, -13.1110564 ], [ 49.7119024, -13.1087375 ], [ 49.7094224, -13.1054182 ], [ 49.7058347, -13.1064626 ], [ 49.7021901, -13.1061276 ], [ 49.6994701, -13.110132 ], [ 49.6990358, -13.1118965 ], [ 49.6999122, -13.1145047 ], [ 49.7020243, -13.1177838 ], [ 49.7023014, -13.1188779 ], [ 49.7039232, -13.1186025 ], [ 49.7056402, -13.1184015 ], [ 49.7072503, -13.1187168 ], [ 49.708811, -13.1182392 ], [ 49.7099923, -13.117381 ], [ 49.7106841, -13.117598 ], [ 49.7114531, -13.1174205 ], [ 49.7125291, -13.1181863 ], [ 49.7138028, -13.1182951 ], [ 49.7154346, -13.1178945 ], [ 49.7157272, -13.1165211 ] ] ], [ [ [ 49.5680112, -13.105818 ], [ 49.570668299999987, -13.1063908 ], [ 49.5726225, -13.1057253 ], [ 49.574581699999982, -13.1044537 ], [ 49.5756316, -13.1034995 ], [ 49.5789533, -13.1026659 ], [ 49.5822543, -13.1013674 ], [ 49.5819079, -13.09899 ], [ 49.5825229, -13.0968327 ], [ 49.5822206, -13.0957259 ], [ 49.5791703, -13.0948257 ], [ 49.5768455, -13.0957631 ], [ 49.5747328, -13.0957116 ], [ 49.5726901, -13.0961939 ], [ 49.5707723, -13.0976848 ], [ 49.5700654, -13.0984923 ], [ 49.5683899, -13.0998643 ], [ 49.5677281, -13.1023156 ], [ 49.5673519, -13.1037785 ], [ 49.5671588, -13.105448 ], [ 49.5680112, -13.105818 ] ] ], [ [ [ 49.7005459, -13.0554416 ], [ 49.6991099, -13.0551157 ], [ 49.6992406, -13.0538196 ], [ 49.6989622, -13.0518548 ], [ 49.6987432, -13.0509361 ], [ 49.6963332, -13.0514684 ], [ 49.6940379, -13.0525226 ], [ 49.6932988, -13.0532321 ], [ 49.6932222, -13.0545601 ], [ 49.6932793, -13.0558716 ], [ 49.6933601, -13.0578626 ], [ 49.6960896, -13.0608832 ], [ 49.6971434, -13.061485 ], [ 49.6988439, -13.0623364 ], [ 49.6997757, -13.063409 ], [ 49.7017782, -13.0622651 ], [ 49.702708, -13.0618733 ], [ 49.70459, -13.0625383 ], [ 49.7055288, -13.0626101 ], [ 49.7052951, -13.0616838 ], [ 49.704773899999985, -13.0601787 ], [ 49.7050413, -13.0592455 ], [ 49.7045009, -13.0585062 ], [ 49.7028307, -13.0580899 ], [ 49.7012495, -13.056228 ], [ 49.7005459, -13.0554416 ] ] ], [ [ [ 49.6767259, -12.96243 ], [ 49.6780688, -12.9634811 ], [ 49.6812827, -12.9639086 ], [ 49.6819899, -12.9648826 ], [ 49.6833896, -12.965287 ], [ 49.6821356, -12.967608 ], [ 49.6835947, -12.9702357 ], [ 49.6846993, -12.9724715 ], [ 49.6856616, -12.9736397 ], [ 49.6914762, -12.9725435 ], [ 49.6919737, -12.9700322 ], [ 49.6933709, -12.9693065 ], [ 49.6944132, -12.9659023 ], [ 49.695194, -12.9627087 ], [ 49.6962426, -12.9625422 ], [ 49.6967142, -12.96133 ], [ 49.6962105, -12.9600171 ], [ 49.6948739, -12.9591959 ], [ 49.694458, -12.9584504 ], [ 49.693333, -12.9580267 ], [ 49.6919115, -12.9581678 ], [ 49.6912413, -12.9572114 ], [ 49.6908693, -12.9558336 ], [ 49.6913554, -12.9547227 ], [ 49.6886254, -12.9527482 ], [ 49.685846, -12.9500848 ], [ 49.6814332, -12.950019 ], [ 49.6794702, -12.9509379 ], [ 49.6781971, -12.951839 ], [ 49.6778853, -12.9535761 ], [ 49.6765562, -12.9542067 ], [ 49.67554220000001, -12.9558792 ], [ 49.6736908, -12.9574621 ], [ 49.6717148, -12.9578125 ], [ 49.6702428, -12.9585967 ], [ 49.6692977, -12.9615267 ], [ 49.6704421, -12.9635277 ], [ 49.6738665, -12.9639084 ], [ 49.6767259, -12.96243 ] ] ], [ [ [ 49.6201949, -12.9609196 ], [ 49.6226662, -12.9573703 ], [ 49.6223006, -12.9530815 ], [ 49.6201313, -12.9537288 ], [ 49.6190309, -12.9538797 ], [ 49.6173081, -12.9537527 ], [ 49.6155604, -12.9540514 ], [ 49.6140621, -12.9531488 ], [ 49.6151519, -12.9569004 ], [ 49.6173609, -12.9609512 ], [ 49.6201949, -12.9609196 ] ] ], [ [ [ 49.6608836, -12.9028644 ], [ 49.6601012, -12.9065833 ], [ 49.6597976, -12.9097226 ], [ 49.6602889, -12.9128885 ], [ 49.6688455, -12.9189842 ], [ 49.6696794, -12.9220725 ], [ 49.674066, -12.9242762 ], [ 49.6758105, -12.9214404 ], [ 49.678226, -12.9203977 ], [ 49.6805838, -12.9205663 ], [ 49.6813146, -12.9191985 ], [ 49.683721299999981, -12.9168748 ], [ 49.682692, -12.9137759 ], [ 49.6817682, -12.9120156 ], [ 49.6768581, -12.9112934 ], [ 49.6745866, -12.9079126 ], [ 49.6722161, -12.9051584 ], [ 49.6690966, -12.9016666 ], [ 49.6657457, -12.9019467 ], [ 49.6608836, -12.9028644 ] ] ], [ [ [ 49.762959400000014, -13.2185858 ], [ 49.7608416, -13.21744 ], [ 49.7578733, -13.2176094 ], [ 49.7570551, -13.2194927 ], [ 49.7557368, -13.2212534 ], [ 49.7537744, -13.2245308 ], [ 49.7532495, -13.2270331 ], [ 49.752519299999989, -13.2278655 ], [ 49.7542026, -13.2299407 ], [ 49.7551025, -13.2309581 ], [ 49.7565813, -13.2319167 ], [ 49.7571295, -13.234003 ], [ 49.7580268, -13.2360557 ], [ 49.7608195, -13.2373566 ], [ 49.7619312, -13.2382826 ], [ 49.7630033, -13.2388367 ], [ 49.7646915, -13.2400191 ], [ 49.7666275, -13.2381341 ], [ 49.7671078, -13.2361471 ], [ 49.7697531, -13.235764 ], [ 49.7698281, -13.2331468 ], [ 49.7674405, -13.2321787 ], [ 49.767354399999988, -13.2321222 ], [ 49.76667, -13.2308511 ], [ 49.7662929, -13.2286493 ], [ 49.7666445, -13.2224699 ], [ 49.7643396, -13.220843 ], [ 49.7629649, -13.2186534 ], [ 49.762959400000014, -13.2185858 ] ] ], [ [ [ 49.7231279, -13.1733933 ], [ 49.7239101, -13.1750923 ], [ 49.7252105, -13.1756962 ], [ 49.7265144, -13.1774111 ], [ 49.7276437, -13.178398 ], [ 49.7283874, -13.1793252 ], [ 49.7293581, -13.1792666 ], [ 49.7315189, -13.1811337 ], [ 49.7328512, -13.1811168 ], [ 49.7344468, -13.1808892 ], [ 49.738859, -13.1795331 ], [ 49.7394298, -13.1787038 ], [ 49.7391294, -13.1780421 ], [ 49.7384625, -13.1775201 ], [ 49.7382039, -13.1771667 ], [ 49.7386169, -13.1763278 ], [ 49.7394561, -13.1764709 ], [ 49.740096, -13.1762663 ], [ 49.7408042, -13.1760356 ], [ 49.7410316, -13.1751706 ], [ 49.7407852, -13.1742309 ], [ 49.7402626, -13.1736399 ], [ 49.740289499999989, -13.172524 ], [ 49.7389221, -13.1720634 ], [ 49.7364952, -13.1696311 ], [ 49.7352869, -13.1685004 ], [ 49.7343563, -13.1676574 ], [ 49.7324865, -13.1673957 ], [ 49.7312784, -13.1668199 ], [ 49.7289192, -13.1667086 ], [ 49.726905800000011, -13.1670128 ], [ 49.7254912, -13.1681343 ], [ 49.7246078, -13.1694603 ], [ 49.7225012, -13.1700903 ], [ 49.7223572, -13.1719739 ], [ 49.7224347, -13.1732909 ], [ 49.7231279, -13.1733933 ] ] ], [ [ [ 49.7170408, -13.1635725 ], [ 49.7151929, -13.1624816 ], [ 49.713856, -13.1619094 ], [ 49.712111, -13.1608929 ], [ 49.710522, -13.1605152 ], [ 49.708389, -13.1612085 ], [ 49.7058731, -13.1629758 ], [ 49.7047588, -13.1647478 ], [ 49.702564699999989, -13.1664051 ], [ 49.7044842, -13.1677582 ], [ 49.7054132, -13.1688558 ], [ 49.7077708, -13.1703068 ], [ 49.7095179, -13.1707562 ], [ 49.7114862, -13.17115 ], [ 49.712271699999988, -13.1727964 ], [ 49.7126297, -13.1734231 ], [ 49.7140368, -13.1729405 ], [ 49.7158778, -13.1701018 ], [ 49.7164047, -13.1689568 ], [ 49.7169256, -13.1670348 ], [ 49.7165394, -13.1661411 ], [ 49.7173941, -13.1652042 ], [ 49.7170408, -13.1635725 ] ] ], [ [ [ 49.8993213, -13.0539362 ], [ 49.8968959, -13.0593201 ], [ 49.90132650000001, -13.0702513 ], [ 49.9047746, -13.0708937 ], [ 49.9084874, -13.0711484 ], [ 49.9099434, -13.0686499 ], [ 49.9141409, -13.0676125 ], [ 49.9145105, -13.0656647 ], [ 49.915695199999988, -13.0617352 ], [ 49.9153643, -13.0573531 ], [ 49.9144524, -13.0546064 ], [ 49.9107624, -13.0487157 ], [ 49.9089496, -13.0479425 ], [ 49.9079342, -13.0489338 ], [ 49.9070059, -13.0487194 ], [ 49.9054152, -13.0490653 ], [ 49.9015296, -13.0525134 ], [ 49.8993213, -13.0539362 ] ] ], [ [ [ 49.8351546, -12.8750205 ], [ 49.8358055, -12.8764981 ], [ 49.8375865, -12.8765437 ], [ 49.8392951, -12.8764017 ], [ 49.8405461, -12.8757204 ], [ 49.8412805, -12.8742603 ], [ 49.8408491, -12.8730017 ], [ 49.840273799999984, -12.871137 ], [ 49.8384555, -12.8700659 ], [ 49.8367826, -12.8716993 ], [ 49.8360659, -12.8726324 ], [ 49.8356347, -12.8734013 ], [ 49.8353462, -12.8737534 ], [ 49.8351546, -12.8750205 ] ] ], [ [ [ 49.7927242, -12.8249518 ], [ 49.794883, -12.8222349 ], [ 49.7956741, -12.8194658 ], [ 49.7957805, -12.8177734 ], [ 49.7952038, -12.8153111 ], [ 49.7947307, -12.8149004 ], [ 49.7938891, -12.8148485 ], [ 49.7926794, -12.8147963 ], [ 49.7908903, -12.8155644 ], [ 49.7903628, -12.8175643 ], [ 49.7870985, -12.8212548 ], [ 49.7882021, -12.8226404 ], [ 49.7914094, -12.8245918 ], [ 49.7926189, -12.825003 ], [ 49.7927242, -12.8249518 ] ] ], [ [ [ 49.8725211, -12.8059199 ], [ 49.8705472, -12.8018076 ], [ 49.8688409, -12.7982239 ], [ 49.864785700000013, -12.8011907 ], [ 49.8631003, -12.8074365 ], [ 49.8648124, -12.8104347 ], [ 49.8656658, -12.8122655 ], [ 49.8658826, -12.8129938 ], [ 49.8644261, -12.813998 ], [ 49.8642184, -12.8158726 ], [ 49.8632068, -12.8182179 ], [ 49.8624751, -12.8210712 ], [ 49.8611877, -12.824051 ], [ 49.861035600000015, -12.8250809 ], [ 49.8624462, -12.8269859 ], [ 49.8663462, -12.8319366 ], [ 49.867886699999985, -12.8310357 ], [ 49.8700855, -12.8289416 ], [ 49.8711586, -12.8257842 ], [ 49.871862, -12.8217805 ], [ 49.8724044, -12.8183371 ], [ 49.8738381, -12.8149982 ], [ 49.8745166, -12.8132804 ], [ 49.8735945, -12.8092991 ], [ 49.8725211, -12.8059199 ] ] ], [ [ [ 49.8157066, -12.7976788 ], [ 49.815543, -12.7953396 ], [ 49.8161524, -12.7938166 ], [ 49.8154138, -12.7921407 ], [ 49.8165697, -12.7894579 ], [ 49.8188909, -12.7884898 ], [ 49.8209225, -12.7876783 ], [ 49.8197745, -12.7801194 ], [ 49.8106854, -12.787149 ], [ 49.814615700000012, -12.8074495 ], [ 49.8185703, -12.8060902 ], [ 49.8172707, -12.800789 ], [ 49.8163139, -12.7996189 ], [ 49.8157066, -12.7976788 ] ] ], [ [ [ 49.7873552, -12.7928697 ], [ 49.7891936, -12.7942835 ], [ 49.7903087, -12.7934145 ], [ 49.7904214, -12.7910233 ], [ 49.7909802, -12.7880344 ], [ 49.7904795, -12.7862951 ], [ 49.7900904, -12.7843927 ], [ 49.7888087, -12.7841748 ], [ 49.786913, -12.7856415 ], [ 49.7865777, -12.7874348 ], [ 49.7865758, -12.7911847 ], [ 49.7873552, -12.7928697 ] ] ], [ [ [ 49.752113799999989, -12.7771795 ], [ 49.7506987, -12.7777892 ], [ 49.7504752, -12.7790877 ], [ 49.7510329, -12.7797361 ], [ 49.7519365, -12.7801665 ], [ 49.7532199, -12.7797868 ], [ 49.7536176, -12.7785911 ], [ 49.7531791, -12.7775565 ], [ 49.752113799999989, -12.7771795 ] ] ], [ [ [ 49.7684858, -12.7660677 ], [ 49.7690966, -12.7633495 ], [ 49.7677789, -12.7615328 ], [ 49.7673244, -12.760359 ], [ 49.7689876, -12.7588799 ], [ 49.7703673, -12.7572457 ], [ 49.7708335, -12.7553065 ], [ 49.7702672, -12.7527581 ], [ 49.7695914, -12.749205 ], [ 49.7659582, -12.7516113 ], [ 49.7633483, -12.7546894 ], [ 49.7627431, -12.7573017 ], [ 49.7620727, -12.760102 ], [ 49.7620698, -12.7616614 ], [ 49.7611377, -12.7637366 ], [ 49.760275, -12.7645135 ], [ 49.760937, -12.7650961 ], [ 49.7613981, -12.766906 ], [ 49.7618605, -12.7674871 ], [ 49.7636458, -12.7680681 ], [ 49.7642376, -12.7692929 ], [ 49.7659606, -12.7682621 ], [ 49.7684858, -12.7660677 ] ] ], [ [ [ 49.7268457, -12.7507037 ], [ 49.7269291, -12.7480548 ], [ 49.7264684, -12.7466241 ], [ 49.7254108, -12.7445307 ], [ 49.7242172, -12.7425696 ], [ 49.7237441, -12.7418928 ], [ 49.723219, -12.7411686 ], [ 49.7220466, -12.7412304 ], [ 49.72627, -12.7542468 ], [ 49.727303, -12.7539328 ], [ 49.7276323, -12.7521081 ], [ 49.7268457, -12.7507037 ] ] ], [ [ [ 49.7213867, -12.7400472 ], [ 49.7236404, -12.739505 ], [ 49.7215299, -12.7364774 ], [ 49.7180148, -12.7355208 ], [ 49.7129476, -12.7342772 ], [ 49.710132, -12.7311115 ], [ 49.7068953, -12.727673 ], [ 49.6964768, -12.7324726 ], [ 49.6891512, -12.7375452 ], [ 49.6916854, -12.7402955 ], [ 49.6985871, -12.7352217 ], [ 49.7043605, -12.7317934 ], [ 49.7064722, -12.7311082 ], [ 49.708723899999988, -12.7328966 ], [ 49.7102743, -12.7349636 ], [ 49.7116845, -12.737581 ], [ 49.7152013, -12.7367578 ], [ 49.7184376, -12.7368981 ], [ 49.7213867, -12.7400472 ] ] ] ] } }
]
}
