{
"type": "FeatureCollection",
"name": "MDG-555697906-NODATE-secondary_zoning-001",
"crs": { "type": "name", "properties": { "name": "urn:ogc:def:crs:OGC:1.3:CRS84" } },
"features": [
{ "type": "Feature", "properties": { }, "geometry": { "type": "MultiPolygon", "coordinates": [ [ [ [ 48.5438893, -14.4531192 ], [ 48.5446333, -14.4530011 ], [ 48.5456213, -14.452538 ], [ 48.5469259, -14.4522854 ], [ 48.547475399999989, -14.4515384 ], [ 48.5481431, -14.4508977 ], [ 48.5492073, -14.4502315 ], [ 48.549329, -14.4490084 ], [ 48.5502066, -14.4482401 ], [ 48.5503518, -14.4472157 ], [ 48.550382400000011, -14.4425483 ], [ 48.5507028, -14.4419687 ], [ 48.5513017, -14.441566 ], [ 48.551618300000015, -14.4410146 ], [ 48.552274, -14.4406068 ], [ 48.5525859, -14.4399866 ], [ 48.5525868, -14.4396938 ], [ 48.5526135, -14.4391917 ], [ 48.552587, -14.4384346 ], [ 48.5525905, -14.4377801 ], [ 48.5525563, -14.4370593 ], [ 48.552766199999986, -14.4357257 ], [ 48.5536091, -14.4338263 ], [ 48.5540825, -14.4326246 ], [ 48.5534908, -14.4311735 ], [ 48.5534527, -14.4300311 ], [ 48.5541585, -14.4293176 ], [ 48.5540938, -14.4289001 ], [ 48.5540178, -14.4281763 ], [ 48.5534074, -14.4280264 ], [ 48.5519424, -14.4277324 ], [ 48.5510764, -14.4279343 ], [ 48.55034, -14.4276579 ], [ 48.5493866, -14.4274877 ], [ 48.548803, -14.4267995 ], [ 48.5487533, -14.4265976 ], [ 48.5485813, -14.4262885 ], [ 48.5483528, -14.4261744 ], [ 48.548181, -14.4259398 ], [ 48.5480667, -14.4255962 ], [ 48.5480323, -14.4252982 ], [ 48.5478952, -14.4248881 ], [ 48.5480969, -14.4248273 ], [ 48.5482613, -14.4246878 ], [ 48.5481925, -14.4245415 ], [ 48.5482154, -14.4243435 ], [ 48.5482118, -14.4241728 ], [ 48.5481965, -14.4238113 ], [ 48.548105, -14.4235511 ], [ 48.5481202, -14.4232254 ], [ 48.5480553, -14.4229548 ], [ 48.5480059, -14.4226648 ], [ 48.5478263, -14.4224608 ], [ 48.5476281, -14.4220909 ], [ 48.5475973, -14.4216368 ], [ 48.5480246, -14.4210222 ], [ 48.548387, -14.4206354 ], [ 48.548528, -14.4204735 ], [ 48.548718799999989, -14.4203123 ], [ 48.5490774, -14.4202827 ], [ 48.5495808, -14.4200098 ], [ 48.5497033, -14.4196887 ], [ 48.5495808, -14.4192887 ], [ 48.5498021, -14.4187202 ], [ 48.55005, -14.4179129 ], [ 48.550069, -14.4172402 ], [ 48.5503709, -14.4158876 ], [ 48.550153, -14.4152941 ], [ 48.5497224, -14.4150881 ], [ 48.5494896, -14.415009 ], [ 48.549333, -14.4149552 ], [ 48.5490429, -14.4147682 ], [ 48.5488484, -14.4145203 ], [ 48.5487915, -14.4141309 ], [ 48.5486505, -14.4138961 ], [ 48.5485055, -14.4136138 ], [ 48.5484249, -14.413288 ], [ 48.5486385, -14.4130858 ], [ 48.5488827, -14.4125894 ], [ 48.5486159, -14.4123626 ], [ 48.5484865, -14.4122961 ], [ 48.5482691, -14.4121343 ], [ 48.548139, -14.4120068 ], [ 48.5479788, -14.4118806 ], [ 48.5478336, -14.4117509 ], [ 48.5478681, -14.4115483 ], [ 48.5478377, -14.4113632 ], [ 48.5477688, -14.4111503 ], [ 48.547681100000013, -14.411081 ], [ 48.5475939, -14.4110559 ], [ 48.547502099999988, -14.4109913 ], [ 48.5473497, -14.4108809 ], [ 48.5472008, -14.4108394 ], [ 48.5470898, -14.4108156 ], [ 48.5469641, -14.4108293 ], [ 48.5468457, -14.4108181 ], [ 48.546747, -14.4108032 ], [ 48.5466282, -14.4107603 ], [ 48.5465331, -14.410759 ], [ 48.5464376, -14.410778 ], [ 48.5463579, -14.4107992 ], [ 48.5462661, -14.4108374 ], [ 48.5461781, -14.4108507 ], [ 48.5460869, -14.4108957 ], [ 48.5459954, -14.4109079 ], [ 48.5459418, -14.4109401 ], [ 48.5457741, -14.4109779 ], [ 48.5455601, -14.4109168 ], [ 48.5454079, -14.4108923 ], [ 48.5453161, -14.4108242 ], [ 48.5453011, -14.4107193 ], [ 48.5452892, -14.4105815 ], [ 48.5452363, -14.4104554 ], [ 48.545151900000015, -14.4103149 ], [ 48.545068, -14.4101643 ], [ 48.5450071, -14.4100508 ], [ 48.5449082, -14.4099602 ], [ 48.544828, -14.4098344 ], [ 48.5447593, -14.4096983 ], [ 48.5446411, -14.4096452 ], [ 48.5445535, -14.4095896 ], [ 48.5444961, -14.4095913 ], [ 48.5444199, -14.4095683 ], [ 48.5443361, -14.4095883 ], [ 48.5442366, -14.4096187 ], [ 48.5440917, -14.4096224 ], [ 48.5439735, -14.4096258 ], [ 48.5438401, -14.4096294 ], [ 48.543741, -14.4096282 ], [ 48.5435766, -14.40971 ], [ 48.543489, -14.4097652 ], [ 48.5433669, -14.4098398 ], [ 48.5432754, -14.4098543 ], [ 48.5431721, -14.4099526 ], [ 48.5431192, -14.409944 ], [ 48.5429741, -14.4100438 ], [ 48.542867, -14.4100584 ], [ 48.542764, -14.4100775 ], [ 48.5426765, -14.4101338 ], [ 48.542600299999989, -14.4101752 ], [ 48.5424894, -14.4102114 ], [ 48.5423524, -14.41025 ], [ 48.5421502, -14.4103255 ], [ 48.5419596, -14.4103907 ], [ 48.5417912, -14.4104252 ], [ 48.5416083, -14.4105129 ], [ 48.5413948, -14.4106687 ], [ 48.5408876, -14.4109077 ], [ 48.5402695, -14.4110777 ], [ 48.5388428, -14.4111574 ], [ 48.5381638, -14.4113213 ], [ 48.5374542, -14.4113407 ], [ 48.5367824, -14.4116989 ], [ 48.5357605, -14.4121736 ], [ 48.534929, -14.4126735 ], [ 48.5343183, -14.4121585 ], [ 48.5339258, -14.4114401 ], [ 48.5337923, -14.411039 ], [ 48.5334105, -14.41062 ], [ 48.5328345, -14.4104935 ], [ 48.532079, -14.4099335 ], [ 48.5313812, -14.4101947 ], [ 48.531053, -14.41019 ], [ 48.5308588, -14.4103581 ], [ 48.5305764, -14.4104751 ], [ 48.5304084, -14.4105468 ], [ 48.5302328, -14.4105474 ], [ 48.530019, -14.4110163 ], [ 48.5299088, -14.4114605 ], [ 48.5291647, -14.4115526 ], [ 48.5286725, -14.4126833 ], [ 48.5286958, -14.4136404 ], [ 48.5289015, -14.4146308 ], [ 48.528623200000013, -14.4149727 ], [ 48.5281575, -14.4151819 ], [ 48.5277723, -14.4158367 ], [ 48.5274522, -14.4164469 ], [ 48.5273568, -14.4173159 ], [ 48.5274176, -14.4178126 ], [ 48.5274215, -14.4185756 ], [ 48.5274023, -14.4193568 ], [ 48.5274863, -14.4201314 ], [ 48.527517, -14.4208568 ], [ 48.527505200000014, -14.4217238 ], [ 48.5275702, -14.4221188 ], [ 48.5276391, -14.4226697 ], [ 48.5275433, -14.4233285 ], [ 48.5276925, -14.4242437 ], [ 48.5271963, -14.4250964 ], [ 48.5267729, -14.4260421 ], [ 48.5265749, -14.4267935 ], [ 48.526624199999986, -14.4273604 ], [ 48.526608800000012, -14.4278884 ], [ 48.5265439, -14.4283367 ], [ 48.5265938, -14.4288934 ], [ 48.5266777, -14.4296612 ], [ 48.5266357, -14.4302505 ], [ 48.526414599999988, -14.4306314 ], [ 48.5266357, -14.4308123 ], [ 48.5320981, -14.433027 ], [ 48.5328193, -14.4341163 ], [ 48.5333113, -14.4343092 ], [ 48.5343564, -14.4364408 ], [ 48.5343679, -14.4371585 ], [ 48.5343298, -14.4376754 ], [ 48.5348067, -14.4389762 ], [ 48.5352452, -14.4400999 ], [ 48.5353409, -14.4403759 ], [ 48.5358097, -14.440733 ], [ 48.536584499999982, -14.4414578 ], [ 48.5369735, -14.4422259 ], [ 48.5366571, -14.4430791 ], [ 48.5374502, -14.4436149 ], [ 48.5380516, -14.4438938 ], [ 48.5395639, -14.4447118 ], [ 48.5399793, -14.4461252 ], [ 48.5402997, -14.4472602 ], [ 48.5404408, -14.4477234 ], [ 48.5407082, -14.4482226 ], [ 48.5413224, -14.4486144 ], [ 48.541635, -14.4490623 ], [ 48.5420087, -14.4496418 ], [ 48.5422609, -14.4502983 ], [ 48.5422184, -14.4504502 ], [ 48.5422643, -14.450565 ], [ 48.5422911, -14.4505828 ], [ 48.5422493, -14.4512388 ], [ 48.5425045, -14.4519156 ], [ 48.5424705, -14.4522132 ], [ 48.5432526, -14.4529594 ], [ 48.5438893, -14.4531192 ] ] ], [ [ [ 48.588007, -14.2801056 ], [ 48.5877475, -14.2800065 ], [ 48.5876064, -14.2800294 ], [ 48.5875074, -14.2800937 ], [ 48.5868841, -14.2801769 ], [ 48.5865236, -14.2802777 ], [ 48.5862273, -14.2805373 ], [ 48.5862009, -14.2807274 ], [ 48.5862176, -14.2809341 ], [ 48.5861691, -14.2811629 ], [ 48.5860731, -14.2814567 ], [ 48.5860682, -14.2814895 ], [ 48.5859252, -14.2817193 ], [ 48.5857959, -14.28182 ], [ 48.5856676, -14.2819615 ], [ 48.5854856, -14.2820741 ], [ 48.5853324, -14.2821096 ], [ 48.5853035, -14.2821099 ], [ 48.5849958, -14.282174 ], [ 48.5848912, -14.2823638 ], [ 48.5847173, -14.2823531 ], [ 48.584507, -14.2823067 ], [ 48.5842959, -14.2824591 ], [ 48.58413920000001, -14.2825997 ], [ 48.5839945, -14.2827843 ], [ 48.5839541, -14.2827938 ], [ 48.583755, -14.2827664 ], [ 48.5835755, -14.2826721 ], [ 48.5835796, -14.2823974 ], [ 48.583425899999988, -14.2822814 ], [ 48.583216500000013, -14.2820959 ], [ 48.5829359, -14.282032 ], [ 48.5828798, -14.2817669 ], [ 48.5827901, -14.2816152 ], [ 48.582553, -14.2815577 ], [ 48.5820348, -14.2815991 ], [ 48.581746, -14.2815771 ], [ 48.5814148, -14.2816087 ], [ 48.5813837, -14.2816204 ], [ 48.5810637, -14.2816078 ], [ 48.5807914, -14.2814534 ], [ 48.5803811, -14.2815626 ], [ 48.580024800000011, -14.2817403 ], [ 48.5798486, -14.2820608 ], [ 48.579648, -14.2823262 ], [ 48.5791993, -14.2825884 ], [ 48.579164099999986, -14.2826035 ], [ 48.5791347, -14.2826151 ], [ 48.5788992, -14.282761 ], [ 48.578867, -14.2827805 ], [ 48.5786021, -14.2830477 ], [ 48.5781816, -14.2834035 ], [ 48.5781212, -14.2834482 ], [ 48.5775023, -14.2838297 ], [ 48.5769947, -14.2841106 ], [ 48.5763382, -14.2844472 ], [ 48.5756117, -14.2847394 ], [ 48.5756477, -14.285129 ], [ 48.5756516, -14.2855585 ], [ 48.5754866, -14.2857907 ], [ 48.5754175, -14.285831 ], [ 48.5750589, -14.2858979 ], [ 48.575030700000013, -14.2859185 ], [ 48.5744259, -14.2859958 ], [ 48.5740774, -14.2860897 ], [ 48.5736664, -14.2862973 ], [ 48.5732511, -14.2865298 ], [ 48.5732286, -14.2865447 ], [ 48.57296, -14.2865678 ], [ 48.5726984, -14.2867105 ], [ 48.5726806, -14.2867299 ], [ 48.5723111, -14.2866466 ], [ 48.571805, -14.2866302 ], [ 48.571349, -14.2866336 ], [ 48.5708831, -14.2865287 ], [ 48.5707122, -14.2864739 ], [ 48.570357699999988, -14.2865486 ], [ 48.5700032, -14.2867839 ], [ 48.5696095, -14.2868783 ], [ 48.5693829, -14.2868195 ], [ 48.5692093, -14.2867308 ], [ 48.5689531, -14.2866757 ], [ 48.568665599999989, -14.2866176 ], [ 48.5686297, -14.2866179 ], [ 48.568367, -14.286104 ], [ 48.5682672, -14.2854336 ], [ 48.567358, -14.28483 ], [ 48.5659242, -14.2854853 ], [ 48.5657576, -14.2856825 ], [ 48.5653731, -14.2870326 ], [ 48.5651336, -14.2879042 ], [ 48.565056, -14.2885708 ], [ 48.5650352, -14.2888524 ], [ 48.5637337, -14.288974 ], [ 48.56371, -14.288981 ], [ 48.5629034, -14.2894864 ], [ 48.562880600000014, -14.2895194 ], [ 48.5626593, -14.2899161 ], [ 48.5626381, -14.2899389 ], [ 48.5625338, -14.2904351 ], [ 48.5623072, -14.2913732 ], [ 48.562215199999983, -14.2916059 ], [ 48.5621138, -14.2924953 ], [ 48.5620803, -14.2925612 ], [ 48.5620643, -14.2926315 ], [ 48.5620221, -14.2931914 ], [ 48.5620143, -14.293222 ], [ 48.5618723, -14.2938835 ], [ 48.5618584, -14.2939425 ], [ 48.5618526, -14.2940002 ], [ 48.5616544, -14.2946046 ], [ 48.561514, -14.2950356 ], [ 48.560861, -14.2951596 ], [ 48.5601329, -14.2960802 ], [ 48.5585839, -14.2964167 ], [ 48.5584711, -14.2963816 ], [ 48.5580954, -14.2962622 ], [ 48.5562311, -14.2948859 ], [ 48.5561062, -14.2948567 ], [ 48.5558558, -14.2947981 ], [ 48.5554781, -14.2947081 ], [ 48.5543648, -14.2938239 ], [ 48.5540854, -14.2934842 ], [ 48.5539388, -14.2932675 ], [ 48.5522081, -14.2919114 ], [ 48.5504477, -14.2912201 ], [ 48.5496845, -14.2908898 ], [ 48.5484517, -14.2908737 ], [ 48.5481298, -14.290912 ], [ 48.547156, -14.2901112 ], [ 48.5461326, -14.2888961 ], [ 48.5445873, -14.2879269 ], [ 48.5440616, -14.2876936 ], [ 48.5432787, -14.2876482 ], [ 48.5421908, -14.2867445 ], [ 48.541648, -14.2871501 ], [ 48.5419848, -14.2883867 ], [ 48.542092, -14.2894979 ], [ 48.5419977, -14.2900719 ], [ 48.5404684, -14.2914695 ], [ 48.5389228, -14.2908066 ], [ 48.537709499999984, -14.2918856 ], [ 48.5368177, -14.2923432 ], [ 48.5367808, -14.293145 ], [ 48.5371003, -14.293768 ], [ 48.5370167, -14.2945996 ], [ 48.5372311, -14.2949264 ], [ 48.5372178, -14.2973794 ], [ 48.537244900000012, -14.2979285 ], [ 48.537201, -14.2986625 ], [ 48.5374104, -14.2992946 ], [ 48.5377394, -14.3002216 ], [ 48.5379332, -14.3008572 ], [ 48.537283, -14.3009823 ], [ 48.5366429, -14.301122 ], [ 48.5354745, -14.3013427 ], [ 48.5346986, -14.301911 ], [ 48.5344208, -14.3024009 ], [ 48.534247, -14.3027383 ], [ 48.5335545, -14.3031385 ], [ 48.5328221, -14.3040466 ], [ 48.5321998, -14.3044021 ], [ 48.5314633, -14.3045811 ], [ 48.5314668, -14.3052525 ], [ 48.5310392, -14.3056524 ], [ 48.5306524, -14.3060812 ], [ 48.5300574, -14.3062136 ], [ 48.5301469, -14.3067452 ], [ 48.5296662, -14.3069963 ], [ 48.5289488, -14.3068937 ], [ 48.5284112, -14.3068109 ], [ 48.5278793, -14.3068805 ], [ 48.5273396, -14.3069763 ], [ 48.526924199999989, -14.3071058 ], [ 48.5264734, -14.3077297 ], [ 48.526909, -14.3082668 ], [ 48.5267718, -14.3083971 ], [ 48.527692, -14.3104497 ], [ 48.5284509, -14.3114245 ], [ 48.5292431, -14.3126997 ], [ 48.5295406, -14.3146194 ], [ 48.530136, -14.3167013 ], [ 48.529413, -14.3181937 ], [ 48.5290864, -14.3185552 ], [ 48.5259878, -14.3179335 ], [ 48.5191993, -14.3161239 ], [ 48.5182691, -14.3168542 ], [ 48.5176266, -14.3175014 ], [ 48.5174689, -14.3186208 ], [ 48.517448, -14.319124 ], [ 48.517178800000011, -14.3197766 ], [ 48.5170878, -14.3198894 ], [ 48.516806599999981, -14.3202742 ], [ 48.5161864, -14.3207765 ], [ 48.515649099999983, -14.3225191 ], [ 48.5152341, -14.3231426 ], [ 48.5154931, -14.3238081 ], [ 48.5156044, -14.3243134 ], [ 48.5154673, -14.3250133 ], [ 48.5152744, -14.3260404 ], [ 48.5151321, -14.3269653 ], [ 48.5160854, -14.3283485 ], [ 48.516147, -14.3283694 ], [ 48.516846799999982, -14.3287277 ], [ 48.5168759, -14.3287895 ], [ 48.51695669999998, -14.3288113 ], [ 48.5180791, -14.3294548 ], [ 48.518110600000014, -14.3294692 ], [ 48.5192266, -14.330332 ], [ 48.5201011, -14.3325626 ], [ 48.5207559, -14.3343432 ], [ 48.5207836, -14.3343837 ], [ 48.5219039, -14.3359902 ], [ 48.5225805, -14.3373026 ], [ 48.5231189, -14.3384062 ], [ 48.5233169, -14.3390553 ], [ 48.5237444, -14.3394795 ], [ 48.523765, -14.3395121 ], [ 48.5238292, -14.3395533 ], [ 48.5244787, -14.3400284 ], [ 48.5246656, -14.3405036 ], [ 48.5250692, -14.3410716 ], [ 48.5249674, -14.3417655 ], [ 48.5249872, -14.34178 ], [ 48.525379, -14.34233 ], [ 48.5258588, -14.3427084 ], [ 48.5263408, -14.3422923 ], [ 48.5269667, -14.3422183 ], [ 48.52753569999998, -14.3424184 ], [ 48.5285483, -14.3422999 ], [ 48.5295002, -14.3440425 ], [ 48.5304488, -14.3447962 ], [ 48.5313917, -14.3458833 ], [ 48.5321216, -14.3466221 ], [ 48.533888, -14.346469 ], [ 48.535636, -14.3472735 ], [ 48.539321699999988, -14.3470596 ], [ 48.5418775, -14.3464996 ], [ 48.5434161, -14.3470201 ], [ 48.5457414, -14.3488135 ], [ 48.5484252, -14.3495193 ], [ 48.5505279, -14.3485399 ], [ 48.5517253, -14.3485743 ], [ 48.5524743, -14.3485827 ], [ 48.5535196, -14.3485949 ], [ 48.5544387, -14.3487316 ], [ 48.5559966, -14.3489319 ], [ 48.5580166, -14.3491898 ], [ 48.5593461, -14.3488849 ], [ 48.560568, -14.3476045 ], [ 48.5625919, -14.3442091 ], [ 48.5682869, -14.341766 ], [ 48.5680214, -14.3428097 ], [ 48.568471, -14.343723 ], [ 48.5693953, -14.343317 ], [ 48.569904799999982, -14.3433639 ], [ 48.5700709, -14.3437262 ], [ 48.5696885, -14.3439617 ], [ 48.5698987, -14.3444931 ], [ 48.570356, -14.3443744 ], [ 48.5706911, -14.3445428 ], [ 48.5710972, -14.3444122 ], [ 48.5717311, -14.3448286 ], [ 48.5721691, -14.3448061 ], [ 48.5724512, -14.3451717 ], [ 48.572667100000011, -14.3452555 ], [ 48.572930899999989, -14.3450946 ], [ 48.5731052, -14.3449606 ], [ 48.5732454, -14.3446856 ], [ 48.573398299999987, -14.3440669 ], [ 48.5741513, -14.3431913 ], [ 48.5744946, -14.3429267 ], [ 48.5751485, -14.3427698 ], [ 48.5755433, -14.3424471 ], [ 48.5759977, -14.3425443 ], [ 48.5761968, -14.3425151 ], [ 48.5763489, -14.3425396 ], [ 48.5764433, -14.3426381 ], [ 48.5765837, -14.3428209 ], [ 48.5766794, -14.3425996 ], [ 48.5768438, -14.342581 ], [ 48.5769901, -14.342497 ], [ 48.577136, -14.3424266 ], [ 48.5772991, -14.3423368 ], [ 48.5774056, -14.3424284 ], [ 48.5775587, -14.3423206 ], [ 48.5777285, -14.342103 ], [ 48.5777684, -14.3419782 ], [ 48.5777028, -14.3418116 ], [ 48.5777092, -14.3415934 ], [ 48.5779187, -14.3416173 ], [ 48.5779993, -14.3416131 ], [ 48.577967, -14.3417468 ], [ 48.5779787, -14.3418111 ], [ 48.5780303, -14.3418637 ], [ 48.5780446, -14.3419529 ], [ 48.5781582, -14.3419574 ], [ 48.5783227, -14.341941 ], [ 48.5784437, -14.3419794 ], [ 48.5784768, -14.3419847 ], [ 48.5787347, -14.3420363 ], [ 48.5789141, -14.3421204 ], [ 48.579139100000013, -14.3422335 ], [ 48.5792501, -14.3424245 ], [ 48.5793088, -14.3424996 ], [ 48.5793808, -14.3425091 ], [ 48.5794136, -14.3423788 ], [ 48.5794428, -14.3422338 ], [ 48.5796064, -14.3420796 ], [ 48.5797344, -14.3420737 ], [ 48.579778, -14.3422451 ], [ 48.5798769, -14.3422238 ], [ 48.579975, -14.342181 ], [ 48.5800507, -14.3420502 ], [ 48.5800448, -14.3419858 ], [ 48.5801, -14.3417773 ], [ 48.5802514, -14.3416311 ], [ 48.580437900000014, -14.3415083 ], [ 48.5805552, -14.3413048 ], [ 48.5807827, -14.3413307 ], [ 48.5809948, -14.341323 ], [ 48.5811028, -14.3411817 ], [ 48.5810365, -14.3409981 ], [ 48.581206099999982, -14.3410247 ], [ 48.5813219, -14.3410676 ], [ 48.58144, -14.3409432 ], [ 48.5818568, -14.3409989 ], [ 48.5822681, -14.3414164 ], [ 48.5828598, -14.3418897 ], [ 48.5831076, -14.3423054 ], [ 48.5833506, -14.3425889 ], [ 48.5833814, -14.3436296 ], [ 48.5832967, -14.3443889 ], [ 48.58415990000001, -14.3445622 ], [ 48.5851005, -14.3447031 ], [ 48.5860925, -14.344996 ], [ 48.5868538, -14.3455105 ], [ 48.5873942, -14.3461166 ], [ 48.5881176, -14.3461714 ], [ 48.5888436, -14.3460364 ], [ 48.5914279, -14.3459368 ], [ 48.5923627, -14.3467863 ], [ 48.5937156, -14.3484162 ], [ 48.5942253, -14.3487026 ], [ 48.5949161, -14.3490664 ], [ 48.5951529, -14.3493658 ], [ 48.5951689, -14.3496109 ], [ 48.5950509, -14.3497488 ], [ 48.5946967, -14.3501808 ], [ 48.5943126, -14.3507974 ], [ 48.5939267, -14.3510872 ], [ 48.5936526, -14.3510448 ], [ 48.5933184, -14.3511194 ], [ 48.5929522, -14.351304 ], [ 48.5926241, -14.3513028 ], [ 48.5921265, -14.3514423 ], [ 48.591864, -14.3516733 ], [ 48.5918448, -14.3520962 ], [ 48.5919125, -14.3523035 ], [ 48.5919972, -14.3528554 ], [ 48.5918558, -14.3531857 ], [ 48.591530100000014, -14.3531936 ], [ 48.5910508, -14.3530379 ], [ 48.5909148, -14.3526776 ], [ 48.5905928, -14.3526582 ], [ 48.5903445, -14.3527478 ], [ 48.5901519, -14.3528413 ], [ 48.5897718, -14.3528576 ], [ 48.5895886, -14.3529069 ], [ 48.5894256, -14.3530057 ], [ 48.5893021, -14.3531155 ], [ 48.5893734, -14.3533917 ], [ 48.5894961, -14.3536414 ], [ 48.5896021, -14.3537974 ], [ 48.5896029, -14.3539817 ], [ 48.5896601, -14.3541326 ], [ 48.5897926, -14.3542171 ], [ 48.5899312, -14.3542779 ], [ 48.5899545, -14.3543421 ], [ 48.5899587, -14.354402 ], [ 48.5899222, -14.3545154 ], [ 48.5898555, -14.3546257 ], [ 48.5897919, -14.3546975 ], [ 48.5897428, -14.3548167 ], [ 48.5896238, -14.3550768 ], [ 48.5895592, -14.3552741 ], [ 48.5896161, -14.3555007 ], [ 48.5896535, -14.3555207 ], [ 48.5898318, -14.3555528 ], [ 48.589889, -14.3555963 ], [ 48.5898993, -14.3557443 ], [ 48.5898959, -14.3559726 ], [ 48.5899309, -14.3560989 ], [ 48.589931, -14.3563283 ], [ 48.5899075, -14.3565184 ], [ 48.5897067, -14.3567126 ], [ 48.5893957, -14.3567429 ], [ 48.5891817, -14.3567812 ], [ 48.589315700000014, -14.3570105 ], [ 48.5895196, -14.357326 ], [ 48.5895892, -14.3576509 ], [ 48.5897667, -14.3578797 ], [ 48.5897937, -14.357911 ], [ 48.590058, -14.3580711 ], [ 48.5901662, -14.358165 ], [ 48.5903099, -14.3581601 ], [ 48.5904588, -14.3581462 ], [ 48.5905564, -14.3582752 ], [ 48.5904807, -14.358467 ], [ 48.5906068, -14.3586036 ], [ 48.5906275, -14.3586351 ], [ 48.5907419, -14.3587707 ], [ 48.590737, -14.3588012 ], [ 48.5905964, -14.3589835 ], [ 48.5903803, -14.3591044 ], [ 48.590375599999987, -14.3592095 ], [ 48.5904486, -14.359479 ], [ 48.5904828, -14.359638 ], [ 48.5904961, -14.3597972 ], [ 48.5906649, -14.3599165 ], [ 48.5907619, -14.360206 ], [ 48.590703, -14.3603999 ], [ 48.590830399999987, -14.3607117 ], [ 48.5909404, -14.3609174 ], [ 48.5907971, -14.3610115 ], [ 48.5905787, -14.3609211 ], [ 48.5904709, -14.3608679 ], [ 48.5903033, -14.3609679 ], [ 48.5903033, -14.361185 ], [ 48.5903032, -14.3614495 ], [ 48.5903074, -14.3615704 ], [ 48.5901724, -14.361635 ], [ 48.5901183, -14.3617249 ], [ 48.5902849, -14.3618012 ], [ 48.5904613, -14.3618141 ], [ 48.590620399999985, -14.3617334 ], [ 48.5906923, -14.3618977 ], [ 48.5906395, -14.3620033 ], [ 48.590529, -14.362079 ], [ 48.5904541, -14.3622787 ], [ 48.5903741, -14.3626107 ], [ 48.5904047, -14.3628681 ], [ 48.5905296, -14.3631144 ], [ 48.5905738, -14.3632349 ], [ 48.5905221, -14.3633338 ], [ 48.5903078, -14.3632398 ], [ 48.5899937, -14.3630916 ], [ 48.5897828, -14.3632655 ], [ 48.590096, -14.3634398 ], [ 48.5901171, -14.3634611 ], [ 48.5902968, -14.363622 ], [ 48.5902579, -14.363836 ], [ 48.5900897, -14.3640491 ], [ 48.5900599, -14.3642947 ], [ 48.589988600000012, -14.3646831 ], [ 48.5901063, -14.3651182 ], [ 48.5904909, -14.3654727 ], [ 48.590294, -14.3659256 ], [ 48.5899556, -14.3661009 ], [ 48.5899383, -14.366161 ], [ 48.5896486, -14.3663481 ], [ 48.5894492, -14.3665683 ], [ 48.5893554, -14.3668484 ], [ 48.5893137, -14.3669596 ], [ 48.5895072, -14.367108 ], [ 48.5895169, -14.367256 ], [ 48.5895015, -14.367394 ], [ 48.5893793, -14.3675094 ], [ 48.5893598, -14.367643 ], [ 48.5894125, -14.3677465 ], [ 48.589585, -14.3677221 ], [ 48.5896664, -14.3677993 ], [ 48.58986, -14.3678505 ], [ 48.5901579, -14.3678407 ], [ 48.5903943, -14.3678292 ], [ 48.59072, -14.3677683 ], [ 48.5910274, -14.3677267 ], [ 48.5912485, -14.3676963 ], [ 48.591694399999987, -14.3677019 ], [ 48.592084299999982, -14.3677341 ], [ 48.5921736, -14.3677344 ], [ 48.5924107, -14.3675647 ], [ 48.5924795, -14.3673922 ], [ 48.5926003, -14.3671886 ], [ 48.5927879, -14.3670556 ], [ 48.5929095, -14.3669368 ], [ 48.5931342, -14.3668645 ], [ 48.5932417, -14.3668329 ], [ 48.5933, -14.366917 ], [ 48.5934109, -14.3670357 ], [ 48.5934651, -14.3672839 ], [ 48.5935381, -14.3675555 ], [ 48.5936637, -14.3678063 ], [ 48.5936351, -14.368166 ], [ 48.5931894, -14.3684 ], [ 48.5929396, -14.3684613 ], [ 48.592595900000013, -14.3690119 ], [ 48.5922619, -14.3690605 ], [ 48.592, -14.3693423 ], [ 48.5918392, -14.3694807 ], [ 48.5917044, -14.3697794 ], [ 48.5915962, -14.3701286 ], [ 48.591607, -14.3704348 ], [ 48.5915897, -14.3705028 ], [ 48.5915923, -14.3709029 ], [ 48.59167, -14.3711282 ], [ 48.5917684, -14.3712153 ], [ 48.5919909, -14.3712617 ], [ 48.592195, -14.3712144 ], [ 48.5923502, -14.3711959 ], [ 48.5924898, -14.3712352 ], [ 48.592758200000013, -14.3713489 ], [ 48.5932403, -14.3715452 ], [ 48.5934417, -14.371672 ], [ 48.5936372, -14.3719526 ], [ 48.5938234, -14.3721813 ], [ 48.5939986, -14.3723547 ], [ 48.59418740000001, -14.3725043 ], [ 48.5943754, -14.372681 ], [ 48.5944657, -14.3727727 ], [ 48.5945808, -14.3728055 ], [ 48.5946718, -14.3728057 ], [ 48.5947996, -14.3728304 ], [ 48.5949164, -14.3729095 ], [ 48.5950673, -14.3730357 ], [ 48.5951461, -14.3730812 ], [ 48.5951765, -14.3732132 ], [ 48.5951166, -14.3733562 ], [ 48.5950821, -14.3734956 ], [ 48.5950611, -14.3736472 ], [ 48.5950305, -14.3739256 ], [ 48.5950538, -14.3741006 ], [ 48.595097, -14.374238 ], [ 48.5951379, -14.3743258 ], [ 48.5951352, -14.3744501 ], [ 48.5952383, -14.3745486 ], [ 48.595311500000015, -14.3746202 ], [ 48.5954433, -14.3746934 ], [ 48.5954933, -14.3747596 ], [ 48.5955671, -14.3747238 ], [ 48.5956411, -14.3748135 ], [ 48.5958334, -14.3748489 ], [ 48.5960253, -14.3748492 ], [ 48.5961214, -14.3748414 ], [ 48.596151, -14.3748377 ], [ 48.5963052, -14.3747819 ], [ 48.5965142, -14.3747074 ], [ 48.596773399999989, -14.3747071 ], [ 48.596911899999988, -14.3748639 ], [ 48.5971037, -14.3752372 ], [ 48.5972202, -14.375565 ], [ 48.5973165, -14.3758375 ], [ 48.6017797, -14.3735304 ], [ 48.605215799999989, -14.3720136 ], [ 48.605969, -14.3715425 ], [ 48.6068035, -14.3706954 ], [ 48.6075711, -14.3695075 ], [ 48.6078992, -14.3688621 ], [ 48.6082465, -14.3678921 ], [ 48.6076315, -14.3675175 ], [ 48.6076375, -14.3669964 ], [ 48.6079003, -14.3663121 ], [ 48.6082482, -14.3654551 ], [ 48.608279, -14.3648648 ], [ 48.6086986, -14.3645859 ], [ 48.6096, -14.3635017 ], [ 48.6096893, -14.3620947 ], [ 48.6096335, -14.3616997 ], [ 48.6094109, -14.3613741 ], [ 48.609008499999987, -14.3609973 ], [ 48.6089869, -14.3604878 ], [ 48.60984, -14.3605797 ], [ 48.6106532, -14.3606245 ], [ 48.6111604, -14.3605074 ], [ 48.611478, -14.3602849 ], [ 48.611606, -14.3602768 ], [ 48.6117426, -14.3602573 ], [ 48.6119474, -14.3603762 ], [ 48.6121266, -14.3604388 ], [ 48.6123074, -14.3605432 ], [ 48.612468, -14.3607066 ], [ 48.612728, -14.3608362 ], [ 48.6128842, -14.3608617 ], [ 48.613077899999986, -14.3609196 ], [ 48.613322, -14.3609307 ], [ 48.6135143, -14.3609118 ], [ 48.613793, -14.3608976 ], [ 48.6141029, -14.360934 ], [ 48.6143381, -14.3609712 ], [ 48.6145132, -14.3608654 ], [ 48.6149618, -14.360585 ], [ 48.615191, -14.360178 ], [ 48.6153345, -14.3596114 ], [ 48.61577290000001, -14.3589197 ], [ 48.6162136, -14.3587174 ], [ 48.6162156, -14.3586891 ], [ 48.616414, -14.3579976 ], [ 48.6172503, -14.357607 ], [ 48.6177503, -14.3567733 ], [ 48.6185056, -14.3564457 ], [ 48.6187837, -14.3563231 ], [ 48.6193256, -14.3555026 ], [ 48.619523799999989, -14.3545838 ], [ 48.6193716, -14.3534245 ], [ 48.6192834, -14.3521211 ], [ 48.6195276, -14.3505191 ], [ 48.6198785, -14.349461 ], [ 48.6206304, -14.3488203 ], [ 48.6213132, -14.3481679 ], [ 48.621484899999984, -14.3472099 ], [ 48.6217897, -14.3462889 ], [ 48.6220227, -14.3455349 ], [ 48.6224616, -14.3445685 ], [ 48.6226751, -14.3436778 ], [ 48.6230986, -14.3423657 ], [ 48.6239147, -14.3401566 ], [ 48.6238306, -14.3393425 ], [ 48.6237886, -14.3382951 ], [ 48.6242806, -14.3375361 ], [ 48.6246509, -14.336983 ], [ 48.6241971, -14.3361851 ], [ 48.6241551, -14.3353536 ], [ 48.6242774, -14.3347612 ], [ 48.6246775, -14.3343999 ], [ 48.6249867, -14.3342114 ], [ 48.6250555, -14.3339733 ], [ 48.6251586, -14.3336467 ], [ 48.6252231, -14.3332346 ], [ 48.625268699999985, -14.3327831 ], [ 48.6253947, -14.3325388 ], [ 48.6255971, -14.3322757 ], [ 48.6256541, -14.3319755 ], [ 48.6255285, -14.3315597 ], [ 48.6253111, -14.3313393 ], [ 48.625150500000011, -14.3312336 ], [ 48.6249257, -14.3310776 ], [ 48.6247232, -14.3310073 ], [ 48.6245366, -14.330851 ], [ 48.624468, -14.3306697 ], [ 48.6244488, -14.3305038 ], [ 48.6242138, -14.3303694 ], [ 48.6213725, -14.3304867 ], [ 48.6207449, -14.3307655 ], [ 48.620032799999983, -14.3310045 ], [ 48.6193466, -14.3310116 ], [ 48.618697, -14.3309187 ], [ 48.6183798, -14.3309649 ], [ 48.617819600000011, -14.3309921 ], [ 48.6173247, -14.3310028 ], [ 48.616899, -14.3309224 ], [ 48.616384, -14.3310023 ], [ 48.6156297, -14.3313107 ], [ 48.6151226, -14.3312616 ], [ 48.6146243, -14.3307987 ], [ 48.6142585, -14.330304 ], [ 48.6140873, -14.3298005 ], [ 48.6142461, -14.3279089 ], [ 48.614553, -14.3265811 ], [ 48.6145702, -14.3244626 ], [ 48.6149216, -14.3237786 ], [ 48.6152402, -14.3234905 ], [ 48.614653, -14.3221876 ], [ 48.6143877, -14.3216127 ], [ 48.6140719, -14.321348 ], [ 48.6133036, -14.3206166 ], [ 48.6133552, -14.3193241 ], [ 48.6136495, -14.3186621 ], [ 48.6142868, -14.3179933 ], [ 48.6145041, -14.3172326 ], [ 48.6146482, -14.3168321 ], [ 48.6147698, -14.3163381 ], [ 48.6148743, -14.3158057 ], [ 48.6151992, -14.3150835 ], [ 48.615350799999987, -14.3144682 ], [ 48.615599, -14.3138372 ], [ 48.6143021, -14.3138561 ], [ 48.6122621, -14.3135412 ], [ 48.6109189, -14.3121669 ], [ 48.6112901, -14.3102992 ], [ 48.6129604, -14.3072687 ], [ 48.6135865, -14.3027432 ], [ 48.614132299999987, -14.3023556 ], [ 48.6145915, -14.3017755 ], [ 48.6150336, -14.3006904 ], [ 48.6150021, -14.2996429 ], [ 48.6147776, -14.2987048 ], [ 48.6153475, -14.29765 ], [ 48.615696199999988, -14.2963307 ], [ 48.6156136, -14.295338 ], [ 48.6157019, -14.293844 ], [ 48.6155875, -14.2928527 ], [ 48.6145379, -14.292253 ], [ 48.6138517, -14.2920871 ], [ 48.6130772, -14.2921199 ], [ 48.6119404, -14.2921371 ], [ 48.6112423, -14.2925455 ], [ 48.6104909, -14.2925611 ], [ 48.609915, -14.2923646 ], [ 48.6097583, -14.2921277 ], [ 48.6098082, -14.2918096 ], [ 48.609751, -14.2912811 ], [ 48.6094801, -14.2909911 ], [ 48.6091139, -14.2905574 ], [ 48.6087211, -14.2904077 ], [ 48.6084805, -14.2900767 ], [ 48.6079999, -14.2890304 ], [ 48.6075841, -14.2884107 ], [ 48.6073133, -14.2880156 ], [ 48.6071261, -14.2876377 ], [ 48.6067679, -14.2869258 ], [ 48.6065042, -14.2863272 ], [ 48.6058558, -14.2856296 ], [ 48.605470399999987, -14.2850875 ], [ 48.604658300000011, -14.2839281 ], [ 48.6043413, -14.2836058 ], [ 48.6036207, -14.282927 ], [ 48.6030366, -14.2823961 ], [ 48.6026746, -14.2818108 ], [ 48.601862200000014, -14.281983 ], [ 48.6011599, -14.281824 ], [ 48.6005, -14.2817877 ], [ 48.5998591, -14.2815173 ], [ 48.5994814, -14.2812634 ], [ 48.598871299999985, -14.2811644 ], [ 48.5983603, -14.2811742 ], [ 48.5977803, -14.2812332 ], [ 48.597296, -14.2811951 ], [ 48.5970248, -14.281147 ], [ 48.5966246, -14.2811703 ], [ 48.5962541, -14.281044 ], [ 48.5958345, -14.2808188 ], [ 48.5954494, -14.280686 ], [ 48.5949611, -14.2803778 ], [ 48.5947321, -14.2801529 ], [ 48.594389, -14.2799303 ], [ 48.5941104, -14.2797828 ], [ 48.5933971, -14.2796781 ], [ 48.5929011, -14.2796311 ], [ 48.592398, -14.2795616 ], [ 48.5923673, -14.2799496 ], [ 48.5922797, -14.2802083 ], [ 48.591833, -14.2802715 ], [ 48.5914595, -14.2801397 ], [ 48.5912722, -14.2798499 ], [ 48.5909442, -14.2797414 ], [ 48.5904828, -14.2800026 ], [ 48.5898835, -14.2801647 ], [ 48.5893228, -14.28002 ], [ 48.5887394, -14.2799818 ], [ 48.588548900000013, -14.2802177 ], [ 48.588346699999988, -14.2802254 ], [ 48.588007, -14.2801056 ] ], [ [ 48.5668652, -14.3056276 ], [ 48.5667794, -14.3056782 ], [ 48.5666815, -14.3057413 ], [ 48.566613300000014, -14.3057556 ], [ 48.5664962, -14.3057533 ], [ 48.5664205, -14.3057213 ], [ 48.5663321, -14.3056894 ], [ 48.5662502, -14.3056722 ], [ 48.5661678, -14.3056696 ], [ 48.5660634, -14.3056571 ], [ 48.5659906, -14.3056262 ], [ 48.5659328, -14.3055872 ], [ 48.5658615, -14.3055834 ], [ 48.5657769, -14.3055831 ], [ 48.5657368, -14.3055202 ], [ 48.5656726, -14.3054734 ], [ 48.5656213, -14.3055055 ], [ 48.5655877, -14.305559 ], [ 48.5654903, -14.3055554 ], [ 48.5653769, -14.3055249 ], [ 48.5653023, -14.3053685 ], [ 48.5651983, -14.3052939 ], [ 48.5650472, -14.3052535 ], [ 48.5649632, -14.3051481 ], [ 48.5648587, -14.3050701 ], [ 48.5647522, -14.3050858 ], [ 48.5646319, -14.3050576 ], [ 48.5644811, -14.3049924 ], [ 48.5643833, -14.3049539 ], [ 48.5643052, -14.3049117 ], [ 48.5642276, -14.3048548 ], [ 48.5641046, -14.3048436 ], [ 48.5638977, -14.3048434 ], [ 48.5637484, -14.3048709 ], [ 48.5636577, -14.3048967 ], [ 48.5636021, -14.3048972 ], [ 48.5635352, -14.3048776 ], [ 48.5634821, -14.3048431 ], [ 48.5634172, -14.3047917 ], [ 48.5633263, -14.3047463 ], [ 48.5632729, -14.3047898 ], [ 48.563220600000015, -14.3048287 ], [ 48.563052, -14.3048372 ], [ 48.5628828, -14.3048366 ], [ 48.56269180000001, -14.3048091 ], [ 48.5625339, -14.3047316 ], [ 48.5624167, -14.3046582 ], [ 48.5622593, -14.3046326 ], [ 48.5621303, -14.3045988 ], [ 48.561999, -14.3046759 ], [ 48.5618854, -14.3046793 ], [ 48.5618122, -14.3046665 ], [ 48.5617878, -14.304652 ], [ 48.5616941, -14.3045682 ], [ 48.5616013, -14.3045035 ], [ 48.5615479, -14.304443 ], [ 48.5614765, -14.3043771 ], [ 48.5613499, -14.3042969 ], [ 48.561277, -14.3042491 ], [ 48.5612171, -14.3041784 ], [ 48.5611603, -14.3040671 ], [ 48.5611471, -14.3039644 ], [ 48.5612329, -14.3038595 ], [ 48.5613284, -14.3037908 ], [ 48.5613525, -14.3037159 ], [ 48.561335, -14.3035974 ], [ 48.5613305, -14.3034358 ], [ 48.5613241, -14.3033296 ], [ 48.5613039, -14.303227 ], [ 48.5612774, -14.3031278 ], [ 48.5612751, -14.3030249 ], [ 48.5613504, -14.30291 ], [ 48.5614634, -14.3028501 ], [ 48.5615129, -14.3027671 ], [ 48.56148, -14.3026634 ], [ 48.5614293, -14.3025792 ], [ 48.5614138, -14.3024312 ], [ 48.5615226, -14.3023035 ], [ 48.5615847, -14.3022046 ], [ 48.5616333, -14.3020888 ], [ 48.5616378, -14.3019633 ], [ 48.5616628, -14.3018579 ], [ 48.5616559, -14.3017574 ], [ 48.5617312, -14.3017465 ], [ 48.5618088, -14.3017977 ], [ 48.5618708, -14.3019078 ], [ 48.5620021, -14.3019382 ], [ 48.5620999, -14.3019225 ], [ 48.5621598, -14.3019988 ], [ 48.5623023, -14.301994 ], [ 48.5624456, -14.3019518 ], [ 48.5625104, -14.3018913 ], [ 48.5626612, -14.3018446 ], [ 48.5627417, -14.3017861 ], [ 48.5628443, -14.3017252 ], [ 48.5629195, -14.3016589 ], [ 48.5630023, -14.3015981 ], [ 48.5630869, -14.3015362 ], [ 48.5631423, -14.3014577 ], [ 48.5631379, -14.3013176 ], [ 48.5631777, -14.3012426 ], [ 48.563209099999987, -14.3011473 ], [ 48.5631915, -14.3010141 ], [ 48.563178, -14.3009476 ], [ 48.5631714, -14.3008651 ], [ 48.5631401, -14.3007558 ], [ 48.563093699999989, -14.3006952 ], [ 48.563047, -14.3006674 ], [ 48.5629804, -14.3006692 ], [ 48.5629046, -14.3006801 ], [ 48.562877899999989, -14.3005719 ], [ 48.562814, -14.3004448 ], [ 48.5628073, -14.3003544 ], [ 48.5627963, -14.3002472 ], [ 48.5628094, -14.3001736 ], [ 48.5627898, -14.3000686 ], [ 48.5627565, -14.2999955 ], [ 48.5626836, -14.2998956 ], [ 48.562744, -14.2997989 ], [ 48.5627985, -14.2997374 ], [ 48.5628103, -14.2996468 ], [ 48.5627273, -14.2996431 ], [ 48.5626583, -14.2996348 ], [ 48.5626787, -14.2995894 ], [ 48.5627403, -14.2995481 ], [ 48.5628258, -14.2995223 ], [ 48.5628885, -14.299533 ], [ 48.5629392, -14.2995122 ], [ 48.5630533, -14.2995054 ], [ 48.5631165, -14.299507 ], [ 48.563197, -14.2994395 ], [ 48.5632127, -14.2993885 ], [ 48.5632314, -14.2993521 ], [ 48.5633038, -14.2993514 ], [ 48.5633443, -14.2992911 ], [ 48.5633837, -14.2992296 ], [ 48.563356399999989, -14.2991655 ], [ 48.5632667, -14.299128 ], [ 48.5632509, -14.2990558 ], [ 48.5632481, -14.2989586 ], [ 48.5632447, -14.29891 ], [ 48.5632063, -14.2988381 ], [ 48.5631922, -14.2987681 ], [ 48.563145, -14.2986307 ], [ 48.5631004, -14.2985814 ], [ 48.5631032, -14.2985169 ], [ 48.5631985, -14.2984787 ], [ 48.5632055, -14.2984278 ], [ 48.5631782, -14.298367 ], [ 48.5632677, -14.2983378 ], [ 48.5633304, -14.2982965 ], [ 48.5634176, -14.2982674 ], [ 48.5635051, -14.2982676 ], [ 48.5636254, -14.2982416 ], [ 48.5636615, -14.2981994 ], [ 48.5636651, -14.2981609 ], [ 48.5636524, -14.2981079 ], [ 48.5636512, -14.2980458 ], [ 48.5637106, -14.2980214 ], [ 48.5638533, -14.298089 ], [ 48.5639315, -14.2981357 ], [ 48.5639901, -14.2981498 ], [ 48.5640341, -14.2981437 ], [ 48.5641607, -14.2980508 ], [ 48.5642071, -14.2980572 ], [ 48.5642675, -14.2981244 ], [ 48.5643042, -14.2981975 ], [ 48.5644612, -14.2982479 ], [ 48.5645345, -14.2981658 ], [ 48.5646213, -14.2981525 ], [ 48.5646548, -14.2981929 ], [ 48.5647423, -14.2981988 ], [ 48.5648369, -14.2982622 ], [ 48.5649408, -14.2982239 ], [ 48.5649732, -14.2982688 ], [ 48.5650059, -14.298299 ], [ 48.5650402, -14.2983653 ], [ 48.5651267, -14.2983204 ], [ 48.565189, -14.2982971 ], [ 48.565237, -14.2983419 ], [ 48.5653015, -14.2984136 ], [ 48.5653584, -14.2984718 ], [ 48.5654472, -14.2985399 ], [ 48.5654973, -14.2986241 ], [ 48.5655851, -14.2986492 ], [ 48.565708500000014, -14.2985892 ], [ 48.5657956, -14.2985499 ], [ 48.5658442, -14.2986478 ], [ 48.5659175, -14.2987917 ], [ 48.5659639, -14.2988998 ], [ 48.5660214, -14.2990281 ], [ 48.5661274, -14.29907 ], [ 48.5662583, -14.2991726 ], [ 48.566319, -14.2992161 ], [ 48.5663854, -14.2993533 ], [ 48.5665229, -14.2993689 ], [ 48.5667117, -14.2994722 ], [ 48.5668563, -14.2994956 ], [ 48.5669385, -14.299436 ], [ 48.5670474, -14.2994292 ], [ 48.5670959, -14.2995192 ], [ 48.5671182, -14.2996037 ], [ 48.5671831, -14.2995986 ], [ 48.5672881, -14.2996054 ], [ 48.5674126, -14.2997093 ], [ 48.5676385, -14.299811 ], [ 48.5679233, -14.2998308 ], [ 48.5681191, -14.2997689 ], [ 48.5681699, -14.2996972 ], [ 48.5682414, -14.2996072 ], [ 48.5683433, -14.2995406 ], [ 48.5684391, -14.2994956 ], [ 48.568452, -14.2995712 ], [ 48.5684856, -14.2996782 ], [ 48.5685837, -14.299745 ], [ 48.5687314, -14.2997424 ], [ 48.5688802, -14.2997296 ], [ 48.5689184, -14.2996626 ], [ 48.5690053, -14.2996074 ], [ 48.5692228, -14.2996742 ], [ 48.5692954, -14.2998611 ], [ 48.5693292, -14.2999851 ], [ 48.5694666, -14.3000482 ], [ 48.5696536, -14.3000271 ], [ 48.5697048, -14.3001509 ], [ 48.5697603, -14.3002476 ], [ 48.5697468, -14.3004025 ], [ 48.5697958, -14.3004823 ], [ 48.569851, -14.3006129 ], [ 48.569882500000013, -14.3007426 ], [ 48.5699444, -14.3008346 ], [ 48.569947, -14.3009702 ], [ 48.5699561, -14.3010651 ], [ 48.5699314, -14.3011479 ], [ 48.5699849, -14.3012174 ], [ 48.5701241, -14.3012816 ], [ 48.570118, -14.3013607 ], [ 48.5701332, -14.3014273 ], [ 48.5701311, -14.3015607 ], [ 48.570096, -14.3016413 ], [ 48.570065, -14.3017264 ], [ 48.5700651, -14.3018394 ], [ 48.5700956, -14.3018741 ], [ 48.570222, -14.301935 ], [ 48.5701863, -14.3020688 ], [ 48.570149, -14.302163 ], [ 48.5701265, -14.3022231 ], [ 48.5701373, -14.3023179 ], [ 48.5701178, -14.3023894 ], [ 48.570112899999984, -14.3024708 ], [ 48.5700713, -14.3025356 ], [ 48.5700376, -14.3025846 ], [ 48.5700157, -14.3026515 ], [ 48.5700374, -14.3027372 ], [ 48.5700088, -14.3028279 ], [ 48.5699645, -14.3029097 ], [ 48.5699576, -14.3030217 ], [ 48.569962200000013, -14.3030748 ], [ 48.5698072, -14.303108 ], [ 48.5697318, -14.3030997 ], [ 48.5696431, -14.3030972 ], [ 48.5696008, -14.303153 ], [ 48.5696833, -14.3031725 ], [ 48.5696541, -14.3033164 ], [ 48.5695233, -14.303338 ], [ 48.5694434, -14.3033422 ], [ 48.5693711, -14.3033022 ], [ 48.569291, -14.3033494 ], [ 48.5692533, -14.303395 ], [ 48.5693174, -14.3034814 ], [ 48.5693434, -14.3035376 ], [ 48.5693499, -14.3035986 ], [ 48.5692704, -14.3036457 ], [ 48.5691884, -14.3036737 ], [ 48.5690928, -14.3036758 ], [ 48.5690354, -14.3037272 ], [ 48.5689551, -14.3037574 ], [ 48.5689089, -14.3038257 ], [ 48.5688528, -14.3038929 ], [ 48.5687685, -14.3039164 ], [ 48.568722, -14.3039101 ], [ 48.5686598, -14.3039446 ], [ 48.5686465, -14.3040047 ], [ 48.5686952, -14.3040607 ], [ 48.5687731, -14.3040803 ], [ 48.568757599999984, -14.3041527 ], [ 48.5687111, -14.3041962 ], [ 48.568626199999983, -14.3042784 ], [ 48.5685487, -14.3043493 ], [ 48.5684978, -14.3044119 ], [ 48.5684379, -14.3044521 ], [ 48.5683671, -14.3044958 ], [ 48.5683251, -14.3045267 ], [ 48.5682141, -14.3046069 ], [ 48.5681745, -14.3046412 ], [ 48.5681628, -14.3047397 ], [ 48.5680964, -14.3047618 ], [ 48.568047700000015, -14.304768 ], [ 48.5680298, -14.3048235 ], [ 48.568016, -14.3048904 ], [ 48.5679626, -14.3049384 ], [ 48.5678854, -14.3049245 ], [ 48.567815, -14.3048969 ], [ 48.5677528, -14.3048862 ], [ 48.5676728, -14.3048859 ], [ 48.5676109, -14.3049442 ], [ 48.5675219, -14.3050231 ], [ 48.5674777, -14.3051184 ], [ 48.567417399999989, -14.305179 ], [ 48.5673512, -14.3052712 ], [ 48.5673353, -14.305355 ], [ 48.5672997, -14.3053915 ], [ 48.5671979, -14.3054106 ], [ 48.5671097, -14.3054533 ], [ 48.5670429, -14.3054924 ], [ 48.5669498, -14.305568 ], [ 48.5668652, -14.3056276 ] ] ] ] } }
]
}
