{
"type": "FeatureCollection",
"name": "MDG-26072-NODATE-secondary_zoning-001",
"crs": { "type": "name", "properties": { "name": "urn:ogc:def:crs:OGC:1.3:CRS84" } },
"features": [
{ "type": "Feature", "properties": { }, "geometry": { "type": "MultiPolygon", "coordinates": [ [ [ [ 49.7286344, -16.5494114 ], [ 49.7290897, -16.549942 ], [ 49.7328563, -16.5461328 ], [ 49.7297213, -16.5330904 ], [ 49.7296021, -16.5288367 ], [ 49.7273037, -16.5264154 ], [ 49.7249759, -16.5244735 ], [ 49.7248397, -16.5239849 ], [ 49.7249226, -16.5237458 ], [ 49.7253517, -16.5233997 ], [ 49.7256803, -16.5228637 ], [ 49.725943, -16.5223202 ], [ 49.7261656, -16.5219316 ], [ 49.727046, -16.52117 ], [ 49.7213607, -16.5195159 ], [ 49.7213022, -16.5190696 ], [ 49.720823, -16.5188366 ], [ 49.720219799999981, -16.5185129 ], [ 49.7198698, -16.5185501 ], [ 49.719695, -16.5188594 ], [ 49.7194988, -16.519355 ], [ 49.7192106, -16.5195713 ], [ 49.7190389, -16.5196276 ], [ 49.7189022, -16.5197495 ], [ 49.7185201, -16.5202587 ], [ 49.7183543, -16.5204764 ], [ 49.7183311, -16.5206072 ], [ 49.7183506, -16.5206512 ], [ 49.7181334, -16.5207227 ], [ 49.7180684, -16.5209784 ], [ 49.7179649, -16.5213178 ], [ 49.7178095, -16.5216438 ], [ 49.7176378, -16.5218577 ], [ 49.7173825, -16.522235 ], [ 49.7173473, -16.5223186 ], [ 49.7172258, -16.5224526 ], [ 49.7170721, -16.5226775 ], [ 49.7168164, -16.5229484 ], [ 49.716661, -16.5231691 ], [ 49.7165868, -16.5233346 ], [ 49.7164136, -16.5236541 ], [ 49.7163474, -16.5238206 ], [ 49.7163144, -16.5239973 ], [ 49.7162156, -16.5241474 ], [ 49.7160409, -16.5241659 ], [ 49.7159395, -16.524265 ], [ 49.7160403, -16.524424 ], [ 49.7161071, -16.5247725 ], [ 49.7160735, -16.5249492 ], [ 49.7159702, -16.5252965 ], [ 49.7146286, -16.5257389 ], [ 49.7142481, -16.5259165 ], [ 49.7091447, -16.5283102 ], [ 49.7108907, -16.5295835 ], [ 49.7107196, -16.5307156 ], [ 49.7106808, -16.5309872 ], [ 49.7109821, -16.5314207 ], [ 49.711437, -16.5313921 ], [ 49.711871, -16.5312644 ], [ 49.7121434, -16.5312726 ], [ 49.7129849, -16.5318048 ], [ 49.7138157, -16.5317104 ], [ 49.7147255, -16.5315346 ], [ 49.7153803, -16.5315187 ], [ 49.7160798, -16.5316416 ], [ 49.7167883, -16.5322837 ], [ 49.7169255, -16.5330574 ], [ 49.7166394, -16.5336526 ], [ 49.7164402, -16.5342306 ], [ 49.7164345, -16.5347932 ], [ 49.715810100000013, -16.5355744 ], [ 49.7152828, -16.5359305 ], [ 49.7148031, -16.53647 ], [ 49.7145434, -16.5367271 ], [ 49.7134792, -16.5397436 ], [ 49.7179544, -16.5412633 ], [ 49.7251042, -16.5496887 ], [ 49.7255022, -16.5496508 ], [ 49.7259496, -16.5496562 ], [ 49.726485499999988, -16.549442 ], [ 49.7267894, -16.5497333 ], [ 49.7274259, -16.550053 ], [ 49.7280219, -16.5501892 ], [ 49.7281165, -16.5500095 ], [ 49.7281344, -16.5499321 ], [ 49.7281927, -16.5498352 ], [ 49.7283037, -16.5497177 ], [ 49.7284387, -16.5495921 ], [ 49.7286344, -16.5494114 ] ] ], [ [ [ 49.7822869, -16.506877 ], [ 49.7826794, -16.5063325 ], [ 49.7830902, -16.5062874 ], [ 49.7832498, -16.5063522 ], [ 49.779952, -16.4975778 ], [ 49.7792751, -16.4947065 ], [ 49.780430099999982, -16.4889055 ], [ 49.775265, -16.489693 ], [ 49.7695246, -16.4902455 ], [ 49.77022, -16.4909301 ], [ 49.7679385, -16.4944089 ], [ 49.7640221, -16.499766 ], [ 49.7625622, -16.5041984 ], [ 49.7621868, -16.5079811 ], [ 49.7647744, -16.5064671 ], [ 49.7649906, -16.5057939 ], [ 49.7654327, -16.505701 ], [ 49.7658564, -16.5056638 ], [ 49.7659695, -16.5057152 ], [ 49.766033, -16.5057143 ], [ 49.7661046, -16.5057474 ], [ 49.7661901, -16.5057869 ], [ 49.7662395, -16.5058141 ], [ 49.7662717, -16.5058426 ], [ 49.7664132, -16.505861 ], [ 49.7665067, -16.5058657 ], [ 49.7665999, -16.505875 ], [ 49.7666926, -16.505887 ], [ 49.7667393, -16.5058925 ], [ 49.7668578, -16.5058752 ], [ 49.7669684, -16.5058463 ], [ 49.7670113, -16.5058351 ], [ 49.7670846, -16.5058969 ], [ 49.7671661, -16.5059126 ], [ 49.7672498, -16.5059612 ], [ 49.7673319, -16.5060088 ], [ 49.7674219, -16.5060228 ], [ 49.7674947, -16.5060707 ], [ 49.7676304, -16.5061819 ], [ 49.7677124, -16.5062613 ], [ 49.7677666, -16.5063256 ], [ 49.7677523, -16.5064467 ], [ 49.7678456, -16.506548 ], [ 49.7679463, -16.5066541 ], [ 49.7681062, -16.5068075 ], [ 49.768182, -16.5068594 ], [ 49.7682548, -16.5068866 ], [ 49.7683062, -16.5069059 ], [ 49.7684072, -16.5068843 ], [ 49.768532, -16.5067685 ], [ 49.7685865, -16.5067603 ], [ 49.7686794, -16.5067679 ], [ 49.7688119, -16.5067836 ], [ 49.7689051, -16.5067424 ], [ 49.7689623, -16.5066863 ], [ 49.7690474, -16.5066504 ], [ 49.7691565, -16.5066285 ], [ 49.7692266, -16.5065745 ], [ 49.7692796, -16.506514 ], [ 49.7693654, -16.506501 ], [ 49.769558, -16.5065234 ], [ 49.7696923, -16.5065241 ], [ 49.7697475, -16.506927 ], [ 49.769789, -16.5072482 ], [ 49.7698436, -16.5074234 ], [ 49.7699199, -16.5075098 ], [ 49.770247, -16.5075226 ], [ 49.7702975, -16.507529 ], [ 49.77038550000001, -16.5075647 ], [ 49.7704538, -16.5076176 ], [ 49.7705934, -16.5076306 ], [ 49.7708295, -16.5076823 ], [ 49.7709738, -16.5077815 ], [ 49.7711146, -16.5077838 ], [ 49.771161, -16.5077904 ], [ 49.7712431, -16.5078331 ], [ 49.7713286, -16.5078634 ], [ 49.7714236, -16.5078835 ], [ 49.7714683, -16.5078944 ], [ 49.7715136, -16.5079056 ], [ 49.771623, -16.5079891 ], [ 49.7716508, -16.5080009 ], [ 49.771802699999988, -16.5080201 ], [ 49.7718652, -16.5080486 ], [ 49.7720106, -16.5081811 ], [ 49.7721509, -16.5081868 ], [ 49.7722435, -16.5081971 ], [ 49.772377600000013, -16.5082287 ], [ 49.7724235, -16.5082462 ], [ 49.7724997, -16.5082869 ], [ 49.7725382, -16.5083275 ], [ 49.7726278, -16.508349 ], [ 49.7728141, -16.5083835 ], [ 49.7729846, -16.5085096 ], [ 49.7731563, -16.5086371 ], [ 49.7735282, -16.5085939 ], [ 49.7736649, -16.5085663 ], [ 49.7738764, -16.508482 ], [ 49.774059600000015, -16.5083335 ], [ 49.7742222, -16.5082451 ], [ 49.7742963, -16.5081931 ], [ 49.7743224, -16.5081653 ], [ 49.7744184, -16.5081324 ], [ 49.7744637, -16.5081289 ], [ 49.7746928, -16.5081246 ], [ 49.7747928, -16.5082196 ], [ 49.7749304, -16.5083422 ], [ 49.7749781, -16.508375 ], [ 49.775057, -16.5083931 ], [ 49.775151, -16.5083895 ], [ 49.7752221, -16.5084414 ], [ 49.7752707, -16.5084423 ], [ 49.7753276, -16.5084419 ], [ 49.775453, -16.5084711 ], [ 49.7756239, -16.5084896 ], [ 49.7757391, -16.5085145 ], [ 49.7758062, -16.5085743 ], [ 49.7758454, -16.5087048 ], [ 49.7758909, -16.5088227 ], [ 49.7759545, -16.5089044 ], [ 49.7760637, -16.5090145 ], [ 49.776197599999989, -16.5091825 ], [ 49.7762371, -16.5096991 ], [ 49.776326799999985, -16.509752 ], [ 49.7763995, -16.5097811 ], [ 49.7764991, -16.5097793 ], [ 49.7766126, -16.5098529 ], [ 49.776654400000012, -16.5098801 ], [ 49.7767905, -16.5098811 ], [ 49.7769775, -16.5098793 ], [ 49.7771283, -16.5099091 ], [ 49.7772194, -16.5099945 ], [ 49.7776223, -16.5101919 ], [ 49.7777487, -16.5101351 ], [ 49.7778259, -16.5100842 ], [ 49.7778946, -16.5100244 ], [ 49.7779632, -16.509964 ], [ 49.7780483, -16.509944 ], [ 49.7781407, -16.5099578 ], [ 49.7782334, -16.5099698 ], [ 49.778388799999988, -16.5100515 ], [ 49.7784809, -16.5100658 ], [ 49.7786598, -16.5100669 ], [ 49.7787523, -16.5099193 ], [ 49.778842, -16.5098087 ], [ 49.77887530000001, -16.5096337 ], [ 49.7788923, -16.5095482 ], [ 49.7789883, -16.5092953 ], [ 49.7790829, -16.5091453 ], [ 49.7792285, -16.5090368 ], [ 49.7793584, -16.508915 ], [ 49.7794633, -16.5087654 ], [ 49.7795717, -16.5086185 ], [ 49.779597699999989, -16.508534 ], [ 49.7796111, -16.5084451 ], [ 49.7796111, -16.5083576 ], [ 49.7796458, -16.5083034 ], [ 49.779827, -16.5083185 ], [ 49.7798854, -16.5083097 ], [ 49.7800053, -16.5082564 ], [ 49.7802394, -16.5082538 ], [ 49.7804052, -16.5081805 ], [ 49.7804733, -16.508119 ], [ 49.7806648, -16.5079217 ], [ 49.7807475, -16.5078972 ], [ 49.7808385, -16.5079161 ], [ 49.7809167, -16.5078996 ], [ 49.780982, -16.5078353 ], [ 49.7810885, -16.5077201 ], [ 49.7811417, -16.5075233 ], [ 49.7812399, -16.5073794 ], [ 49.7814072, -16.5073056 ], [ 49.7820321, -16.5071363 ], [ 49.7822869, -16.506877 ] ] ], [ [ [ 49.6959183, -16.5019712 ], [ 49.6955455, -16.5020053 ], [ 49.6952989, -16.5021345 ], [ 49.6951349, -16.5022003 ], [ 49.6950285, -16.5021048 ], [ 49.6949737, -16.5018403 ], [ 49.694883599999983, -16.5012137 ], [ 49.694693500000014, -16.5010145 ], [ 49.6946931, -16.5007774 ], [ 49.6946365, -16.5005151 ], [ 49.6946776, -16.5000661 ], [ 49.6949444, -16.4998179 ], [ 49.6951278, -16.4995801 ], [ 49.695818499999987, -16.4944282 ], [ 49.6989043, -16.4908018 ], [ 49.6986517, -16.4902637 ], [ 49.6986591, -16.4862066 ], [ 49.7012404, -16.4790474 ], [ 49.7009999, -16.4778664 ], [ 49.6973181, -16.4604764 ], [ 49.6935793, -16.4569657 ], [ 49.6746954, -16.4616057 ], [ 49.6730001, -16.4840495 ], [ 49.6675169, -16.5062537 ], [ 49.671835, -16.5337631 ], [ 49.6721186, -16.534721 ], [ 49.6727586, -16.5351854 ], [ 49.6732407, -16.5348289 ], [ 49.6742605, -16.5337254 ], [ 49.675156900000012, -16.5336623 ], [ 49.6761636, -16.5341148 ], [ 49.6767429, -16.5338697 ], [ 49.677345, -16.5334492 ], [ 49.6779099, -16.5330062 ], [ 49.6784876, -16.5332801 ], [ 49.6784196, -16.534257 ], [ 49.6793646, -16.533821 ], [ 49.680294, -16.5332501 ], [ 49.681219, -16.5334267 ], [ 49.6820186, -16.5325734 ], [ 49.6824105, -16.5317687 ], [ 49.6838167, -16.5323245 ], [ 49.685657199999987, -16.5330322 ], [ 49.6853032, -16.5335493 ], [ 49.6849028, -16.5346031 ], [ 49.6849871, -16.5348983 ], [ 49.6853783, -16.5351299 ], [ 49.6876388, -16.5353265 ], [ 49.6880968, -16.5349011 ], [ 49.6886599, -16.5351781 ], [ 49.6889443, -16.5346304 ], [ 49.689228, -16.5342429 ], [ 49.6895236, -16.53252 ], [ 49.6901168, -16.5315157 ], [ 49.6913149, -16.5313089 ], [ 49.6920478, -16.5316905 ], [ 49.6934755, -16.5313322 ], [ 49.6942564, -16.5312983 ], [ 49.6941209, -16.5303875 ], [ 49.694012, -16.5293422 ], [ 49.694451699999988, -16.5291168 ], [ 49.6948565, -16.5293414 ], [ 49.6955355, -16.5297656 ], [ 49.6961943, -16.5288603 ], [ 49.6966917, -16.5279269 ], [ 49.6965105, -16.5266397 ], [ 49.6969259, -16.5251549 ], [ 49.6969606, -16.5240537 ], [ 49.6969825, -16.5238304 ], [ 49.6970189, -16.5237242 ], [ 49.6970758, -16.5236144 ], [ 49.6970916, -16.5235488 ], [ 49.6970937, -16.5234481 ], [ 49.6971584, -16.5233498 ], [ 49.6972011, -16.523321 ], [ 49.697223, -16.5232516 ], [ 49.6973692, -16.5231185 ], [ 49.6974151, -16.5228913 ], [ 49.6975091, -16.5227368 ], [ 49.6976458, -16.5222118 ], [ 49.6978326, -16.521905 ], [ 49.697864599999988, -16.5218204 ], [ 49.6981356, -16.5214542 ], [ 49.6983715, -16.5211743 ], [ 49.698397, -16.5210909 ], [ 49.6985405, -16.5208724 ], [ 49.6989137, -16.5206068 ], [ 49.6992672, -16.5201856 ], [ 49.6996643, -16.5196915 ], [ 49.6997487, -16.5194388 ], [ 49.6996408, -16.5190955 ], [ 49.6997191, -16.518568 ], [ 49.6999128, -16.5183724 ], [ 49.7000868, -16.518329 ], [ 49.7003569, -16.5182886 ], [ 49.7006742, -16.5181024 ], [ 49.700959499999989, -16.5178714 ], [ 49.7008989, -16.5175064 ], [ 49.6977809, -16.5131099 ], [ 49.6960961, -16.5115008 ], [ 49.6958437, -16.5117193 ], [ 49.6955522, -16.5116042 ], [ 49.695384800000014, -16.5114284 ], [ 49.6950849, -16.5109293 ], [ 49.6952006, -16.5102905 ], [ 49.6956855, -16.5098854 ], [ 49.6961866, -16.509611 ], [ 49.696463, -16.5091639 ], [ 49.6967597, -16.5085991 ], [ 49.6968846, -16.5083713 ], [ 49.6969198, -16.5079223 ], [ 49.6971463, -16.5073597 ], [ 49.6971119, -16.5070903 ], [ 49.6969459, -16.5065858 ], [ 49.6965147, -16.5060019 ], [ 49.6961666, -16.5053872 ], [ 49.6961379, -16.5049371 ], [ 49.6959744, -16.5045048 ], [ 49.6963952, -16.5041865 ], [ 49.6966361, -16.5040698 ], [ 49.696880300000011, -16.503796 ], [ 49.6972492, -16.5034548 ], [ 49.6973252, -16.5032774 ], [ 49.696834299999985, -16.5030468 ], [ 49.6964937, -16.5027381 ], [ 49.696233, -16.5024779 ], [ 49.6962027, -16.5022107 ], [ 49.6959183, -16.5019712 ] ] ], [ [ [ 49.7688547, -16.4362782 ], [ 49.7687629, -16.4363915 ], [ 49.7686531, -16.4364639 ], [ 49.7686373, -16.436633 ], [ 49.7684887, -16.4367737 ], [ 49.7683292, -16.4368378 ], [ 49.7679788, -16.4367248 ], [ 49.7676144, -16.4367131 ], [ 49.7674566, -16.4366252 ], [ 49.7671297, -16.4361894 ], [ 49.7670136, -16.4360552 ], [ 49.766882699999989, -16.4360132 ], [ 49.7650236, -16.4351844 ], [ 49.7585396, -16.4332275 ], [ 49.7580592, -16.43326 ], [ 49.7578807, -16.4332922 ], [ 49.7574741, -16.433502 ], [ 49.7573293, -16.433607 ], [ 49.7571895, -16.4337262 ], [ 49.7571395, -16.4337992 ], [ 49.7570178, -16.4340372 ], [ 49.7569803, -16.4342597 ], [ 49.7568724, -16.4343495 ], [ 49.7567991, -16.4345111 ], [ 49.7566864, -16.4347472 ], [ 49.7565316, -16.4349677 ], [ 49.7564483, -16.4351762 ], [ 49.7561745, -16.4352828 ], [ 49.7560816, -16.4352933 ], [ 49.755711200000015, -16.4353427 ], [ 49.7553564, -16.4354494 ], [ 49.7552842, -16.4355064 ], [ 49.7551314, -16.435543 ], [ 49.7550126, -16.4356626 ], [ 49.754857, -16.4357436 ], [ 49.75472, -16.435931 ], [ 49.7544765, -16.4362025 ], [ 49.7542609, -16.436254 ], [ 49.7540681, -16.4363841 ], [ 49.753904200000015, -16.4365426 ], [ 49.7537754, -16.4366711 ], [ 49.7537185, -16.4368358 ], [ 49.7536528, -16.4370319 ], [ 49.753583, -16.4372637 ], [ 49.7535256, -16.437621 ], [ 49.7534347, -16.4378658 ], [ 49.7534248, -16.4379552 ], [ 49.7533178, -16.4382025 ], [ 49.753217, -16.4383989 ], [ 49.7533789, -16.4386612 ], [ 49.7534902, -16.4388046 ], [ 49.7536235, -16.4390402 ], [ 49.753781300000014, -16.4392523 ], [ 49.7538141, -16.4393365 ], [ 49.7538832, -16.4394986 ], [ 49.7538711, -16.4396789 ], [ 49.753864, -16.4399495 ], [ 49.7539216, -16.4401186 ], [ 49.7539784, -16.44019 ], [ 49.7541188, -16.4403092 ], [ 49.7542658, -16.4404209 ], [ 49.7543943, -16.4405802 ], [ 49.7544527, -16.4408595 ], [ 49.7541434, -16.4412016 ], [ 49.7539065, -16.4413459 ], [ 49.7534667, -16.4417791 ], [ 49.7533797, -16.4419535 ], [ 49.7530755, -16.4424535 ], [ 49.7531078, -16.4433024 ], [ 49.7531124, -16.4437947 ], [ 49.75267, -16.4442083 ], [ 49.7525718, -16.4446272 ], [ 49.7524058, -16.4451883 ], [ 49.7516926, -16.4459473 ], [ 49.7515571, -16.446153 ], [ 49.751582, -16.4465358 ], [ 49.7516855, -16.4466855 ], [ 49.7519372, -16.446948 ], [ 49.752296, -16.4470169 ], [ 49.752456, -16.4472239 ], [ 49.75254360000001, -16.4475037 ], [ 49.7523647, -16.4476658 ], [ 49.7521543, -16.4478363 ], [ 49.7516145, -16.4479239 ], [ 49.7510061, -16.4479347 ], [ 49.7507559, -16.4478314 ], [ 49.750385, -16.4478039 ], [ 49.7502077, -16.4478547 ], [ 49.7498346, -16.4478703 ], [ 49.7495894, -16.4479876 ], [ 49.7495244, -16.4480525 ], [ 49.749461, -16.4482173 ], [ 49.7494153, -16.4484845 ], [ 49.7493879, -16.4486628 ], [ 49.7492823, -16.448909 ], [ 49.7489278, -16.4493258 ], [ 49.7487899, -16.4495595 ], [ 49.7487749, -16.4496913 ], [ 49.7490371, -16.4501107 ], [ 49.749263700000014, -16.4503928 ], [ 49.7496368, -16.4506534 ], [ 49.7499287, -16.4508685 ], [ 49.7500736, -16.4511813 ], [ 49.7500159, -16.4516069 ], [ 49.7499659, -16.4520035 ], [ 49.7502097, -16.4525949 ], [ 49.7503285, -16.4527336 ], [ 49.750473199999981, -16.4529735 ], [ 49.7504494, -16.4532047 ], [ 49.750363, -16.4538613 ], [ 49.7502571, -16.4542052 ], [ 49.7499818, -16.4545682 ], [ 49.7495972, -16.4549701 ], [ 49.7491899, -16.4553335 ], [ 49.7486254, -16.4557976 ], [ 49.748516, -16.4560371 ], [ 49.7485335, -16.4569273 ], [ 49.7487199, -16.457187 ], [ 49.7488929, -16.4572401 ], [ 49.7492014, -16.457393 ], [ 49.7491702, -16.4575844 ], [ 49.7490611, -16.4582522 ], [ 49.741466, -16.4592671 ], [ 49.7415147, -16.4591415 ], [ 49.7416179, -16.4589987 ], [ 49.7416964, -16.4589517 ], [ 49.7418316, -16.4588315 ], [ 49.7420638, -16.4586861 ], [ 49.7422789, -16.4585122 ], [ 49.7424116, -16.4583853 ], [ 49.742458, -16.4583111 ], [ 49.7424516, -16.458226 ], [ 49.7424079, -16.4581013 ], [ 49.7424196, -16.4578764 ], [ 49.7423831, -16.4575189 ], [ 49.7422713, -16.4573784 ], [ 49.742143, -16.4572477 ], [ 49.7420537, -16.4570893 ], [ 49.7420094, -16.4569161 ], [ 49.7419089, -16.4567686 ], [ 49.7417671, -16.4566517 ], [ 49.7415931, -16.4565895 ], [ 49.7415191, -16.4565381 ], [ 49.7414083, -16.4563925 ], [ 49.7413599, -16.4563159 ], [ 49.7413127, -16.4560507 ], [ 49.7412851, -16.4558732 ], [ 49.741240499999989, -16.4557954 ], [ 49.7411067, -16.4556694 ], [ 49.7410255, -16.4556277 ], [ 49.7408603, -16.4555501 ], [ 49.7407346, -16.4554166 ], [ 49.7405801, -16.4551932 ], [ 49.7404656, -16.4550515 ], [ 49.7403969, -16.4548838 ], [ 49.7403169, -16.454723 ], [ 49.740239, -16.4545621 ], [ 49.7401671, -16.4543967 ], [ 49.740048, -16.4542579 ], [ 49.7398227, -16.4541011 ], [ 49.7396393, -16.4540685 ], [ 49.7393808, -16.4539726 ], [ 49.7390943, -16.4537473 ], [ 49.7388936, -16.4535607 ], [ 49.738561, -16.4534079 ], [ 49.7384364, -16.4532732 ], [ 49.7381961, -16.4529957 ], [ 49.7379217, -16.4526768 ], [ 49.7378496, -16.4525427 ], [ 49.7377558, -16.4522934 ], [ 49.7376532, -16.4520583 ], [ 49.7375233, -16.4518126 ], [ 49.7372972, -16.4515253 ], [ 49.7370318, -16.4512325 ], [ 49.7369743, -16.4510148 ], [ 49.7368895, -16.4507615 ], [ 49.7367882, -16.4505152 ], [ 49.7365673, -16.4503594 ], [ 49.7362991, -16.4503466 ], [ 49.7356875, -16.4503428 ], [ 49.7355727, -16.4504282 ], [ 49.7352954, -16.4504631 ], [ 49.7349238, -16.4504644 ], [ 49.7347267, -16.4503368 ], [ 49.7346156, -16.4502694 ], [ 49.7343367, -16.450267 ], [ 49.7341737, -16.4503334 ], [ 49.733933, -16.4504434 ], [ 49.7335598, -16.4504702 ], [ 49.7332815, -16.4504508 ], [ 49.7331545, -16.4503525 ], [ 49.73293, -16.4503598 ], [ 49.732185, -16.4508249 ], [ 49.7320367, -16.4514971 ], [ 49.732099, -16.4515645 ], [ 49.732337199999989, -16.4518431 ], [ 49.732469, -16.4520771 ], [ 49.732579799999989, -16.4523102 ], [ 49.7325965, -16.4523986 ], [ 49.7326985, -16.4525455 ], [ 49.7327772, -16.4527911 ], [ 49.7328654, -16.4529512 ], [ 49.7329439, -16.4531131 ], [ 49.7330279, -16.4532705 ], [ 49.7331371, -16.4534625 ], [ 49.7330538, -16.4538303 ], [ 49.7329702, -16.4539897 ], [ 49.7328953, -16.4541468 ], [ 49.732551, -16.4545153 ], [ 49.7323036, -16.4545571 ], [ 49.7321673, -16.4546789 ], [ 49.7320969, -16.454841 ], [ 49.732107, -16.4550215 ], [ 49.732037700000014, -16.4551807 ], [ 49.731889300000013, -16.4552853 ], [ 49.7316948, -16.4553151 ], [ 49.7314295, -16.4553637 ], [ 49.7311977, -16.4554989 ], [ 49.7308498, -16.4554118 ], [ 49.7307689, -16.4554538 ], [ 49.7306911, -16.4556086 ], [ 49.7307022, -16.4556976 ], [ 49.7308027, -16.4558412 ], [ 49.7308241, -16.4564649 ], [ 49.7308175, -16.4573608 ], [ 49.7306083, -16.4578487 ], [ 49.730536, -16.4584775 ], [ 49.7304721, -16.4589207 ], [ 49.7300015, -16.4592635 ], [ 49.7297671, -16.45981 ], [ 49.729722, -16.4599151 ], [ 49.7289396, -16.4610371 ], [ 49.7281329, -16.4631641 ], [ 49.727742, -16.4633058 ], [ 49.7275605, -16.4640259 ], [ 49.727611499999988, -16.4643791 ], [ 49.7272099, -16.4649739 ], [ 49.7268701, -16.466566 ], [ 49.7267621, -16.466818 ], [ 49.7273275, -16.4692757 ], [ 49.7357302, -16.4733264 ], [ 49.7444347, -16.4686891 ], [ 49.7485952, -16.4683159 ], [ 49.759525100000012, -16.470645 ], [ 49.7715066, -16.4818654 ], [ 49.77192, -16.4808198 ], [ 49.7723835, -16.4801217 ], [ 49.772126, -16.4797322 ], [ 49.7721444, -16.478986 ], [ 49.7725461, -16.4780179 ], [ 49.7734835, -16.4769684 ], [ 49.774514, -16.4764685 ], [ 49.7752602, -16.4757519 ], [ 49.7757229, -16.4745801 ], [ 49.7768487, -16.474195 ], [ 49.777066600000012, -16.4742301 ], [ 49.776092, -16.4733776 ], [ 49.7761827, -16.4722512 ], [ 49.7766613, -16.4714604 ], [ 49.7740021, -16.4679566 ], [ 49.7761568, -16.465029 ], [ 49.7797711, -16.4576636 ], [ 49.7787565, -16.4573625 ], [ 49.7785542, -16.4570438 ], [ 49.7785057, -16.4568001 ], [ 49.7783799, -16.4565627 ], [ 49.7781066, -16.4563384 ], [ 49.7776878, -16.4561474 ], [ 49.7774827, -16.4561252 ], [ 49.7770525, -16.456074 ], [ 49.7767565, -16.4558771 ], [ 49.7765769, -16.455915 ], [ 49.7762152, -16.4561122 ], [ 49.7748832, -16.4524222 ], [ 49.7709913, -16.4493766 ], [ 49.7715756, -16.4473353 ], [ 49.7699873, -16.4418186 ], [ 49.7700642, -16.4413362 ], [ 49.7703063, -16.4406773 ], [ 49.77028, -16.4403231 ], [ 49.7700655, -16.4401644 ], [ 49.7697224, -16.4401191 ], [ 49.7694851, -16.4399981 ], [ 49.769245, -16.4394722 ], [ 49.7695037, -16.4390502 ], [ 49.7695934, -16.4386998 ], [ 49.7696559, -16.4384368 ], [ 49.769688500000015, -16.4374864 ], [ 49.769615, -16.4372798 ], [ 49.7691015, -16.4368317 ], [ 49.769243, -16.4364494 ], [ 49.7693033, -16.4362796 ], [ 49.7691875, -16.436112 ], [ 49.7688547, -16.4362782 ] ] ], [ [ [ 49.7019051, -16.387142 ], [ 49.7016818, -16.3868553 ], [ 49.7014862, -16.3865517 ], [ 49.7012966, -16.3863519 ], [ 49.7007489, -16.385905 ], [ 49.7002389, -16.3859663 ], [ 49.6997707, -16.3859606 ], [ 49.6993838, -16.3858379 ], [ 49.6992096, -16.3854656 ], [ 49.6991118, -16.3852147 ], [ 49.6990885, -16.3850812 ], [ 49.6988515, -16.3848906 ], [ 49.698374, -16.3844728 ], [ 49.6978077, -16.3841745 ], [ 49.6975371, -16.3839997 ], [ 49.6965388, -16.3846127 ], [ 49.6959808, -16.3852155 ], [ 49.6944654, -16.3857236 ], [ 49.6936707, -16.3865865 ], [ 49.6894456, -16.3886604 ], [ 49.6833856, -16.3932227 ], [ 49.677102399999988, -16.3968586 ], [ 49.6770013, -16.397925 ], [ 49.6763031, -16.3989993 ], [ 49.6751589, -16.4002775 ], [ 49.674430699999988, -16.4003385 ], [ 49.6732619, -16.4005119 ], [ 49.6724638, -16.4015057 ], [ 49.671149899999989, -16.4030896 ], [ 49.6608755, -16.4210323 ], [ 49.6634629, -16.4271951 ], [ 49.6760444, -16.4250149 ], [ 49.6815949, -16.4368312 ], [ 49.6815715, -16.4373206 ], [ 49.6818099, -16.437894 ], [ 49.6819212, -16.4379753 ], [ 49.6820799, -16.4380706 ], [ 49.6823302, -16.4381841 ], [ 49.6825164, -16.4382044 ], [ 49.6826896, -16.4381509 ], [ 49.6827648, -16.4381017 ], [ 49.6828432, -16.4380649 ], [ 49.6829368, -16.4380634 ], [ 49.6831204, -16.4380538 ], [ 49.6831995, -16.4380944 ], [ 49.6832661, -16.4381583 ], [ 49.6833952, -16.4382896 ], [ 49.6835105, -16.4384306 ], [ 49.683562599999988, -16.4385716 ], [ 49.6836899, -16.4386255 ], [ 49.683764599999989, -16.4386802 ], [ 49.6839075, -16.4387966 ], [ 49.6840746, -16.4389544 ], [ 49.6843932, -16.4388822 ], [ 49.684578, -16.4388557 ], [ 49.6847406, -16.4387814 ], [ 49.6848322, -16.4387676 ], [ 49.6849202, -16.4387453 ], [ 49.6849978, -16.4386955 ], [ 49.6850803, -16.4386598 ], [ 49.6852493, -16.4386538 ], [ 49.685351, -16.4384517 ], [ 49.6854071, -16.4383819 ], [ 49.6856583, -16.4382679 ], [ 49.6858363, -16.4382205 ], [ 49.6862054, -16.4381628 ], [ 49.686383, -16.4381058 ], [ 49.686455900000013, -16.438055 ], [ 49.6865746, -16.4379154 ], [ 49.6868422, -16.4376627 ], [ 49.6871454, -16.437453 ], [ 49.6873287, -16.437392 ], [ 49.6873764, -16.4373602 ], [ 49.6875107, -16.4373965 ], [ 49.6875876, -16.4374461 ], [ 49.6878578, -16.4376966 ], [ 49.6880506, -16.437893 ], [ 49.6881887, -16.4380659 ], [ 49.6883274, -16.4380643 ], [ 49.6884089, -16.4380252 ], [ 49.6885334, -16.4378905 ], [ 49.6885686, -16.4378092 ], [ 49.6885741, -16.4376296 ], [ 49.6886027, -16.4374546 ], [ 49.6886459, -16.4373743 ], [ 49.6887286, -16.4372544 ], [ 49.6888289, -16.4371732 ], [ 49.6889721, -16.4370569 ], [ 49.6890852, -16.4369781 ], [ 49.6891507, -16.4369124 ], [ 49.6891963, -16.4369219 ], [ 49.6893263, -16.4369498 ], [ 49.6893797, -16.4369568 ], [ 49.6895561, -16.43701 ], [ 49.6896991, -16.4371252 ], [ 49.689748099999981, -16.437154 ], [ 49.6898271, -16.4371703 ], [ 49.6899411, -16.4372519 ], [ 49.6902295, -16.4374919 ], [ 49.6902769, -16.4376138 ], [ 49.6904833, -16.4377975 ], [ 49.6907015, -16.437968 ], [ 49.6908451, -16.4380821 ], [ 49.6910091, -16.4381609 ], [ 49.6910893, -16.4381986 ], [ 49.6911789, -16.4381876 ], [ 49.6912683, -16.438163 ], [ 49.691453700000011, -16.4381376 ], [ 49.6916353, -16.4380969 ], [ 49.6918147, -16.4380472 ], [ 49.6918776, -16.4379948 ], [ 49.6919016, -16.4379081 ], [ 49.6919965, -16.4377586 ], [ 49.6920267, -16.4376763 ], [ 49.692039, -16.4375863 ], [ 49.6921203, -16.4374303 ], [ 49.6921335, -16.4373414 ], [ 49.6921352, -16.437251 ], [ 49.6921604, -16.4371682 ], [ 49.692213, -16.4370934 ], [ 49.6922415, -16.4370111 ], [ 49.6922435, -16.4369207 ], [ 49.6923136, -16.4367586 ], [ 49.692334699999989, -16.4366719 ], [ 49.6924571, -16.4364328 ], [ 49.6926395, -16.4362295 ], [ 49.6930549, -16.435878 ], [ 49.6931767, -16.4357411 ], [ 49.6932537, -16.4356919 ], [ 49.6932936, -16.4356744 ], [ 49.6934359, -16.4356704 ], [ 49.6936029, -16.4356928 ], [ 49.6938661, -16.4357286 ], [ 49.6941439, -16.4356775 ], [ 49.6943555, -16.4356386 ], [ 49.694431599999987, -16.4357014 ], [ 49.6945322, -16.4357212 ], [ 49.6946186, -16.435712 ], [ 49.694726700000011, -16.435582 ], [ 49.6947524, -16.4354896 ], [ 49.6949205, -16.4353429 ], [ 49.695106, -16.435166 ], [ 49.6952835, -16.4351079 ], [ 49.6953308, -16.4351089 ], [ 49.6954655, -16.4350814 ], [ 49.6955008, -16.4350515 ], [ 49.6955362, -16.4350215 ], [ 49.695725599999989, -16.4350072 ], [ 49.6965574, -16.4349539 ], [ 49.6967951, -16.4349793 ], [ 49.696981899999983, -16.4349882 ], [ 49.6973024, -16.4350217 ], [ 49.6976028, -16.4349915 ], [ 49.6976869, -16.4350427 ], [ 49.6977515, -16.4350999 ], [ 49.6978379, -16.4351048 ], [ 49.6981652, -16.4351708 ], [ 49.6983989, -16.4351965 ], [ 49.6985202, -16.4352618 ], [ 49.698585, -16.4352067 ], [ 49.6987818, -16.4351829 ], [ 49.6988175, -16.4351629 ], [ 49.6989704, -16.4350639 ], [ 49.6991996, -16.4349959 ], [ 49.6992668, -16.4349372 ], [ 49.6993656, -16.434926 ], [ 49.6994975, -16.4348335 ], [ 49.6996403, -16.434801 ], [ 49.699717, -16.4347496 ], [ 49.6998435, -16.4346171 ], [ 49.7003348, -16.4339572 ], [ 49.7004515, -16.4338159 ], [ 49.700608400000014, -16.4336451 ], [ 49.7008021, -16.433456 ], [ 49.7008826, -16.433413 ], [ 49.7009456, -16.43334 ], [ 49.7011616, -16.4332593 ], [ 49.701401, -16.4332525 ], [ 49.701513799999987, -16.4331843 ], [ 49.7016163, -16.4331398 ], [ 49.7018202, -16.4331001 ], [ 49.7021754, -16.432987 ], [ 49.7022871, -16.4329396 ], [ 49.702354, -16.4328713 ], [ 49.702451, -16.4328279 ], [ 49.702524, -16.4328268 ], [ 49.7026031, -16.4327891 ], [ 49.7026415, -16.432755 ], [ 49.7027472, -16.4326549 ], [ 49.7028396, -16.4325633 ], [ 49.7029319, -16.4324651 ], [ 49.7029835, -16.432338 ], [ 49.703068, -16.4322294 ], [ 49.7031121, -16.4321033 ], [ 49.7031923, -16.4320062 ], [ 49.7032138, -16.4319549 ], [ 49.7032915, -16.4318464 ], [ 49.703309900000015, -16.4317592 ], [ 49.703466299999988, -16.4314408 ], [ 49.7034534, -16.4313085 ], [ 49.7036825, -16.4310824 ], [ 49.7037175, -16.4310394 ], [ 49.7037425, -16.4309674 ], [ 49.7037474, -16.4308736 ], [ 49.7037768, -16.4308634 ], [ 49.7038806, -16.4308274 ], [ 49.7039125, -16.4307517 ], [ 49.703921, -16.4306649 ], [ 49.7040096, -16.430543 ], [ 49.7050153, -16.4294718 ], [ 49.7051115, -16.4293803 ], [ 49.705283, -16.4292965 ], [ 49.705376, -16.4292835 ], [ 49.7055012, -16.4292282 ], [ 49.7055546, -16.4292228 ], [ 49.7056283, -16.4292597 ], [ 49.705776099999987, -16.4293821 ], [ 49.7059066, -16.4294082 ], [ 49.7059992, -16.4294005 ], [ 49.7077657, -16.4280288 ], [ 49.7045294, -16.4159356 ], [ 49.7041917, -16.4159307 ], [ 49.704041, -16.4160155 ], [ 49.7037394, -16.416088 ], [ 49.7036609, -16.416131 ], [ 49.7031061, -16.4161572 ], [ 49.7024453, -16.4155887 ], [ 49.7004102, -16.411568 ], [ 49.700382, -16.4114363 ], [ 49.7004039, -16.411258 ], [ 49.700477, -16.4109982 ], [ 49.7005497, -16.4108825 ], [ 49.7006689, -16.4107721 ], [ 49.7007859, -16.4106642 ], [ 49.7010268, -16.4105328 ], [ 49.7012872, -16.410274 ], [ 49.701591, -16.4099305 ], [ 49.7017169, -16.4096907 ], [ 49.7018149, -16.4095384 ], [ 49.7018491, -16.4094059 ], [ 49.7018379, -16.4091806 ], [ 49.7018148, -16.409094 ], [ 49.7017218, -16.4089413 ], [ 49.7016663, -16.4087688 ], [ 49.7016482, -16.4086809 ], [ 49.7016548, -16.4085916 ], [ 49.7016908, -16.4084143 ], [ 49.7017332, -16.4082725 ], [ 49.7017981, -16.408167 ], [ 49.7018791, -16.4080059 ], [ 49.7019087, -16.4079045 ], [ 49.7018983, -16.4078277 ], [ 49.7018959, -16.407647 ], [ 49.7018912, -16.4074962 ], [ 49.7018876, -16.407349 ], [ 49.701682, -16.4072421 ], [ 49.7015244, -16.4071446 ], [ 49.7012712, -16.4070305 ], [ 49.701107099999987, -16.4069591 ], [ 49.701026, -16.406748 ], [ 49.7010137, -16.406659 ], [ 49.7010214, -16.4063878 ], [ 49.7010365, -16.4062079 ], [ 49.701100399999987, -16.4060409 ], [ 49.7011616, -16.4059733 ], [ 49.7013084, -16.4058615 ], [ 49.7014948, -16.4057253 ], [ 49.7016434, -16.4055103 ], [ 49.7016596, -16.4049129 ], [ 49.7016708, -16.4045519 ], [ 49.7017277, -16.4041946 ], [ 49.701813099999988, -16.4040369 ], [ 49.7018985, -16.4038785 ], [ 49.70204, -16.4036448 ], [ 49.7021192, -16.4034832 ], [ 49.7021922, -16.4034408 ], [ 49.7027148, -16.4036077 ], [ 49.7030665, -16.4037129 ], [ 49.7032866, -16.403793 ], [ 49.7035527, -16.4036093 ], [ 49.7038614, -16.4034238 ], [ 49.7040145, -16.4033242 ], [ 49.7041772, -16.4031043 ], [ 49.7043119, -16.4028672 ], [ 49.7044059, -16.4027127 ], [ 49.704531100000011, -16.4022804 ], [ 49.7046691, -16.4020501 ], [ 49.7047125, -16.4018462 ], [ 49.7048715, -16.4016805 ], [ 49.7049819, -16.4014929 ], [ 49.705003, -16.4014102 ], [ 49.704909, -16.4013162 ], [ 49.7050055, -16.401195 ], [ 49.7050603, -16.4011275 ], [ 49.7049967, -16.4009816 ], [ 49.7049652, -16.400532 ], [ 49.7049422, -16.3998095 ], [ 49.7048638, -16.3996487 ], [ 49.7047306, -16.399317 ], [ 49.7046089, -16.3989812 ], [ 49.7046748, -16.3984482 ], [ 49.7049552, -16.398088 ], [ 49.7052595, -16.3976422 ], [ 49.7054115, -16.3973219 ], [ 49.7055564, -16.3971491 ], [ 49.7055211, -16.3970186 ], [ 49.70569, -16.3962559 ], [ 49.7059234, -16.3962562 ], [ 49.706195600000015, -16.3963174 ], [ 49.7064596, -16.3963957 ], [ 49.7066369, -16.3963625 ], [ 49.7068136, -16.3961547 ], [ 49.7070074, -16.3958518 ], [ 49.7073156, -16.3957329 ], [ 49.7077498, -16.3956928 ], [ 49.7080845, -16.3954361 ], [ 49.708273, -16.3952481 ], [ 49.7084635, -16.3949402 ], [ 49.7085285, -16.3946401 ], [ 49.7085958, -16.3943292 ], [ 49.7086764, -16.3941547 ], [ 49.7083838, -16.3935736 ], [ 49.7081085, -16.3933289 ], [ 49.7068432, -16.3922158 ], [ 49.706817, -16.3918074 ], [ 49.7070192, -16.3912169 ], [ 49.7073155, -16.3905555 ], [ 49.7075895, -16.3902466 ], [ 49.7077404, -16.3899869 ], [ 49.7076414, -16.3896485 ], [ 49.7074211, -16.3894193 ], [ 49.707109, -16.3892626 ], [ 49.7069563, -16.3891589 ], [ 49.7068709, -16.3891241 ], [ 49.7065537, -16.3892073 ], [ 49.7061527, -16.3892409 ], [ 49.705799, -16.3894299 ], [ 49.7055571, -16.3892044 ], [ 49.7053471, -16.3891196 ], [ 49.7052377, -16.3889785 ], [ 49.7050187, -16.3888108 ], [ 49.7040591, -16.3886247 ], [ 49.7038151, -16.3882727 ], [ 49.7035636, -16.3876915 ], [ 49.702867500000011, -16.3879702 ], [ 49.7026341, -16.3879715 ], [ 49.7024347, -16.3878515 ], [ 49.7020902, -16.387491 ], [ 49.7019051, -16.387142 ] ] ], [ [ [ 49.7010413, -16.3661389 ], [ 49.7015285, -16.3662889 ], [ 49.7021225, -16.3662858 ], [ 49.7024542, -16.3661845 ], [ 49.7027966, -16.365671 ], [ 49.703012199999989, -16.3652227 ], [ 49.7033465, -16.3649266 ], [ 49.7036251, -16.3646885 ], [ 49.7039058, -16.3643899 ], [ 49.7041404, -16.3639022 ], [ 49.7046076, -16.3634714 ], [ 49.7050197, -16.3631052 ], [ 49.7054985, -16.3625657 ], [ 49.7058883, -16.361917 ], [ 49.7059341, -16.3611934 ], [ 49.7060244, -16.3608543 ], [ 49.7062387, -16.3604839 ], [ 49.7066698, -16.3582814 ], [ 49.7113584, -16.3532528 ], [ 49.711769, -16.353056 ], [ 49.7113448, -16.35238 ], [ 49.7111771, -16.3510886 ], [ 49.7120365, -16.3502232 ], [ 49.709909, -16.3460596 ], [ 49.702864, -16.3456094 ], [ 49.7035259, -16.3516169 ], [ 49.7004662, -16.3551331 ], [ 49.6998868, -16.3584144 ], [ 49.6976841, -16.3643762 ], [ 49.6960551, -16.3656473 ], [ 49.6955162, -16.3659505 ], [ 49.6951491, -16.3663482 ], [ 49.6944469, -16.3672457 ], [ 49.6940643, -16.3676323 ], [ 49.694323, -16.3679875 ], [ 49.6947822, -16.3683028 ], [ 49.6950289, -16.3685582 ], [ 49.6953457, -16.3686323 ], [ 49.695718, -16.3689964 ], [ 49.696062, -16.3691373 ], [ 49.6965026, -16.3692666 ], [ 49.6969956, -16.3693826 ], [ 49.6973645, -16.3693339 ], [ 49.697618, -16.3690707 ], [ 49.6979044, -16.3685631 ], [ 49.69789140000001, -16.3677885 ], [ 49.6978725, -16.3673562 ], [ 49.6979017, -16.367179 ], [ 49.6980784, -16.3668662 ], [ 49.698430699999989, -16.3665772 ], [ 49.6989209, -16.3662693 ], [ 49.6994246, -16.3659862 ], [ 49.6998316, -16.3657833 ], [ 49.7005212, -16.3657494 ], [ 49.7010413, -16.3661389 ] ] ], [ [ [ 49.7801901, -16.3303927 ], [ 49.7783488, -16.329702 ], [ 49.777599, -16.3294474 ], [ 49.7767568, -16.3286343 ], [ 49.7746294, -16.325309 ], [ 49.7744976, -16.3245847 ], [ 49.7738472, -16.3191252 ], [ 49.7727674, -16.3185957 ], [ 49.7711745, -16.3176734 ], [ 49.7685189, -16.3189794 ], [ 49.7669778, -16.3211013 ], [ 49.7669923, -16.3228788 ], [ 49.7652044, -16.3245703 ], [ 49.7667097, -16.3280595 ], [ 49.7670751, -16.328571 ], [ 49.7679149, -16.3285328 ], [ 49.7682827, -16.3285677 ], [ 49.7690858, -16.3278208 ], [ 49.7699344, -16.3286058 ], [ 49.7704554, -16.3287639 ], [ 49.7714381, -16.3295984 ], [ 49.7750054, -16.3301144 ], [ 49.7754314, -16.3305455 ], [ 49.7763102, -16.3330453 ], [ 49.7762874, -16.3332191 ], [ 49.776283, -16.3334902 ], [ 49.7762602, -16.3338503 ], [ 49.7761618, -16.3341003 ], [ 49.7760252, -16.3343363 ], [ 49.7756699, -16.3347486 ], [ 49.7751856, -16.3350047 ], [ 49.7749225, -16.3350931 ], [ 49.774717400000014, -16.3352748 ], [ 49.774255, -16.3359384 ], [ 49.7741324, -16.3361724 ], [ 49.773997, -16.3366212 ], [ 49.7743635, -16.3370875 ], [ 49.7747849, -16.3375665 ], [ 49.7748946, -16.3379996 ], [ 49.7746471, -16.3383536 ], [ 49.7744678, -16.338553 ], [ 49.7743447, -16.3387933 ], [ 49.7741017, -16.339276 ], [ 49.7739891, -16.3396155 ], [ 49.7739657, -16.3399762 ], [ 49.7740533, -16.340225 ], [ 49.774119, -16.3405791 ], [ 49.7739169, -16.3410753 ], [ 49.773696, -16.3413629 ], [ 49.773499, -16.3415552 ], [ 49.7733769, -16.3418881 ], [ 49.7732157, -16.3422797 ], [ 49.7732683, -16.3425839 ], [ 49.7732894, -16.3428477 ], [ 49.7733025, -16.3430102 ], [ 49.7735315, -16.3429812 ], [ 49.7736902, -16.3428883 ], [ 49.7739497, -16.3428085 ], [ 49.774116, -16.3427353 ], [ 49.774396, -16.3427432 ], [ 49.7746579, -16.3428198 ], [ 49.7748439, -16.3428248 ], [ 49.7750296, -16.342841 ], [ 49.7752158, -16.3428555 ], [ 49.7753664, -16.3429548 ], [ 49.7757155, -16.3431729 ], [ 49.7760667, -16.3423345 ], [ 49.7761801, -16.3421422 ], [ 49.7762796, -16.3419904 ], [ 49.7763712, -16.3418438 ], [ 49.776541, -16.3417671 ], [ 49.7767144, -16.3416994 ], [ 49.7768912, -16.3416407 ], [ 49.777072, -16.3415949 ], [ 49.7772585, -16.341588 ], [ 49.7773516, -16.3415938 ], [ 49.7775249, -16.3415866 ], [ 49.7776064, -16.3415508 ], [ 49.7777914, -16.3415253 ], [ 49.7779709, -16.3414744 ], [ 49.7781511, -16.3414258 ], [ 49.778328, -16.3413722 ], [ 49.7784833, -16.341272 ], [ 49.7785947, -16.341129 ], [ 49.7786542, -16.3410005 ], [ 49.7787365, -16.3408907 ], [ 49.7788516, -16.3407483 ], [ 49.7789142, -16.3406812 ], [ 49.7789798, -16.3406169 ], [ 49.7791185, -16.3405001 ], [ 49.779196, -16.3404525 ], [ 49.7793657, -16.3403888 ], [ 49.7795523, -16.3403717 ], [ 49.7797389, -16.340358 ], [ 49.7798317, -16.3403487 ], [ 49.7799239, -16.3403325 ], [ 49.7800151, -16.3403124 ], [ 49.7801059, -16.3402918 ], [ 49.7801965, -16.3402683 ], [ 49.7802881, -16.3402589 ], [ 49.7803786, -16.3402462 ], [ 49.7804497, -16.3401936 ], [ 49.7805229, -16.3401496 ], [ 49.7807524, -16.3401335 ], [ 49.7808537, -16.3402268 ], [ 49.7810958, -16.3403579 ], [ 49.7812509, -16.3405717 ], [ 49.781276, -16.3409299 ], [ 49.7813464, -16.3410914 ], [ 49.7815636, -16.341259 ], [ 49.7818406, -16.3412637 ], [ 49.7822972, -16.3412688 ], [ 49.786445500000013, -16.3350675 ], [ 49.7864781, -16.3348897 ], [ 49.7864892, -16.3348003 ], [ 49.7864618, -16.3346697 ], [ 49.7855858, -16.3322509 ], [ 49.7854104, -16.3318487 ], [ 49.7801901, -16.3303927 ] ] ], [ [ [ 49.8546892, -16.3247173 ], [ 49.8546408, -16.3246892 ], [ 49.854629, -16.3246063 ], [ 49.8546105, -16.3244771 ], [ 49.8545962, -16.3245141 ], [ 49.8544152, -16.3249829 ], [ 49.8543717, -16.325279 ], [ 49.855402, -16.3250208 ], [ 49.8552654, -16.3229521 ], [ 49.8547109, -16.32203 ], [ 49.854317, -16.321721 ], [ 49.8537182, -16.3211796 ], [ 49.8535646, -16.3184054 ], [ 49.8520767, -16.3175451 ], [ 49.8502036, -16.3172721 ], [ 49.8452069, -16.318353 ], [ 49.8446442, -16.3218679 ], [ 49.8524858, -16.3231853 ], [ 49.852542, -16.3233271 ], [ 49.8526315, -16.3234489 ], [ 49.852746, -16.3234665 ], [ 49.8528663, -16.3234321 ], [ 49.8528939, -16.323415 ], [ 49.853005900000014, -16.3233455 ], [ 49.8532304, -16.3232236 ], [ 49.8537217, -16.3230549 ], [ 49.8539276, -16.323045 ], [ 49.8540934, -16.3230906 ], [ 49.8542536, -16.3231942 ], [ 49.8543408, -16.3233691 ], [ 49.8543931, -16.3235308 ], [ 49.8545169, -16.3235288 ], [ 49.8545877, -16.3233586 ], [ 49.8545893, -16.3233548 ], [ 49.8546634, -16.3232277 ], [ 49.8546969, -16.3232121 ], [ 49.8547397, -16.3231922 ], [ 49.8548349, -16.323148 ], [ 49.8548387, -16.323153 ], [ 49.8549894, -16.3233489 ], [ 49.855037, -16.3235765 ], [ 49.855036299999981, -16.3236379 ], [ 49.8550264, -16.3238443 ], [ 49.8550196, -16.3239873 ], [ 49.8550157, -16.3240797 ], [ 49.8550107, -16.3242446 ], [ 49.8550506, -16.3244216 ], [ 49.8550675, -16.3245073 ], [ 49.8550447, -16.3247676 ], [ 49.8549642, -16.3248729 ], [ 49.8549606, -16.3248776 ], [ 49.8549349, -16.3248623 ], [ 49.8547717, -16.3247651 ], [ 49.8546892, -16.3247173 ] ] ], [ [ [ 49.7980518, -16.3045748 ], [ 49.7857849, -16.3028643 ], [ 49.7806307, -16.3012748 ], [ 49.7788054, -16.3012225 ], [ 49.7784817, -16.3011023 ], [ 49.7781822, -16.3011263 ], [ 49.7772747, -16.3006458 ], [ 49.7759659, -16.300317 ], [ 49.7751685, -16.3002598 ], [ 49.7740129, -16.300418 ], [ 49.7730771, -16.3018682 ], [ 49.7725514, -16.3020041 ], [ 49.7721795, -16.3020067 ], [ 49.7715478, -16.3021319 ], [ 49.7704835, -16.3024413 ], [ 49.7700911, -16.3026814 ], [ 49.7699324, -16.3030058 ], [ 49.7696766, -16.3035802 ], [ 49.7696417, -16.3037581 ], [ 49.769089500000014, -16.30437 ], [ 49.7688827, -16.305132 ], [ 49.7685062, -16.3053133 ], [ 49.768055600000011, -16.3052233 ], [ 49.7678661, -16.3050829 ], [ 49.7676627, -16.3053651 ], [ 49.7674654, -16.306038 ], [ 49.7677781, -16.3064757 ], [ 49.7677842, -16.3067093 ], [ 49.7678104, -16.3070671 ], [ 49.7682108, -16.3076074 ], [ 49.7723924, -16.3123095 ], [ 49.7730363, -16.3126539 ], [ 49.7732968, -16.3127424 ], [ 49.7732974, -16.3130846 ], [ 49.7728622, -16.3134191 ], [ 49.7724299, -16.3135513 ], [ 49.77246250000001, -16.3138501 ], [ 49.7726159, -16.3141673 ], [ 49.7728529, -16.3145543 ], [ 49.7730584, -16.3147408 ], [ 49.7733861, -16.3145809 ], [ 49.773665699999988, -16.3145843 ], [ 49.7741309, -16.3148107 ], [ 49.7743584, -16.3146761 ], [ 49.7745456, -16.3146788 ], [ 49.7748022, -16.3148281 ], [ 49.7748782, -16.3152167 ], [ 49.7751508, -16.315462 ], [ 49.7755861, -16.3156132 ], [ 49.7759722, -16.3158623 ], [ 49.7762302, -16.3159034 ], [ 49.776756, -16.3160757 ], [ 49.7769094, -16.3163613 ], [ 49.7775551, -16.3167102 ], [ 49.7780772, -16.316773 ], [ 49.7783414, -16.3171404 ], [ 49.7784831, -16.3175628 ], [ 49.7787641, -16.3180271 ], [ 49.7789081, -16.3185511 ], [ 49.7790806, -16.3189267 ], [ 49.7793218, -16.3188032 ], [ 49.7797799, -16.3188851 ], [ 49.780239500000015, -16.3188507 ], [ 49.780423199999987, -16.3189178 ], [ 49.7806738, -16.318802 ], [ 49.7809806, -16.3187266 ], [ 49.781210500000014, -16.3186906 ], [ 49.7815467, -16.318753 ], [ 49.7909977, -16.31497 ], [ 49.7980518, -16.3045748 ] ] ], [ [ [ 49.7992426, -16.280178 ], [ 49.801480899999987, -16.2814162 ], [ 49.8037392, -16.2827263 ], [ 49.8081745, -16.2822396 ], [ 49.8096963, -16.2847813 ], [ 49.8163093, -16.2852714 ], [ 49.819286399999989, -16.2805161 ], [ 49.8197547, -16.2789183 ], [ 49.8174397, -16.2743204 ], [ 49.817551699999989, -16.2740876 ], [ 49.8175774, -16.2739904 ], [ 49.817718, -16.2737596 ], [ 49.8177826, -16.2735799 ], [ 49.8178444, -16.2734569 ], [ 49.8179385, -16.2733268 ], [ 49.8179636, -16.2732342 ], [ 49.8180375, -16.2730682 ], [ 49.8181341, -16.2729208 ], [ 49.818244, -16.2727571 ], [ 49.8184257, -16.2725665 ], [ 49.818565, -16.2724541 ], [ 49.8187356, -16.2723486 ], [ 49.8188658, -16.2722514 ], [ 49.8190203, -16.2721724 ], [ 49.8193923, -16.2716139 ], [ 49.8194765, -16.2714398 ], [ 49.8195931, -16.271299 ], [ 49.8197183, -16.2711683 ], [ 49.8197806, -16.2711063 ], [ 49.8198959, -16.2709734 ], [ 49.8204017, -16.2703242 ], [ 49.8199356, -16.2700669 ], [ 49.8195767, -16.2697773 ], [ 49.8191707, -16.2694077 ], [ 49.8188462, -16.2690832 ], [ 49.818633299999988, -16.2687929 ], [ 49.8183714, -16.2685362 ], [ 49.8181553, -16.2683635 ], [ 49.8179122, -16.2681517 ], [ 49.8175241, -16.2680721 ], [ 49.8172459, -16.2680596 ], [ 49.8169891, -16.2679683 ], [ 49.8168417, -16.2678589 ], [ 49.8167195, -16.2677225 ], [ 49.8166384, -16.267612 ], [ 49.8166429, -16.2674323 ], [ 49.8166474, -16.2672527 ], [ 49.8165543, -16.2670751 ], [ 49.8164962, -16.2668101 ], [ 49.8164354, -16.2666388 ], [ 49.817034, -16.2648848 ], [ 49.8134254, -16.2639217 ], [ 49.8113023, -16.2644799 ], [ 49.7979715, -16.2682352 ], [ 49.7953197, -16.2716603 ], [ 49.7961638, -16.2779322 ], [ 49.7992426, -16.280178 ] ] ] ] } }
]
}
