{
"type": "FeatureCollection",
"name": "MDG-6932-NODATE-secondary_zoning-001",
"crs": { "type": "name", "properties": { "name": "urn:ogc:def:crs:OGC:1.3:CRS84" } },
"features": [
{ "type": "Feature", "properties": { }, "geometry": { "type": "MultiPolygon", "coordinates": [ [ [ [ 47.2828549, -18.2079931 ], [ 47.2810326, -18.208507 ], [ 47.2796107, -18.2098212 ], [ 47.2782489, -18.2117972 ], [ 47.2782543, -18.2139924 ], [ 47.27794, -18.2161592 ], [ 47.2777745, -18.2182995 ], [ 47.2769692, -18.2199771 ], [ 47.2779154, -18.2215873 ], [ 47.2803011, -18.2223923 ], [ 47.2827882, -18.2228291 ], [ 47.2844055, -18.2226746 ], [ 47.2861817, -18.2231652 ], [ 47.287749, -18.2238159 ], [ 47.2894999, -18.2236287 ], [ 47.2888673, -18.2221966 ], [ 47.2885469, -18.2206435 ], [ 47.2885414, -18.2195075 ], [ 47.2876984, -18.2181255 ], [ 47.2877209, -18.2168144 ], [ 47.2870207, -18.215568 ], [ 47.2862027, -18.214615 ], [ 47.2857575, -18.2131222 ], [ 47.2856872, -18.2115931 ], [ 47.28624520000001, -18.2104893 ], [ 47.2856138, -18.2092963 ], [ 47.2846705, -18.208284 ], [ 47.2828549, -18.2079931 ] ] ], [ [ [ 47.2857286, -18.1558126 ], [ 47.2844206, -18.1569546 ], [ 47.2833633, -18.158215 ], [ 47.2819165, -18.1593535 ], [ 47.2814373, -18.1609144 ], [ 47.2806936, -18.1623528 ], [ 47.2802644, -18.1641486 ], [ 47.2801877, -18.1661337 ], [ 47.2815064, -18.1669029 ], [ 47.2832764, -18.167517 ], [ 47.2843429, -18.1667617 ], [ 47.2856469, -18.1647826 ], [ 47.28658, -18.1637021 ], [ 47.2878874, -18.1624406 ], [ 47.2899975, -18.1620277 ], [ 47.2925117, -18.1615231 ], [ 47.2931296, -18.1599656 ], [ 47.2925582, -18.158234 ], [ 47.292239, -18.1569198 ], [ 47.2915437, -18.155428 ], [ 47.289981499999982, -18.1557339 ], [ 47.287918, -18.1558627 ], [ 47.2857286, -18.1558126 ] ] ] ] } }
]
}
