{
"type": "FeatureCollection",
"name": "MDG-303700-NODATE-secondary_zoning-001",
"crs": { "type": "name", "properties": { "name": "urn:ogc:def:crs:OGC:1.3:CRS84" } },
"features": [
{ "type": "Feature", "properties": { }, "geometry": { "type": "MultiPolygon", "coordinates": [ [ [ [ 43.9476335, -21.1788157 ], [ 43.8622808, -21.2143727 ], [ 43.8389041, -21.2395391 ], [ 43.9165903, -21.2680508 ], [ 44.0080435, -21.2172398 ], [ 44.002626, -21.1916403 ], [ 43.9476335, -21.1788157 ] ] ], [ [ [ 44.0610382, -21.1363125 ], [ 44.0232852, -21.0913022 ], [ 43.998232, -21.102979 ], [ 44.0140144, -21.1604462 ], [ 44.0610382, -21.1363125 ] ] ], [ [ [ 43.699615, -21.1159531 ], [ 43.710117800000013, -21.0938827 ], [ 43.6686309, -21.0895685 ], [ 43.665079899999988, -21.113572 ], [ 43.699615, -21.1159531 ] ] ], [ [ [ 43.7369474, -21.0275928 ], [ 43.7471662, -20.9989528 ], [ 43.7305231, -20.9961381 ], [ 43.7134261, -21.0184698 ], [ 43.7369474, -21.0275928 ] ] ], [ [ [ 43.924646, -20.9021166 ], [ 43.8819232, -20.9507052 ], [ 43.9268916, -20.9539216 ], [ 43.9245444, -20.931647 ], [ 43.9641911, -20.9515466 ], [ 43.9976782, -20.8966065 ], [ 43.924646, -20.9021166 ] ] ], [ [ [ 43.770843899999988, -20.8892224 ], [ 43.721984299999988, -20.8880908 ], [ 43.7188373, -20.9121022 ], [ 43.7719909, -20.9122083 ], [ 43.770843899999988, -20.8892224 ] ] ], [ [ [ 43.9350695, -20.8111208 ], [ 43.9391602, -20.8217534 ], [ 43.9443142, -20.7912024 ], [ 43.9350695, -20.8111208 ] ] ], [ [ [ 44.1017927, -20.7868457 ], [ 44.086163, -20.8449707 ], [ 44.1891655, -20.9090597 ], [ 44.2230984, -20.8704845 ], [ 44.2696759, -20.8141941 ], [ 44.2059877, -20.8014166 ], [ 44.2696914, -20.8131004 ], [ 44.2794603, -20.7804061 ], [ 44.269463900000012, -20.7471 ], [ 44.2712566, -20.729985 ], [ 44.2404858, -20.7135536 ], [ 44.1921173, -20.7085573 ], [ 44.170444599999989, -20.7589564 ], [ 44.1843543, -20.7620553 ], [ 44.1800222, -20.7961998 ], [ 44.1668293, -20.7935475 ], [ 44.1663603, -20.7990106 ], [ 44.1601792, -20.7974707 ], [ 44.1617951, -20.7931166 ], [ 44.1017927, -20.7868457 ] ] ], [ [ [ 43.821129800000016, -20.6949484 ], [ 43.8461397, -20.7051698 ], [ 43.8590034, -20.6776548 ], [ 43.831636, -20.6695873 ], [ 43.821129800000016, -20.6949484 ] ] ] ] } }
]
}
