{
"type": "FeatureCollection",
"name": "MDG-26070-2002-boundary_modification-001",
"crs": { "type": "name", "properties": { "name": "urn:ogc:def:crs:OGC:1.3:CRS84" } },
"features": [
{ "type": "Feature", "properties": { }, "geometry": { "type": "Polygon", "coordinates": [ [ [ 48.4745779, -18.7725943 ], [ 48.4741871, -18.7720282 ], [ 48.4741751, -18.772017 ], [ 48.4741625, -18.7720059 ], [ 48.4738914, -18.7712916 ], [ 48.4738911, -18.7712685 ], [ 48.4736458, -18.7707245 ], [ 48.4736332, -18.7707133 ], [ 48.4731483, -18.7703639 ], [ 48.4731357, -18.7703528 ], [ 48.4723994, -18.7702539 ], [ 48.4721849, -18.7705617 ], [ 48.4720432, -18.7709602 ], [ 48.4719754, -18.7714946 ], [ 48.4717982, -18.7719494 ], [ 48.4707968, -18.7719889 ], [ 48.470461899999989, -18.7723426 ], [ 48.4704383, -18.7723542 ], [ 48.4704141, -18.7723652 ], [ 48.4700162, -18.7724016 ], [ 48.4697335, -18.7732099 ], [ 48.4684004, -18.7739323 ], [ 48.4682254, -18.7746253 ], [ 48.4683966, -18.7749657 ], [ 48.4678704, -18.7754909 ], [ 48.4675153, -18.7763439 ], [ 48.4675036, -18.7763559 ], [ 48.467491300000013, -18.7763674 ], [ 48.4671927, -18.776641 ], [ 48.4665981, -18.7762352 ], [ 48.4665855, -18.776224 ], [ 48.4660293, -18.7760679 ], [ 48.4659932, -18.7760683 ], [ 48.4655927, -18.7757405 ], [ 48.4653111, -18.7752873 ], [ 48.464866, -18.7754039 ], [ 48.4642972, -18.7752247 ], [ 48.4642735, -18.775225 ], [ 48.4642492, -18.7752252 ], [ 48.4634793, -18.7755469 ], [ 48.4631939, -18.7759797 ], [ 48.4629472, -18.7767305 ], [ 48.462947, -18.7767649 ], [ 48.4626977, -18.7772431 ], [ 48.4629536, -18.7775713 ], [ 48.4629656, -18.7775824 ], [ 48.4630437, -18.7782745 ], [ 48.4631825, -18.7789901 ], [ 48.4631829, -18.779024 ], [ 48.4632965, -18.7796027 ], [ 48.4631555, -18.780069 ], [ 48.462529599999989, -18.7803332 ], [ 48.4625185, -18.7803451 ], [ 48.4616261, -18.7804399 ], [ 48.461266, -18.7806691 ], [ 48.4611362, -18.7810223 ], [ 48.460676, -18.7808087 ], [ 48.4601948, -18.7809815 ], [ 48.4597884, -18.7811073 ], [ 48.4596978, -18.7810111 ], [ 48.4594686, -18.7807335 ], [ 48.4593547, -18.7806263 ], [ 48.4592978, -18.7805783 ], [ 48.4589345, -18.7803834 ], [ 48.4585258, -18.7804668 ], [ 48.4581757, -18.7804914 ], [ 48.4576801, -18.7802398 ], [ 48.457612, -18.7801976 ], [ 48.4575272, -18.7801443 ], [ 48.4568757, -18.7798983 ], [ 48.456779399999988, -18.7798778 ], [ 48.456413399999988, -18.7799088 ], [ 48.4561371, -18.7799547 ], [ 48.455979199999987, -18.7799942 ], [ 48.455572, -18.7801036 ], [ 48.454964399999987, -18.7802614 ], [ 48.4543244, -18.780537 ], [ 48.4536436, -18.7806741 ], [ 48.4523885, -18.7809246 ], [ 48.4504321, -18.7901471 ], [ 48.4508298, -18.7908374 ], [ 48.4507106, -18.7912921 ], [ 48.4502915, -18.7916038 ], [ 48.4495798, -18.7920422 ], [ 48.4486744, -18.7924962 ], [ 48.4482082, -18.7926796 ], [ 48.4476393, -18.7927613 ], [ 48.4470181, -18.7927244 ], [ 48.4466472, -18.7925906 ], [ 48.4461433, -18.7924451 ], [ 48.4457805, -18.7922982 ], [ 48.4455981, -18.7921115 ], [ 48.4454716, -18.7919406 ], [ 48.4453566, -18.791742 ], [ 48.444945299999986, -18.7915549 ], [ 48.4448429, -18.7914645 ], [ 48.444297, -18.7911309 ], [ 48.444092, -18.7909332 ], [ 48.4438595, -18.7908283 ], [ 48.4434701, -18.790789 ], [ 48.4421428, -18.7907008 ], [ 48.4415, -18.7907449 ], [ 48.4414548, -18.7907352 ], [ 48.440612, -18.790512 ], [ 48.4399852, -18.790705 ], [ 48.439917099999981, -18.7907057 ], [ 48.4398612, -18.790695 ], [ 48.4397927, -18.7906687 ], [ 48.4395783, -18.7906337 ], [ 48.439471, -18.7906348 ], [ 48.4392913, -18.7906853 ], [ 48.4389761, -18.790753 ], [ 48.4389078, -18.790743 ], [ 48.4388459, -18.7907221 ], [ 48.4383703, -18.79056 ], [ 48.4382677, -18.7905131 ], [ 48.4377168, -18.7899446 ], [ 48.4376367, -18.789832 ], [ 48.437597, -18.7897895 ], [ 48.4375397, -18.7897523 ], [ 48.4372175, -18.78968 ], [ 48.4368444, -18.7896139 ], [ 48.4365631, -18.789644 ], [ 48.4363156, -18.7897223 ], [ 48.436121599999986, -18.7900202 ], [ 48.4359002, -18.7904054 ], [ 48.4350522, -18.7904928 ], [ 48.4350131, -18.7904933 ], [ 48.4349789, -18.7905094 ], [ 48.4343192, -18.7905328 ], [ 48.4343026, -18.7905278 ], [ 48.4337493, -18.7900108 ], [ 48.433743, -18.7899781 ], [ 48.4336028, -18.7895487 ], [ 48.4335748, -18.7895326 ], [ 48.4321954, -18.7893585 ], [ 48.432179, -18.7893751 ], [ 48.4318792, -18.7897984 ], [ 48.4313897, -18.789917 ], [ 48.431097199999989, -18.7899574 ], [ 48.4310464, -18.7899692 ], [ 48.4303921, -18.7899434 ], [ 48.4302276, -18.7899236 ], [ 48.4301373, -18.7899031 ], [ 48.4289159, -18.7896517 ], [ 48.428904399999986, -18.7896303 ], [ 48.4288647, -18.7896251 ], [ 48.4277476, -18.7888531 ], [ 48.4277303, -18.7888476 ], [ 48.4277076, -18.788832 ], [ 48.426857, -18.7884361 ], [ 48.4268287, -18.7884578 ], [ 48.4267952, -18.788426 ], [ 48.42614, -18.7883685 ], [ 48.4260778, -18.7883799 ], [ 48.4257664, -18.7887722 ], [ 48.425556300000011, -18.7896819 ], [ 48.4255446, -18.7896933 ], [ 48.425145499999985, -18.7910697 ], [ 48.4251332, -18.7910806 ], [ 48.4251334, -18.7911037 ], [ 48.4249712, -18.7919451 ], [ 48.4249715, -18.7919677 ], [ 48.425133599999988, -18.792603 ], [ 48.4251456, -18.7926142 ], [ 48.4253444, -18.7932948 ], [ 48.4253564, -18.7933065 ], [ 48.4253874, -18.7941922 ], [ 48.4253876, -18.7942148 ], [ 48.425537, -18.7948276 ], [ 48.4256013, -18.7952584 ], [ 48.4256283, -18.7956449 ], [ 48.4257034, -18.7959852 ], [ 48.4259971, -18.7964604 ], [ 48.426009, -18.7964721 ], [ 48.4264461, -18.7967312 ], [ 48.4268925, -18.7967288 ], [ 48.4273397, -18.7969427 ], [ 48.4273523, -18.7969544 ], [ 48.4275853, -18.7974189 ], [ 48.4276612, -18.797827 ], [ 48.4278232, -18.798451 ], [ 48.4278383, -18.7988822 ], [ 48.4278169, -18.7992354 ], [ 48.4278925, -18.7996208 ], [ 48.4281007, -18.7999834 ], [ 48.4284057, -18.8004134 ], [ 48.428430100000014, -18.800425 ], [ 48.4287726, -18.8010702 ], [ 48.4288029, -18.8017407 ], [ 48.4288026, -18.8017633 ], [ 48.4288223, -18.8026943 ], [ 48.4290564, -18.8033519 ], [ 48.4291943, -18.8039423 ], [ 48.4291977, -18.804385 ], [ 48.4290684, -18.8047946 ], [ 48.4290567, -18.804806 ], [ 48.429159800000015, -18.8056684 ], [ 48.4291719, -18.8056914 ], [ 48.429184, -18.8057138 ], [ 48.4292985, -18.8063835 ], [ 48.429362100000013, -18.8068487 ], [ 48.4291472, -18.8071339 ], [ 48.429136, -18.8071458 ], [ 48.428694, -18.8077383 ], [ 48.428468800000012, -18.8082619 ], [ 48.428457099999981, -18.8082733 ], [ 48.4285602, -18.8091357 ], [ 48.4289404, -18.8098613 ], [ 48.4293561, -18.8105746 ], [ 48.4293687, -18.8105858 ], [ 48.4298211, -18.8113558 ], [ 48.4298331, -18.8113675 ], [ 48.4301871, -18.8118771 ], [ 48.4301998, -18.8118995 ], [ 48.4303366, -18.8124899 ], [ 48.4304142, -18.8130458 ], [ 48.4304144, -18.8130684 ], [ 48.4308395, -18.8134186 ], [ 48.4312011, -18.8134057 ], [ 48.4315867, -18.8133695 ], [ 48.4324013, -18.8140696 ], [ 48.432528300000016, -18.8148983 ], [ 48.4325286, -18.8149215 ], [ 48.4330782, -18.8157819 ], [ 48.4331442, -18.8164058 ], [ 48.4331479, -18.8169286 ], [ 48.4331517, -18.8174058 ], [ 48.4337852, -18.8180841 ], [ 48.4337972, -18.8180952 ], [ 48.4342724, -18.8186724 ], [ 48.4347491, -18.8194308 ], [ 48.4355179, -18.8204725 ], [ 48.435518099999989, -18.8204945 ], [ 48.4358859, -18.8212196 ], [ 48.4360819, -18.8216507 ], [ 48.4362317, -18.8222409 ], [ 48.4360914, -18.8228206 ], [ 48.4359408, -18.8235371 ], [ 48.4356432, -18.8241066 ], [ 48.4348863, -18.8244963 ], [ 48.4342739, -18.8248625 ], [ 48.4337592, -18.825331 ], [ 48.4335709, -18.8259112 ], [ 48.4334321, -18.8266727 ], [ 48.4330758, -18.8274016 ], [ 48.4326703, -18.8280168 ], [ 48.4321041, -18.8281329 ], [ 48.4316885, -18.8289081 ], [ 48.4316762, -18.828919 ], [ 48.4310389, -18.829195 ], [ 48.4306494, -18.830276 ], [ 48.4306058, -18.8308666 ], [ 48.4307695, -18.8317288 ], [ 48.4310305, -18.8326025 ], [ 48.4314088, -18.8331118 ], [ 48.431598, -18.8326563 ], [ 48.4319487, -18.8327684 ], [ 48.4323254, -18.8330846 ], [ 48.4323164, -18.8334822 ], [ 48.4320155, -18.8336198 ], [ 48.432067, -18.8339152 ], [ 48.4320224, -18.8344148 ], [ 48.4319653, -18.8348587 ], [ 48.4318852, -18.835313 ], [ 48.4313079, -18.8355997 ], [ 48.4308993, -18.8358062 ], [ 48.4308699, -18.8366925 ], [ 48.4309468, -18.8372372 ], [ 48.4314795, -18.8374507 ], [ 48.431519, -18.8377907 ], [ 48.4312065, -18.8379973 ], [ 48.4306777, -18.8382723 ], [ 48.4301494, -18.8386381 ], [ 48.4299362, -18.8390706 ], [ 48.4298201, -18.8396958 ], [ 48.4295721, -18.8402993 ], [ 48.4294172, -18.8405499 ], [ 48.4294553, -18.840811 ], [ 48.4292156, -18.841062 ], [ 48.4291347, -18.8414485 ], [ 48.4291618, -18.8417893 ], [ 48.4291396, -18.842073 ], [ 48.4291797, -18.8425622 ], [ 48.4292438, -18.8430274 ], [ 48.4292564, -18.843038 ], [ 48.4292588, -18.8433451 ], [ 48.429042, -18.8434711 ], [ 48.4287168, -18.8435061 ], [ 48.4286216, -18.8436319 ], [ 48.428538300000014, -18.8438141 ], [ 48.428260699999989, -18.843861 ], [ 48.428178, -18.8440432 ], [ 48.428228, -18.8442696 ], [ 48.4283983, -18.8444282 ], [ 48.428473, -18.8447341 ], [ 48.4281239, -18.8448501 ], [ 48.4281119, -18.8448384 ], [ 48.4280179, -18.8451228 ], [ 48.4280056, -18.8451343 ], [ 48.428058, -18.8456109 ], [ 48.428183, -18.8462126 ], [ 48.4281833, -18.8462352 ], [ 48.4283344, -18.8469954 ], [ 48.428398, -18.847416 ], [ 48.4283983, -18.8474386 ], [ 48.4283866, -18.8474494 ], [ 48.4281841, -18.8478372 ], [ 48.4280541, -18.8481328 ], [ 48.4280336, -18.8485644 ], [ 48.4280358, -18.8488597 ], [ 48.4278932, -18.8490877 ], [ 48.4277499, -18.8493608 ], [ 48.4276678, -18.8496 ], [ 48.4276689, -18.8497479 ], [ 48.4274773, -18.8498956 ], [ 48.427465, -18.8499076 ], [ 48.4272614, -18.8501017 ], [ 48.4272034, -18.8504197 ], [ 48.427269200000012, -18.8510215 ], [ 48.427269, -18.8510554 ], [ 48.4272746, -18.8516918 ], [ 48.4272742, -18.8517144 ], [ 48.4273372, -18.8520779 ], [ 48.4272088, -18.8525666 ], [ 48.4270782, -18.8528627 ], [ 48.4270666, -18.8528854 ], [ 48.4270543, -18.8528969 ], [ 48.4268859, -18.8528975 ], [ 48.4267421, -18.8530797 ], [ 48.4267571, -18.8533529 ], [ 48.4267955, -18.853693 ], [ 48.4266901, -18.854069 ], [ 48.4266778, -18.8540799 ], [ 48.4265484, -18.8544325 ], [ 48.4262111, -18.8545478 ], [ 48.4258269, -18.8547653 ], [ 48.4257318, -18.8550046 ], [ 48.4257707, -18.8553453 ], [ 48.4256165, -18.855653 ], [ 48.4255576, -18.8558913 ], [ 48.425572, -18.8561069 ], [ 48.4257184, -18.8563566 ], [ 48.4259476, -18.8562757 ], [ 48.4259594, -18.8562643 ], [ 48.4262492, -18.8562968 ], [ 48.4263107, -18.8564329 ], [ 48.4261304, -18.8565364 ], [ 48.4261186, -18.8565472 ], [ 48.4260239, -18.8567634 ], [ 48.4260125, -18.8569115 ], [ 48.4262188, -18.8570013 ], [ 48.4263169, -18.8572279 ], [ 48.4262353, -18.8575009 ], [ 48.4259451, -18.8575361 ], [ 48.425789800000011, -18.8576513 ], [ 48.42578, -18.8579806 ], [ 48.4257683, -18.8579914 ], [ 48.4256263, -18.8583334 ], [ 48.425614100000011, -18.8583562 ], [ 48.4255693, -18.8587875 ], [ 48.4255579, -18.8588221 ], [ 48.425538, -18.8593559 ], [ 48.4255382, -18.8593785 ], [ 48.4256026, -18.8599126 ], [ 48.4256028, -18.8599351 ], [ 48.4259542, -18.8601601 ], [ 48.4259668, -18.8601713 ], [ 48.4265388, -18.8607486 ], [ 48.426843, -18.8610537 ], [ 48.426855, -18.8610643 ], [ 48.4269553, -18.8615749 ], [ 48.4269555, -18.861598 ], [ 48.4271055, -18.8621538 ], [ 48.4271175, -18.8621649 ], [ 48.4272412, -18.8625962 ], [ 48.427364499999989, -18.8629026 ], [ 48.4274505, -18.8631062 ], [ 48.4271128, -18.8630854 ], [ 48.427102, -18.8632787 ], [ 48.426948, -18.8635513 ], [ 48.4266473, -18.8637578 ], [ 48.426398, -18.864259 ], [ 48.4263864, -18.8642817 ], [ 48.4263743, -18.8643045 ], [ 48.4261491, -18.8647823 ], [ 48.4261287, -18.8652252 ], [ 48.426215199999987, -18.8655202 ], [ 48.4264242, -18.8659963 ], [ 48.4265733, -18.8665295 ], [ 48.4265854, -18.8665519 ], [ 48.426735, -18.8671196 ], [ 48.4266672, -18.8676652 ], [ 48.4264059, -18.8681999 ], [ 48.4263936, -18.8682119 ], [ 48.4263849, -18.8685863 ], [ 48.4263864, -18.8687682 ], [ 48.4266174, -18.8689939 ], [ 48.4264613, -18.8691423 ], [ 48.4264385, -18.8692679 ], [ 48.4267891, -18.8693224 ], [ 48.4270313, -18.8694463 ], [ 48.4270938, -18.8696619 ], [ 48.4269015, -18.869856 ], [ 48.4270142, -18.8703212 ], [ 48.4271631, -18.8708318 ], [ 48.42702, -18.8710253 ], [ 48.4268281, -18.8711962 ], [ 48.4268301, -18.8714237 ], [ 48.4268805, -18.8716733 ], [ 48.4267141, -18.8720608 ], [ 48.4266431, -18.8721744 ], [ 48.426920400000014, -18.872093 ], [ 48.4269315, -18.8720822 ], [ 48.4271747, -18.872183 ], [ 48.427152, -18.8724215 ], [ 48.4271284, -18.8724336 ], [ 48.427023, -18.8729107 ], [ 48.4268428, -18.8730256 ], [ 48.4265158, -18.8728562 ], [ 48.4263361, -18.8730162 ], [ 48.4261687, -18.87321 ], [ 48.4259749, -18.87312 ], [ 48.4257957, -18.8733709 ], [ 48.4255318, -18.8735312 ], [ 48.425401099999988, -18.8738161 ], [ 48.4254535, -18.8743497 ], [ 48.4249714, -18.874409 ], [ 48.4246952, -18.8746372 ], [ 48.4246368, -18.8748648 ], [ 48.424324, -18.8750025 ], [ 48.4240953, -18.8751286 ], [ 48.4240837, -18.8751513 ], [ 48.4241717, -18.8755259 ], [ 48.4244647, -18.8759333 ], [ 48.4244761, -18.8759445 ], [ 48.4246834, -18.8761705 ], [ 48.424638, -18.8765001 ], [ 48.424629, -18.8768526 ], [ 48.42463, -18.8768893 ], [ 48.431445, -18.8763533 ], [ 48.442735299999988, -18.8931429 ], [ 48.4779361, -18.8785178 ], [ 48.5100974, -18.8807118 ], [ 48.5012878, -18.8738635 ], [ 48.5078667, -18.8626868 ], [ 48.5118213, -18.8579065 ], [ 48.5145645, -18.8527696 ], [ 48.5148041, -18.8525755 ], [ 48.5151291, -18.8524262 ], [ 48.5155019, -18.8523109 ], [ 48.5160694, -18.8522962 ], [ 48.516081699999987, -18.8522842 ], [ 48.5167694, -18.852315 ], [ 48.5173127, -18.8523125 ], [ 48.5178111, -18.852718 ], [ 48.5181481, -18.852637 ], [ 48.5186541, -18.8524981 ], [ 48.5190754, -18.8524161 ], [ 48.5195942, -18.8524477 ], [ 48.520103, -18.8525929 ], [ 48.5207191, -18.8527255 ], [ 48.5212154, -18.8528596 ], [ 48.5217347, -18.8528905 ], [ 48.5220716, -18.8527982 ], [ 48.5221407, -18.8524338 ], [ 48.5221405, -18.8524112 ], [ 48.5222944, -18.8520018 ], [ 48.522306, -18.8519785 ], [ 48.522472099999987, -18.8515916 ], [ 48.5224832, -18.8515802 ], [ 48.5227823, -18.8512494 ], [ 48.522794, -18.8512379 ], [ 48.5230681, -18.8507595 ], [ 48.5230803, -18.8507367 ], [ 48.522967699999988, -18.8503055 ], [ 48.5229551, -18.8502943 ], [ 48.5224577, -18.8500129 ], [ 48.5224339, -18.8500132 ], [ 48.5218411, -18.849891 ], [ 48.520947, -18.8497602 ], [ 48.5205725, -18.8496481 ], [ 48.5205103, -18.8494556 ], [ 48.5207006, -18.8491593 ], [ 48.5207684, -18.8486363 ], [ 48.5209931, -18.8480443 ], [ 48.5213525, -18.8477473 ], [ 48.5217745, -18.8476771 ], [ 48.5222692, -18.8476858 ], [ 48.5229181, -18.847398 ], [ 48.5229304, -18.8473866 ], [ 48.5236245, -18.8466674 ], [ 48.5236362, -18.846656 ], [ 48.5240422, -18.8461992 ], [ 48.5240545, -18.8461884 ], [ 48.524448299999982, -18.8456973 ], [ 48.5246244, -18.8451629 ], [ 48.5244653, -18.8448569 ], [ 48.524342, -18.8446188 ], [ 48.5242203, -18.8444609 ], [ 48.5237477, -18.8442245 ], [ 48.5237357, -18.8442139 ], [ 48.5233224, -18.8439209 ], [ 48.5233104, -18.8439091 ], [ 48.5226805, -18.8436625 ], [ 48.5221256, -18.8436314 ], [ 48.5216553, -18.8436795 ], [ 48.521183799999989, -18.8435797 ], [ 48.5206877, -18.8434118 ], [ 48.5203995, -18.8435612 ], [ 48.5201364, -18.8439147 ], [ 48.5201246, -18.8439262 ], [ 48.5198966, -18.8440981 ], [ 48.5194986, -18.8440883 ], [ 48.5190372, -18.8437507 ], [ 48.5190246, -18.843739 ], [ 48.5188535, -18.8434218 ], [ 48.5188415, -18.8434106 ], [ 48.5187422, -18.8431955 ], [ 48.5186335, -18.843082 ], [ 48.5183404, -18.8427318 ], [ 48.5183284, -18.8427206 ], [ 48.5181922, -18.8423466 ], [ 48.5181419, -18.8421083 ], [ 48.5179467, -18.8418597 ], [ 48.5177148, -18.8415653 ], [ 48.5175063, -18.8411915 ], [ 48.517443, -18.8408167 ], [ 48.5174153, -18.8403856 ], [ 48.5173518, -18.8400452 ], [ 48.517216700000013, -18.8397616 ], [ 48.5171543, -18.8395008 ], [ 48.5171389, -18.8391153 ], [ 48.5170276, -18.8387862 ], [ 48.5166855, -18.8383563 ], [ 48.5166741, -18.8383451 ], [ 48.516538, -18.8380276 ], [ 48.5165113, -18.8377326 ], [ 48.516533799999984, -18.8374822 ], [ 48.5164946, -18.8371873 ], [ 48.5160689, -18.8368035 ], [ 48.5158737, -18.8364984 ], [ 48.5157504, -18.8362146 ], [ 48.5155302, -18.8358523 ], [ 48.5153705, -18.8355463 ], [ 48.5153585, -18.8355351 ], [ 48.5152473, -18.8352179 ], [ 48.5152569, -18.8349789 ], [ 48.5152669, -18.8347292 ], [ 48.5151671, -18.8343209 ], [ 48.5151428, -18.8342755 ], [ 48.5147763, -18.8338345 ], [ 48.5147649, -18.8338234 ], [ 48.5143266, -18.8334284 ], [ 48.5143146, -18.8334167 ], [ 48.5137804, -18.8330335 ], [ 48.5133177, -18.832536 ], [ 48.5133052, -18.8325249 ], [ 48.5131556, -18.8319805 ], [ 48.513156, -18.8319579 ], [ 48.5132117, -18.8314694 ], [ 48.51317, -18.8308109 ], [ 48.5129844, -18.8302776 ], [ 48.5125331, -18.8297343 ], [ 48.512505, -18.8292235 ], [ 48.5122116, -18.8287485 ], [ 48.511868, -18.8281368 ], [ 48.5113074, -18.8274359 ], [ 48.510761, -18.8270749 ], [ 48.5099252, -18.8267046 ], [ 48.5099007, -18.8266936 ], [ 48.5091153, -18.8265271 ], [ 48.508428599999988, -18.8266216 ], [ 48.5078092, -18.8261591 ], [ 48.5073685, -18.8254576 ], [ 48.506749, -18.8249832 ], [ 48.5067364, -18.8249726 ], [ 48.5058519, -18.8244995 ], [ 48.5055575, -18.8238878 ], [ 48.5051184, -18.8234245 ], [ 48.505107, -18.8234133 ], [ 48.504754, -18.823097 ], [ 48.5040635, -18.8227827 ], [ 48.5033855, -18.8225247 ], [ 48.5033736, -18.8225141 ], [ 48.5030903, -18.8218904 ], [ 48.5030783, -18.8218792 ], [ 48.5027958, -18.8212674 ], [ 48.5023446, -18.8206788 ], [ 48.5020723, -18.8198856 ], [ 48.5017871, -18.8190011 ], [ 48.5016853, -18.8183765 ], [ 48.5016734, -18.8183659 ], [ 48.5017178, -18.8179227 ], [ 48.5019555, -18.8175695 ], [ 48.5019678, -18.8175575 ], [ 48.5024347, -18.8170781 ], [ 48.5030138, -18.8171096 ], [ 48.503666, -18.817151 ], [ 48.5052343, -18.8171429 ], [ 48.5058741, -18.8172421 ], [ 48.5064178, -18.8172847 ], [ 48.5064421, -18.8172845 ], [ 48.5067788, -18.8171232 ], [ 48.506751800000011, -18.8168056 ], [ 48.5067515, -18.816783 ], [ 48.5068448, -18.8163506 ], [ 48.5072412, -18.8161328 ], [ 48.5072529, -18.8161214 ], [ 48.5077923, -18.8157553 ], [ 48.5083598, -18.8157632 ], [ 48.5090371, -18.8159641 ], [ 48.5094741, -18.8163139 ], [ 48.5094867, -18.8163257 ], [ 48.5098398, -18.8166871 ], [ 48.5102041, -18.8170033 ], [ 48.5106142, -18.8169785 ], [ 48.511048, -18.8168625 ], [ 48.5112877, -18.8167249 ], [ 48.5113119, -18.8167134 ], [ 48.511578, -18.8168031 ], [ 48.511869, -18.8168925 ], [ 48.5118804, -18.8169031 ], [ 48.5122794, -18.8169467 ], [ 48.5123155, -18.8169356 ], [ 48.5134338, -18.8165433 ], [ 48.5139737, -18.8161766 ], [ 48.5139861, -18.8161657 ], [ 48.5142533, -18.8163915 ], [ 48.5146757, -18.8163665 ], [ 48.5150245, -18.8162277 ], [ 48.5152527, -18.8161704 ], [ 48.5156146, -18.8161337 ], [ 48.5158649, -18.8158034 ], [ 48.5158771, -18.8157807 ], [ 48.5161275, -18.8154047 ], [ 48.5161393, -18.8153927 ], [ 48.5164534, -18.8154819 ], [ 48.5170087, -18.8155018 ], [ 48.5173678, -18.8151935 ], [ 48.5175933, -18.8146692 ], [ 48.5176048, -18.8146358 ], [ 48.517617, -18.8146131 ], [ 48.5179266, -18.8141794 ], [ 48.5187237, -18.8142435 ], [ 48.5190023, -18.8143782 ], [ 48.5196894, -18.8143176 ], [ 48.5201359, -18.8142697 ], [ 48.5205715, -18.814449 ], [ 48.5209592, -18.8146401 ], [ 48.5213946, -18.8147968 ], [ 48.5214189, -18.8147966 ], [ 48.5218893, -18.8147609 ], [ 48.522286099999981, -18.8145764 ], [ 48.522752299999986, -18.814097 ], [ 48.522764, -18.8140855 ], [ 48.5227763, -18.8140741 ], [ 48.5231321, -18.8133452 ], [ 48.5231445, -18.8133343 ], [ 48.5230065, -18.8127666 ], [ 48.5232533, -18.8119931 ], [ 48.5234187, -18.8115492 ], [ 48.5236678, -18.8111167 ], [ 48.5240486, -18.810444 ], [ 48.5241309, -18.8102392 ], [ 48.5244313, -18.8101241 ], [ 48.524477, -18.8097831 ], [ 48.5245086, -18.8092604 ], [ 48.5247338, -18.8088164 ], [ 48.5249572, -18.8081222 ], [ 48.524957, -18.8080996 ], [ 48.5247853, -18.8078276 ], [ 48.5243746, -18.8077051 ], [ 48.524156, -18.8075246 ], [ 48.5241786, -18.8073312 ], [ 48.5243709, -18.8072963 ], [ 48.5243952, -18.8072961 ], [ 48.5247074, -18.8071808 ], [ 48.5249223, -18.8069068 ], [ 48.524934599999987, -18.8068954 ], [ 48.5249317, -18.8065549 ], [ 48.5249757, -18.8060773 ], [ 48.5250209, -18.8057024 ], [ 48.5250206, -18.8056799 ], [ 48.5253029, -18.8048038 ], [ 48.5252982, -18.8042702 ], [ 48.5252978, -18.8042358 ], [ 48.5252938, -18.8037592 ], [ 48.5254226, -18.8033377 ], [ 48.5257819, -18.8029955 ], [ 48.526130499999987, -18.802846 ], [ 48.5261549, -18.8028457 ], [ 48.526674, -18.8028772 ], [ 48.5271326, -18.8029422 ], [ 48.5271569, -18.8029419 ], [ 48.5275176, -18.8028612 ], [ 48.527817899999988, -18.8026438 ], [ 48.527830099999989, -18.8026211 ], [ 48.528021599999988, -18.8024722 ], [ 48.5280333, -18.8024602 ], [ 48.5283969, -18.8026177 ], [ 48.5284089, -18.8026288 ], [ 48.5288681, -18.8027062 ], [ 48.5288924, -18.802706 ], [ 48.5292772, -18.8026018 ], [ 48.5293937, -18.80209 ], [ 48.529406, -18.8020786 ], [ 48.529437499999986, -18.8016011 ], [ 48.5294373, -18.8015785 ], [ 48.5294341, -18.8012262 ], [ 48.5297351, -18.8011111 ], [ 48.5299748, -18.8009283 ], [ 48.5301167, -18.8006545 ], [ 48.5301291, -18.8006437 ], [ 48.5301508, -18.8003368 ], [ 48.5299199, -18.8001677 ], [ 48.5299073, -18.8001566 ], [ 48.5296887, -18.7999303 ], [ 48.529868, -18.7997024 ], [ 48.5301084, -18.7996783 ], [ 48.5301327, -18.7996781 ], [ 48.5303586, -18.799234 ], [ 48.53037, -18.7992 ], [ 48.5304025, -18.7987569 ], [ 48.5304023, -18.7987338 ], [ 48.530976199999984, -18.7981515 ], [ 48.531000399999989, -18.7981399 ], [ 48.5315399, -18.7977963 ], [ 48.5320303, -18.7972714 ], [ 48.5320544, -18.7972485 ], [ 48.532446, -18.7964966 ], [ 48.532756, -18.7960979 ], [ 48.5327683, -18.7960859 ], [ 48.5326096, -18.7959052 ], [ 48.5325858, -18.7959055 ], [ 48.5325733, -18.7958938 ], [ 48.5320676, -18.7959987 ], [ 48.5315508, -18.7962066 ], [ 48.5310327, -18.7963112 ], [ 48.5310203, -18.7963226 ], [ 48.5305, -18.7960985 ], [ 48.530488, -18.7960868 ], [ 48.529894399999989, -18.7957839 ], [ 48.5298818, -18.7957722 ], [ 48.529386, -18.7956613 ], [ 48.5287482, -18.7958237 ], [ 48.5287126, -18.7958235 ], [ 48.5280133, -18.7959413 ], [ 48.5279896, -18.7959416 ], [ 48.5275085, -18.7962162 ], [ 48.5272211, -18.7964221 ], [ 48.5272094, -18.7964341 ], [ 48.526762, -18.7963114 ], [ 48.5263129, -18.7959956 ], [ 48.5263003, -18.7959845 ], [ 48.5258759, -18.7957481 ], [ 48.5253692, -18.7957164 ], [ 48.5253455, -18.7957166 ], [ 48.5253212, -18.7957169 ], [ 48.5246332, -18.7956522 ], [ 48.5246088, -18.7956412 ], [ 48.5240139, -18.7952355 ], [ 48.5235767, -18.7948744 ], [ 48.5235523, -18.7948634 ], [ 48.5230436, -18.7946731 ], [ 48.5230316, -18.7946613 ], [ 48.522418, -18.7948126 ], [ 48.5223813, -18.7948125 ], [ 48.5223458, -18.7948247 ], [ 48.5217319, -18.7949981 ], [ 48.5217076, -18.7949983 ], [ 48.5213447, -18.794943 ], [ 48.5208162, -18.7951736 ], [ 48.5207921, -18.7951846 ], [ 48.5201028, -18.7949612 ], [ 48.5200902, -18.79495 ], [ 48.5192154, -18.7941934 ], [ 48.5191911, -18.7941937 ], [ 48.5181398, -18.7939376 ], [ 48.5172907, -18.7933974 ], [ 48.5164648, -18.7927537 ], [ 48.51576, -18.7921787 ], [ 48.515748, -18.7921676 ], [ 48.5148907, -18.7921719 ], [ 48.514867, -18.7921721 ], [ 48.5137322, -18.7921213 ], [ 48.5137085, -18.7921216 ], [ 48.5124748, -18.7917867 ], [ 48.5117855, -18.7915633 ], [ 48.5110249, -18.7915677 ], [ 48.5107812, -18.7912733 ], [ 48.5107698, -18.7912627 ], [ 48.5105124, -18.7908093 ], [ 48.5104998, -18.7907981 ], [ 48.5104878, -18.790787 ], [ 48.5099428, -18.7905281 ], [ 48.5094709, -18.7903836 ], [ 48.509447, -18.790372 ], [ 48.5094804, -18.7900876 ], [ 48.510167, -18.7899937 ], [ 48.5101793, -18.7899817 ], [ 48.510191, -18.7899709 ], [ 48.5102033, -18.7899589 ], [ 48.5102275, -18.7899479 ], [ 48.5107684, -18.7897178 ], [ 48.5107801, -18.7897064 ], [ 48.5110065, -18.7893532 ], [ 48.510702599999988, -18.7891273 ], [ 48.5097383, -18.7892005 ], [ 48.5087754, -18.7894443 ], [ 48.5087392, -18.7894446 ], [ 48.5087151, -18.7894556 ], [ 48.5086913, -18.7894559 ], [ 48.5080762, -18.7895276 ], [ 48.5074298, -18.7901552 ], [ 48.5074182, -18.7901779 ], [ 48.5067707, -18.790613 ], [ 48.5061597, -18.7896964 ], [ 48.5061477, -18.7896853 ], [ 48.5063, -18.7891393 ], [ 48.5062997, -18.7891167 ], [ 48.506018, -18.7886178 ], [ 48.5060053, -18.7885953 ], [ 48.5054715, -18.7881782 ], [ 48.505447, -18.7881672 ], [ 48.5047689, -18.7878866 ], [ 48.5047155, -18.7872389 ], [ 48.5046021, -18.7867285 ], [ 48.5045901, -18.7867174 ], [ 48.5041152, -18.7861748 ], [ 48.5044007, -18.7857076 ], [ 48.5044949, -18.7854569 ], [ 48.5040476, -18.7853348 ], [ 48.49996, -18.7856057 ], [ 48.4987044, -18.7854647 ], [ 48.4986801, -18.7854649 ], [ 48.4966457, -18.7859862 ], [ 48.4964422, -18.7861691 ], [ 48.4964304, -18.7861805 ], [ 48.496386199999989, -18.7866921 ], [ 48.4962585, -18.7872722 ], [ 48.4962588, -18.7872948 ], [ 48.4958264, -18.7875237 ], [ 48.4946412, -18.7871786 ], [ 48.4946286, -18.7871668 ], [ 48.4942058, -18.7870551 ], [ 48.4937961, -18.787103 ], [ 48.4928987, -18.7865283 ], [ 48.4919075, -18.7862838 ], [ 48.491883, -18.7862722 ], [ 48.4914323, -18.7857633 ], [ 48.491432, -18.7857407 ], [ 48.490341, -18.7850873 ], [ 48.4903284, -18.7850762 ], [ 48.4895116, -18.7840471 ], [ 48.4894995, -18.7840241 ], [ 48.489487499999989, -18.7840129 ], [ 48.4888069, -18.7834144 ], [ 48.4887943, -18.7834032 ], [ 48.488175, -18.7829294 ], [ 48.488163, -18.7829182 ], [ 48.4877152, -18.7827045 ], [ 48.4875534, -18.7821602 ], [ 48.4872173, -18.7823096 ], [ 48.4869794, -18.7826973 ], [ 48.4867492, -18.7826297 ], [ 48.4867701, -18.7821981 ], [ 48.4867698, -18.7821755 ], [ 48.4870307, -18.7816746 ], [ 48.4868199, -18.7810055 ], [ 48.4867431, -18.7804264 ], [ 48.4867303, -18.780404 ], [ 48.4869193, -18.779892 ], [ 48.4861405, -18.7790664 ], [ 48.4861948, -18.7783961 ], [ 48.4856791, -18.7772627 ], [ 48.4853009, -18.7767648 ], [ 48.4853334, -18.7763562 ], [ 48.4853331, -18.7763336 ], [ 48.4850284, -18.7759376 ], [ 48.4848337, -18.775711 ], [ 48.4848217, -18.7756999 ], [ 48.4842665, -18.7756799 ], [ 48.4842422, -18.7756802 ], [ 48.483697799999987, -18.7755121 ], [ 48.4836739, -18.7755011 ], [ 48.4836496, -18.7755013 ], [ 48.4828881, -18.775278 ], [ 48.4827391, -18.7748589 ], [ 48.4821001, -18.7748619 ], [ 48.4820757, -18.7748621 ], [ 48.4815451, -18.7748074 ], [ 48.4810587, -18.7744355 ], [ 48.4810473, -18.7744243 ], [ 48.481034699999988, -18.7744126 ], [ 48.4806364, -18.7744146 ], [ 48.4801567, -18.7747129 ], [ 48.4796124, -18.7744996 ], [ 48.4795998, -18.7744885 ], [ 48.479587800000012, -18.7744767 ], [ 48.47893, -18.7737531 ], [ 48.4789186, -18.7737425 ], [ 48.478408, -18.7733245 ], [ 48.477874, -18.7729864 ], [ 48.477862, -18.7729752 ], [ 48.47785, -18.7729635 ], [ 48.4770403, -18.7727751 ], [ 48.477004, -18.7727636 ], [ 48.4769802, -18.7727526 ], [ 48.4761605, -18.7728704 ], [ 48.475535, -18.773112 ], [ 48.4750769, -18.773126 ], [ 48.4750532, -18.7731257 ], [ 48.4750289, -18.7731259 ], [ 48.4750163, -18.7731142 ], [ 48.4745779, -18.7725943 ] ] ] } }
]
}
