{
"type": "FeatureCollection",
"name": "MDG-2314-2015-boundary_modification-001",
"crs": { "type": "name", "properties": { "name": "urn:ogc:def:crs:OGC:1.3:CRS84" } },
"features": [
{ "type": "Feature", "properties": { }, "geometry": { "type": "Polygon", "coordinates": [ [ [ 49.1866001, -12.5191239 ], [ 49.1802343, -12.5164284 ], [ 49.1786256, -12.5191795 ], [ 49.180518199999987, -12.5212907 ], [ 49.1795597, -12.52265 ], [ 49.1775312, -12.5223403 ], [ 49.1764609, -12.5255912 ], [ 49.1745234, -12.5255606 ], [ 49.1728299, -12.524903 ], [ 49.1722199, -12.5268912 ], [ 49.1698098, -12.5292993 ], [ 49.1683703, -12.521982 ], [ 49.117394, -12.5176534 ], [ 49.11011, -12.5170348 ], [ 49.1089561, -12.5167924 ], [ 49.1116371, -12.522859 ], [ 49.1115538, -12.5225783 ], [ 49.1238577, -12.5479473 ], [ 49.1082119, -12.543032 ], [ 49.0988564, -12.5619874 ], [ 49.062158300000014, -12.5675273 ], [ 49.0834717, -12.5782662 ], [ 49.1058539, -12.5783914 ], [ 49.1070625, -12.579162 ], [ 49.106292499999988, -12.5815266 ], [ 49.1035295, -12.5843077 ], [ 49.1015363, -12.5847242 ], [ 49.0995675, -12.5871031 ], [ 49.0963949, -12.5891039 ], [ 49.0948305, -12.5918706 ], [ 49.0948402, -12.5926556 ], [ 49.0944747, -12.5954079 ], [ 49.094099299999989, -12.5973753 ], [ 49.0945281, -12.5997255 ], [ 49.0953566, -12.602071 ], [ 49.0957659, -12.6028513 ], [ 49.0908087, -12.6221462 ], [ 49.1170542, -12.6112324 ], [ 49.1337448, -12.63537 ], [ 49.1322789, -12.6459869 ], [ 49.1088396, -12.6898438 ], [ 49.1081586, -12.7314634 ], [ 49.1322519, -12.7394167 ], [ 49.1541786, -12.7340472 ], [ 49.1915954, -12.6892298 ], [ 49.1783434, -12.684682 ], [ 49.1869627, -12.6708365 ], [ 49.1817162, -12.6669754 ], [ 49.184854, -12.6622261 ], [ 49.1783886, -12.6568096 ], [ 49.1790832, -12.6485573 ], [ 49.1774095, -12.6426894 ], [ 49.20216, -12.6400295 ], [ 49.2281537, -12.5788603 ], [ 49.2259383, -12.5620076 ], [ 49.2219023, -12.5589172 ], [ 49.2309604, -12.548598 ], [ 49.2273544, -12.5478577 ], [ 49.2269701, -12.5490402 ], [ 49.225377, -12.5494525 ], [ 49.221771, -12.5487122 ], [ 49.2197379, -12.5459895 ], [ 49.2201173, -12.5444145 ], [ 49.2204966, -12.5428396 ], [ 49.2212806, -12.5416521 ], [ 49.2212755, -12.5412596 ], [ 49.2188582, -12.5397194 ], [ 49.2164509, -12.5389641 ], [ 49.2144633, -12.5397738 ], [ 49.2132748, -12.5405737 ], [ 49.2116817, -12.540986 ], [ 49.2096791, -12.5406182 ], [ 49.2084855, -12.5410255 ], [ 49.2077015, -12.5422129 ], [ 49.207307, -12.5426103 ], [ 49.206523, -12.5437977 ], [ 49.2053345, -12.5445975 ], [ 49.2041459, -12.5453974 ], [ 49.2025478, -12.5454171 ], [ 49.2009396, -12.5446518 ], [ 49.2005099, -12.5423017 ], [ 49.2008794, -12.5399418 ], [ 49.2016784, -12.5399319 ], [ 49.202867, -12.5391321 ], [ 49.2032464, -12.5375572 ], [ 49.205244, -12.5375325 ], [ 49.2064275, -12.5363402 ], [ 49.2060079, -12.5347751 ], [ 49.2055933, -12.5336025 ], [ 49.2063723, -12.5320226 ], [ 49.2071663, -12.5316203 ], [ 49.2083648, -12.5316054 ], [ 49.2082391, -12.5217928 ], [ 49.189862, -12.5220194 ], [ 49.1866001, -12.5191239 ] ] ] } }
]
}
