{
"type": "FeatureCollection",
"name": "MDG-352256-NODATE-secondary_zoning-001",
"crs": { "type": "name", "properties": { "name": "urn:ogc:def:crs:OGC:1.3:CRS84" } },
"features": [
{ "type": "Feature", "properties": { }, "geometry": { "type": "MultiPolygon", "coordinates": [ [ [ [ 48.8607586, -17.6788828 ], [ 48.8589567, -17.6805734 ], [ 48.8583109, -17.6830247 ], [ 48.859260399999989, -17.6850262 ], [ 48.8593495, -17.6864787 ], [ 48.8589831, -17.68743 ], [ 48.8591841, -17.6909133 ], [ 48.8593196, -17.6928482 ], [ 48.8593861, -17.6941002 ], [ 48.8595589, -17.6958386 ], [ 48.8587373, -17.696738 ], [ 48.8578882, -17.6978195 ], [ 48.8567603, -17.6977089 ], [ 48.8559741, -17.6982397 ], [ 48.8553474, -17.6993338 ], [ 48.8553973, -17.7000839 ], [ 48.8554674, -17.700166 ], [ 48.8499269, -17.6982456 ], [ 48.8398069, -17.6994139 ], [ 48.8393528, -17.6995533 ], [ 48.8390783, -17.69992 ], [ 48.8388318, -17.7010462 ], [ 48.8386059, -17.7019245 ], [ 48.8384071, -17.7023621 ], [ 48.8377004, -17.7030209 ], [ 48.837104200000013, -17.7036211 ], [ 48.8363902, -17.7043709 ], [ 48.8360064, -17.7048107 ], [ 48.8359015, -17.7055627 ], [ 48.8355252, -17.7065331 ], [ 48.8348839, -17.7079945 ], [ 48.8344445, -17.7088787 ], [ 48.8335305, -17.7108369 ], [ 48.8328114, -17.7115437 ], [ 48.8319669, -17.7120082 ], [ 48.8310495, -17.7122058 ], [ 48.8293137, -17.7123128 ], [ 48.8287006, -17.7127314 ], [ 48.8277662, -17.7135317 ], [ 48.8275853, -17.7141985 ], [ 48.8270442, -17.7145624 ], [ 48.8271239, -17.7145847 ], [ 48.8271928, -17.715655 ], [ 48.8266073, -17.7166566 ], [ 48.8255533, -17.7176257 ], [ 48.8247237, -17.7186542 ], [ 48.8244433, -17.7190019 ], [ 48.8230545, -17.7215959 ], [ 48.8208522, -17.7249457 ], [ 48.8194272, -17.7261631 ], [ 48.8187269, -17.7269366 ], [ 48.8184668, -17.7276522 ], [ 48.8173033, -17.7294067 ], [ 48.8164085, -17.7301921 ], [ 48.8158642, -17.7316858 ], [ 48.8153086, -17.7327301 ], [ 48.813953, -17.7336166 ], [ 48.8122677, -17.7347032 ], [ 48.8116513, -17.7356383 ], [ 48.8102542, -17.7362193 ], [ 48.809102, -17.736936 ], [ 48.808366899999989, -17.7375808 ], [ 48.8077904, -17.7385201 ], [ 48.8074252, -17.7399734 ], [ 48.8079281, -17.7401714 ], [ 48.8082862, -17.7405062 ], [ 48.8086909, -17.7410099 ], [ 48.8097157, -17.7415909 ], [ 48.810423199999988, -17.7415824 ], [ 48.8113137, -17.7420379 ], [ 48.8112766, -17.7425893 ], [ 48.8115984, -17.7435178 ], [ 48.8123114, -17.743933 ], [ 48.8132406, -17.7439642 ], [ 48.8163417, -17.7451802 ], [ 48.8173305, -17.7455679 ], [ 48.8177841, -17.7462371 ], [ 48.8184126, -17.7465642 ], [ 48.818844, -17.7463125 ], [ 48.8198527, -17.7456646 ], [ 48.8205043, -17.7447668 ], [ 48.821635699999987, -17.7433546 ], [ 48.8222935, -17.7424053 ], [ 48.8223609, -17.7420437 ], [ 48.8300263, -17.7441197 ], [ 48.8337771, -17.7456244 ], [ 48.836101, -17.7465566 ], [ 48.8369701, -17.7463072 ], [ 48.8389804, -17.7462825 ], [ 48.8413974, -17.7468663 ], [ 48.842277, -17.7470787 ], [ 48.8434071, -17.7477217 ], [ 48.8439008, -17.7473575 ], [ 48.8446379, -17.7473308 ], [ 48.8447107, -17.7473024 ], [ 48.8453839, -17.7487717 ], [ 48.8460262, -17.7493855 ], [ 48.848576, -17.7526776 ], [ 48.8503901, -17.7540421 ], [ 48.8522022, -17.7539052 ], [ 48.8540751, -17.7525291 ], [ 48.8540895, -17.7525015 ], [ 48.8542784, -17.7516401 ], [ 48.854773, -17.7490616 ], [ 48.854295, -17.7481638 ], [ 48.8542702, -17.7457023 ], [ 48.8542586, -17.7448322 ], [ 48.854247600000015, -17.7440051 ], [ 48.8541005, -17.7436781 ], [ 48.8535098, -17.7424135 ], [ 48.8535019, -17.7410317 ], [ 48.8558782, -17.7391713 ], [ 48.8573309, -17.7374226 ], [ 48.8586621, -17.7358093 ], [ 48.8604275, -17.7336837 ], [ 48.86086, -17.7331525 ], [ 48.8639751, -17.7326744 ], [ 48.865635, -17.7312865 ], [ 48.8657477, -17.7300084 ], [ 48.8654432, -17.7288789 ], [ 48.866354, -17.7272886 ], [ 48.8663406, -17.7272314 ], [ 48.8663721, -17.7272597 ], [ 48.8677938, -17.7272375 ], [ 48.8687661, -17.7271921 ], [ 48.8702085, -17.7275234 ], [ 48.8712849, -17.7276536 ], [ 48.8721324, -17.728303 ], [ 48.8729377, -17.7286804 ], [ 48.8736083, -17.7290547 ], [ 48.874575, -17.7299761 ], [ 48.8756153, -17.7313012 ], [ 48.8763691, -17.7316983 ], [ 48.8777155, -17.7318481 ], [ 48.8786515, -17.731956 ], [ 48.879781699999988, -17.7325989 ], [ 48.8803522, -17.7336145 ], [ 48.8814846, -17.7341303 ], [ 48.8820951, -17.7337814 ], [ 48.8840717, -17.734603 ], [ 48.8910847, -17.7372269 ], [ 48.8911825, -17.7376211 ], [ 48.8905313, -17.7389058 ], [ 48.8910944, -17.7403333 ], [ 48.8924947, -17.7411192 ], [ 48.8940728, -17.7411809 ], [ 48.8955474, -17.7420376 ], [ 48.8959111, -17.7434932 ], [ 48.895980099999989, -17.7437774 ], [ 48.8961222, -17.7450571 ], [ 48.8964479, -17.7458994 ], [ 48.8971098, -17.7468331 ], [ 48.8982976, -17.7475547 ], [ 48.9000664, -17.7480921 ], [ 48.9003705, -17.7484039 ], [ 48.9007173, -17.7488108 ], [ 48.9008737, -17.7489379 ], [ 48.901368, -17.7494338 ], [ 48.9014429, -17.7498106 ], [ 48.9014392, -17.7502697 ], [ 48.9014105, -17.7507053 ], [ 48.9012697, -17.7510177 ], [ 48.9011404, -17.7514209 ], [ 48.9011189, -17.7516698 ], [ 48.9012391, -17.7519218 ], [ 48.9013841, -17.7519486 ], [ 48.9017899, -17.7516997 ], [ 48.902204399999988, -17.7517233 ], [ 48.9022554, -17.7518332 ], [ 48.9024625, -17.7523512 ], [ 48.9026343, -17.7528798 ], [ 48.902662, -17.7530764 ], [ 48.9029386, -17.7525966 ], [ 48.9031568, -17.7522182 ], [ 48.9033236, -17.7518671 ], [ 48.9035459, -17.7513336 ], [ 48.9037946, -17.7511098 ], [ 48.9043646, -17.7508404 ], [ 48.9046289, -17.7504642 ], [ 48.9056537, -17.7504514 ], [ 48.9061057, -17.7503023 ], [ 48.9064807, -17.7499868 ], [ 48.9066266, -17.7499096 ], [ 48.9069123, -17.7499862 ], [ 48.9070652, -17.7502234 ], [ 48.907219900000015, -17.7505896 ], [ 48.9073855, -17.7508744 ], [ 48.9077923, -17.7510702 ], [ 48.9083527, -17.7512544 ], [ 48.909066699999983, -17.7512838 ], [ 48.9096655, -17.7512858 ], [ 48.9102206, -17.7513363 ], [ 48.9106107, -17.7514079 ], [ 48.9110373, -17.7515508 ], [ 48.9112828, -17.7516242 ], [ 48.9119239, -17.7517596 ], [ 48.912208700000015, -17.7517895 ], [ 48.9125586, -17.751833 ], [ 48.9133135, -17.7520052 ], [ 48.9138761, -17.7522803 ], [ 48.9142555, -17.7526386 ], [ 48.9149555, -17.7534526 ], [ 48.9150419, -17.7535295 ], [ 48.9151497, -17.7536462 ], [ 48.9155607, -17.7537749 ], [ 48.9178601, -17.7542417 ], [ 48.9177063, -17.753909 ], [ 48.9177389, -17.7536328 ], [ 48.9179172, -17.7528082 ], [ 48.9181782, -17.7521881 ], [ 48.9185096, -17.7518253 ], [ 48.9187624, -17.7517026 ], [ 48.9192675, -17.7516437 ], [ 48.9192678, -17.7512994 ], [ 48.919453, -17.750972 ], [ 48.919888, -17.7506701 ], [ 48.9203368, -17.7502867 ], [ 48.9204943, -17.7495819 ], [ 48.9206284, -17.749169 ], [ 48.920911499999988, -17.7487064 ], [ 48.9213002, -17.748668 ], [ 48.9220054, -17.7486448 ], [ 48.9227301, -17.7483249 ], [ 48.923356800000015, -17.747815 ], [ 48.9238852, -17.7474163 ], [ 48.9241041, -17.7470024 ], [ 48.9241299, -17.7463326 ], [ 48.9243186, -17.7459047 ], [ 48.9248207, -17.7457693 ], [ 48.9251264, -17.7451343 ], [ 48.9253101, -17.7450189 ], [ 48.9256315, -17.7447435 ], [ 48.9269447, -17.7446691 ], [ 48.9275739, -17.7444173 ], [ 48.9282161, -17.7439454 ], [ 48.9282945, -17.7438392 ], [ 48.929032799999987, -17.7439017 ], [ 48.929287, -17.7435159 ], [ 48.9296523, -17.7427224 ], [ 48.9300883, -17.7424922 ], [ 48.930419600000015, -17.7424928 ], [ 48.930753, -17.7424264 ], [ 48.9312591, -17.742071 ], [ 48.9317744, -17.7414429 ], [ 48.9317721, -17.7412756 ], [ 48.9319445, -17.7407523 ], [ 48.9323833, -17.7391354 ], [ 48.9327181, -17.7386626 ], [ 48.9332246, -17.7384458 ], [ 48.933478, -17.7383709 ], [ 48.9336017, -17.7382929 ], [ 48.9343011, -17.7380641 ], [ 48.934504800000013, -17.7376408 ], [ 48.9345103, -17.7373155 ], [ 48.9344176, -17.7371016 ], [ 48.9344228, -17.7367524 ], [ 48.9348374, -17.7364269 ], [ 48.9351161, -17.7360121 ], [ 48.9351187, -17.7354766 ], [ 48.9352776, -17.7351638 ], [ 48.9358127, -17.7345307 ], [ 48.9359216, -17.7340474 ], [ 48.9361824, -17.7334741 ], [ 48.9362586, -17.7332102 ], [ 48.9365664, -17.7326994 ], [ 48.9371025, -17.7319898 ], [ 48.9375069, -17.7316452 ], [ 48.9375118, -17.731277 ], [ 48.9373581, -17.7306239 ], [ 48.9372273, -17.7301809 ], [ 48.9371361, -17.7297182 ], [ 48.9371088, -17.729183 ], [ 48.9370959, -17.7286047 ], [ 48.9371973, -17.7283643 ], [ 48.9372894, -17.7281671 ], [ 48.9374125, -17.728046 ], [ 48.9374587, -17.7280213 ], [ 48.9379142, -17.7279663 ], [ 48.9379001, -17.7277673 ], [ 48.9379355, -17.7278003 ], [ 48.9388492, -17.727851 ], [ 48.939157, -17.7273737 ], [ 48.9392335, -17.7271384 ], [ 48.9393497, -17.7268788 ], [ 48.9397516, -17.7262091 ], [ 48.9401294, -17.7261087 ], [ 48.9406319, -17.7261884 ], [ 48.9410621, -17.7266276 ], [ 48.941502, -17.7268755 ], [ 48.9426918, -17.7270421 ], [ 48.9433631, -17.726522 ], [ 48.9438307, -17.7260571 ], [ 48.9440301, -17.7256816 ], [ 48.944076899999985, -17.7250977 ], [ 48.9440168, -17.7243573 ], [ 48.943860799999989, -17.7238955 ], [ 48.9442054, -17.7232696 ], [ 48.9444066, -17.7226646 ], [ 48.9446727, -17.7220635 ], [ 48.9450249, -17.7217722 ], [ 48.9453103, -17.7214865 ], [ 48.9455889, -17.7214303 ], [ 48.9457231, -17.7213904 ], [ 48.9457212, -17.7219737 ], [ 48.9455186, -17.7226935 ], [ 48.9453434, -17.7231643 ], [ 48.9453773, -17.7234508 ], [ 48.9456385, -17.7239399 ], [ 48.9459166, -17.7242089 ], [ 48.9462597, -17.7243433 ], [ 48.9468132, -17.7243219 ], [ 48.947079800000012, -17.7239695 ], [ 48.9475399, -17.7237628 ], [ 48.9481586, -17.7237645 ], [ 48.9483138, -17.7238008 ], [ 48.9488385, -17.7238659 ], [ 48.948856100000015, -17.7246355 ], [ 48.9489195, -17.7248881 ], [ 48.9492209, -17.7250373 ], [ 48.9494165, -17.7251065 ], [ 48.9496929, -17.7251078 ], [ 48.9501228, -17.7248107 ], [ 48.9501924, -17.7245372 ], [ 48.9503415, -17.7236651 ], [ 48.9505497, -17.7233182 ], [ 48.9508806, -17.7229315 ], [ 48.9513226, -17.7226732 ], [ 48.9516024, -17.7226689 ], [ 48.9518209, -17.7225945 ], [ 48.9519331, -17.7224066 ], [ 48.9519452, -17.7218422 ], [ 48.9520626, -17.72131 ], [ 48.9525367, -17.7209262 ], [ 48.9529024, -17.7201661 ], [ 48.952995, -17.7200072 ], [ 48.9531482, -17.7199048 ], [ 48.9539472, -17.71956 ], [ 48.9545502, -17.7194758 ], [ 48.9552422, -17.7193666 ], [ 48.9556551, -17.71928 ], [ 48.9562463, -17.7190669 ], [ 48.9575076, -17.7192182 ], [ 48.9578952, -17.7190699 ], [ 48.9581726, -17.7189277 ], [ 48.9583402, -17.7187821 ], [ 48.9583702, -17.7184231 ], [ 48.9580613, -17.7180971 ], [ 48.9576295, -17.7175384 ], [ 48.957553, -17.7170565 ], [ 48.957860600000011, -17.7165744 ], [ 48.9585116, -17.7163892 ], [ 48.958710900000014, -17.7163676 ], [ 48.9588405, -17.7163611 ], [ 48.9590643, -17.716387 ], [ 48.9593356, -17.7165174 ], [ 48.959441, -17.7165639 ], [ 48.9597063, -17.7166274 ], [ 48.9601148, -17.7169474 ], [ 48.9600181, -17.7178905 ], [ 48.9600651, -17.7183967 ], [ 48.960379599999989, -17.7188852 ], [ 48.9611642, -17.7190473 ], [ 48.9619776, -17.7190609 ], [ 48.9626623, -17.7188657 ], [ 48.9636278, -17.7182987 ], [ 48.9642948, -17.7180464 ], [ 48.964831299999986, -17.7178818 ], [ 48.964921, -17.7177659 ], [ 48.965322, -17.7171331 ], [ 48.965477, -17.716653 ], [ 48.9657392, -17.7157794 ], [ 48.9659882, -17.7150256 ], [ 48.9660836, -17.714522 ], [ 48.9659097, -17.7140464 ], [ 48.965731, -17.7137522 ], [ 48.9655095, -17.7135553 ], [ 48.965341099999989, -17.7129731 ], [ 48.9653408, -17.7125953 ], [ 48.9655946, -17.71211 ], [ 48.9659094, -17.7118661 ], [ 48.9660383, -17.7118071 ], [ 48.9662404, -17.7116555 ], [ 48.9666283, -17.7115079 ], [ 48.9669265, -17.7114276 ], [ 48.9671619, -17.7114183 ], [ 48.9674346, -17.7113733 ], [ 48.9678276, -17.7112631 ], [ 48.9679736, -17.7109982 ], [ 48.9679963, -17.7104768 ], [ 48.968079400000015, -17.7099976 ], [ 48.9680657, -17.709008 ], [ 48.9680312, -17.7086785 ], [ 48.9679302, -17.7082351 ], [ 48.967967799999983, -17.7077087 ], [ 48.9681244, -17.7075217 ], [ 48.9684134, -17.7073253 ], [ 48.9686537, -17.707021 ], [ 48.9685604, -17.706415 ], [ 48.9684802, -17.7060239 ], [ 48.9691507, -17.7043419 ], [ 48.9694227, -17.7038172 ], [ 48.9697821, -17.7032839 ], [ 48.9703282, -17.7024238 ], [ 48.9706892, -17.7020511 ], [ 48.9709884, -17.7013252 ], [ 48.9710227, -17.700776 ], [ 48.970634499999989, -17.7002731 ], [ 48.9705787, -17.7002069 ], [ 48.9704268, -17.7000415 ], [ 48.9705129, -17.6997774 ], [ 48.970716, -17.6994629 ], [ 48.9709319, -17.6990548 ], [ 48.9713569, -17.6986286 ], [ 48.9716949, -17.6981796 ], [ 48.9722263, -17.6972596 ], [ 48.9725799, -17.6968534 ], [ 48.973216199999989, -17.6963385 ], [ 48.973571, -17.6959897 ], [ 48.9738981, -17.6954835 ], [ 48.9742077, -17.6951496 ], [ 48.9743843, -17.6949322 ], [ 48.9744769, -17.6946863 ], [ 48.974231100000011, -17.6943221 ], [ 48.9737047, -17.6937742 ], [ 48.9736751, -17.6934351 ], [ 48.9736951, -17.6927224 ], [ 48.9740576, -17.6926078 ], [ 48.9742917, -17.6925857 ], [ 48.9743005, -17.6921361 ], [ 48.9744083, -17.6920009 ], [ 48.9750386, -17.6920932 ], [ 48.9755972, -17.6920993 ], [ 48.9760035, -17.6919279 ], [ 48.9761768, -17.6916579 ], [ 48.9763927, -17.6913969 ], [ 48.9766252, -17.6908967 ], [ 48.9769587, -17.6905333 ], [ 48.9770595, -17.6904281 ], [ 48.9777868, -17.6898143 ], [ 48.9774392, -17.6891793 ], [ 48.9770759, -17.6890845 ], [ 48.9767635, -17.6888007 ], [ 48.9764957, -17.6885507 ], [ 48.9764052, -17.6881454 ], [ 48.9765082, -17.6876564 ], [ 48.976765, -17.6871176 ], [ 48.976915200000015, -17.6868001 ], [ 48.9771203, -17.6864819 ], [ 48.977103, -17.6863148 ], [ 48.9771001, -17.6861092 ], [ 48.9769257, -17.6857624 ], [ 48.976579, -17.6855804 ], [ 48.9762796, -17.6842837 ], [ 48.9761324, -17.6837405 ], [ 48.9758946, -17.6834997 ], [ 48.975236500000015, -17.6828435 ], [ 48.9751122, -17.6825152 ], [ 48.9749854, -17.682359 ], [ 48.9748345, -17.6820549 ], [ 48.9744824, -17.6818443 ], [ 48.9740315, -17.6818453 ], [ 48.973479399999988, -17.6816037 ], [ 48.9729253, -17.6817112 ], [ 48.972673699999987, -17.6815518 ], [ 48.9724074, -17.6815552 ], [ 48.9718321, -17.6814383 ], [ 48.9715814, -17.6809872 ], [ 48.9714404, -17.6806735 ], [ 48.9709621, -17.6803544 ], [ 48.9710184, -17.6797417 ], [ 48.9709849, -17.6794839 ], [ 48.9709986, -17.6790343 ], [ 48.9711521, -17.6789511 ], [ 48.9711567, -17.6784193 ], [ 48.9710661, -17.6778811 ], [ 48.971108, -17.6775746 ], [ 48.9711032, -17.6772256 ], [ 48.9714185, -17.6765856 ], [ 48.9714525, -17.6761597 ], [ 48.9715123, -17.6758003 ], [ 48.9714464, -17.6757246 ], [ 48.971237, -17.6757321 ], [ 48.9709883, -17.6757783 ], [ 48.9702494, -17.6757638 ], [ 48.9700636, -17.6756706 ], [ 48.9700499, -17.6754078 ], [ 48.9695767, -17.6751317 ], [ 48.9692398, -17.6749352 ], [ 48.9687758, -17.6745634 ], [ 48.9684318, -17.6743622 ], [ 48.9680415, -17.6742663 ], [ 48.9675074, -17.6742401 ], [ 48.9671577, -17.6741298 ], [ 48.9668299, -17.6736558 ], [ 48.9665965, -17.6733671 ], [ 48.9661796, -17.6731573 ], [ 48.9655013, -17.6731564 ], [ 48.9648981, -17.6732214 ], [ 48.9643528, -17.6733909 ], [ 48.9637098, -17.6734183 ], [ 48.9630139, -17.6732645 ], [ 48.962129, -17.6726494 ], [ 48.9619193, -17.6725278 ], [ 48.9615103, -17.6725234 ], [ 48.961025, -17.6724531 ], [ 48.9608445, -17.6720251 ], [ 48.9607592, -17.6716245 ], [ 48.9603899, -17.6716101 ], [ 48.960121, -17.671647 ], [ 48.959655500000011, -17.6720689 ], [ 48.959289, -17.6722505 ], [ 48.959174, -17.6722328 ], [ 48.9585361, -17.6719445 ], [ 48.9579989, -17.6720565 ], [ 48.9578892, -17.6720531 ], [ 48.9573946, -17.6720307 ], [ 48.9569103, -17.67164 ], [ 48.956775400000012, -17.6708958 ], [ 48.9564718, -17.6709474 ], [ 48.9560124, -17.6709437 ], [ 48.9555873, -17.6708583 ], [ 48.9546137, -17.6705694 ], [ 48.9540495, -17.6706368 ], [ 48.9539703, -17.6708597 ], [ 48.9539167, -17.6713146 ], [ 48.9538039, -17.6714547 ], [ 48.9532886, -17.6713369 ], [ 48.952198, -17.6708152 ], [ 48.9512986, -17.6710561 ], [ 48.9511589, -17.6714547 ], [ 48.9511228, -17.6720911 ], [ 48.9509736, -17.6721217 ], [ 48.950447, -17.6722718 ], [ 48.9502493, -17.6724082 ], [ 48.950213, -17.6730255 ], [ 48.9495991, -17.6736501 ], [ 48.9493541, -17.6736053 ], [ 48.9490268, -17.6733575 ], [ 48.9488257, -17.6729044 ], [ 48.9484509, -17.67289 ], [ 48.9481754, -17.673166 ], [ 48.9479157, -17.6738674 ], [ 48.9475389, -17.6738148 ], [ 48.9471919, -17.6736088 ], [ 48.9467804, -17.673571 ], [ 48.946460200000011, -17.6736483 ], [ 48.9460493, -17.6736185 ], [ 48.9455817, -17.6734857 ], [ 48.9453463, -17.6730584 ], [ 48.9453808, -17.6726659 ], [ 48.9456998, -17.6722841 ], [ 48.945748200000011, -17.6718149 ], [ 48.9453012, -17.6710125 ], [ 48.9453114, -17.6706633 ], [ 48.9451024, -17.670336 ], [ 48.944788900000013, -17.6703878 ], [ 48.9446313, -17.670538 ], [ 48.9445431, -17.6706491 ], [ 48.9442223, -17.6710405 ], [ 48.9437004, -17.6711714 ], [ 48.9429916, -17.6711325 ], [ 48.942525, -17.6709328 ], [ 48.9421662, -17.6705978 ], [ 48.9418754, -17.6701234 ], [ 48.9417849, -17.6700719 ], [ 48.9426399, -17.6671411 ], [ 48.942653, -17.6665992 ], [ 48.9428031, -17.6665009 ], [ 48.9434402, -17.6640024 ], [ 48.9433672, -17.6634057 ], [ 48.9429875, -17.6629945 ], [ 48.9424476, -17.6623271 ], [ 48.942203100000015, -17.6619525 ], [ 48.9418032, -17.6618906 ], [ 48.9412988, -17.661588 ], [ 48.9406909, -17.6615221 ], [ 48.9406547, -17.6614221 ], [ 48.9406477, -17.6612788 ], [ 48.9406413, -17.6608151 ], [ 48.9406774, -17.6605325 ], [ 48.9409821, -17.6602083 ], [ 48.9414027, -17.6599639 ], [ 48.9415915, -17.6595455 ], [ 48.9419576, -17.6593305 ], [ 48.9423256, -17.6592542 ], [ 48.9425532, -17.6591174 ], [ 48.9426909, -17.6589431 ], [ 48.9428144, -17.6585308 ], [ 48.9427831, -17.6576992 ], [ 48.9426987, -17.6576978 ], [ 48.9423949, -17.6576219 ], [ 48.9419917, -17.6575479 ], [ 48.941470699999989, -17.6574375 ], [ 48.9409437, -17.6575589 ], [ 48.9406211, -17.6577112 ], [ 48.9404276, -17.6581487 ], [ 48.940005, -17.6583644 ], [ 48.9391009, -17.658658 ], [ 48.9388848, -17.658938 ], [ 48.938839800000011, -17.6592876 ], [ 48.9387201, -17.6596573 ], [ 48.9386131, -17.6598547 ], [ 48.9381202, -17.6599183 ], [ 48.9377256, -17.6599089 ], [ 48.9374083, -17.6596834 ], [ 48.9364802, -17.6596903 ], [ 48.935639, -17.6594857 ], [ 48.93544, -17.6591535 ], [ 48.9350474, -17.6586756 ], [ 48.935155099999989, -17.6585308 ], [ 48.9348271, -17.6575164 ], [ 48.9345763, -17.6574144 ], [ 48.9341893, -17.6573428 ], [ 48.9336466, -17.6570483 ], [ 48.9334559, -17.6569599 ], [ 48.9330161, -17.6566738 ], [ 48.9323112, -17.6565918 ], [ 48.9319046, -17.6563961 ], [ 48.931504, -17.6561355 ], [ 48.9307274, -17.6553302 ], [ 48.9303278, -17.6549527 ], [ 48.9295826, -17.6548043 ], [ 48.92912840000001, -17.6548148 ], [ 48.9281867, -17.6558296 ], [ 48.9276584, -17.6565822 ], [ 48.9267616, -17.6566508 ], [ 48.9254514, -17.6571263 ], [ 48.9240137, -17.6570295 ], [ 48.9226926, -17.6567018 ], [ 48.9219037, -17.6559084 ], [ 48.9214848, -17.6559136 ], [ 48.9212541, -17.6565477 ], [ 48.920532099999988, -17.6562698 ], [ 48.919744099999988, -17.6555338 ], [ 48.9181828, -17.6551517 ], [ 48.9173427, -17.65499 ], [ 48.9168011, -17.6547673 ], [ 48.9156429, -17.653874 ], [ 48.9151652, -17.6532959 ], [ 48.9153936, -17.6524897 ], [ 48.9147543, -17.6521586 ], [ 48.913534, -17.6521687 ], [ 48.9127537, -17.6520063 ], [ 48.9123017, -17.6515787 ], [ 48.9125012, -17.651034 ], [ 48.9117772, -17.6506422 ], [ 48.9111296, -17.6513953 ], [ 48.9083343, -17.6500781 ], [ 48.9077521, -17.6499897 ], [ 48.902748, -17.6492582 ], [ 48.8990204, -17.6475161 ], [ 48.89812, -17.6473169 ], [ 48.8952787, -17.6466779 ], [ 48.8915585, -17.647628 ], [ 48.8897509, -17.6503134 ], [ 48.8897218, -17.6485207 ], [ 48.8885732, -17.6469187 ], [ 48.887387, -17.6477154 ], [ 48.8850892, -17.6490194 ], [ 48.8826162, -17.6514167 ], [ 48.8733722, -17.6587555 ], [ 48.8689829, -17.6617267 ], [ 48.8678807, -17.6620372 ], [ 48.8674932, -17.662848 ], [ 48.8677241, -17.6635664 ], [ 48.8681288, -17.6644788 ], [ 48.8684541, -17.6652121 ], [ 48.8686407, -17.6659311 ], [ 48.8676916, -17.667767 ], [ 48.8670443, -17.6690053 ], [ 48.866087199999988, -17.6702474 ], [ 48.8654762, -17.6708913 ], [ 48.8647704, -17.6718338 ], [ 48.8648402, -17.672978 ], [ 48.8644039, -17.67345 ], [ 48.8635492, -17.6744305 ], [ 48.8634076, -17.6750744 ], [ 48.8621946, -17.6770409 ], [ 48.8617158, -17.6776407 ], [ 48.8612883, -17.6780576 ], [ 48.8612386, -17.6783678 ], [ 48.8607586, -17.6788828 ] ] ], [ [ [ 48.7463774, -17.6314408 ], [ 48.7439696, -17.6296278 ], [ 48.7416177, -17.6310467 ], [ 48.7400233, -17.6319929 ], [ 48.7399287, -17.6317693 ], [ 48.7398646, -17.6314305 ], [ 48.739535499999988, -17.6310422 ], [ 48.7391606, -17.6309748 ], [ 48.7383037, -17.6310804 ], [ 48.7379576, -17.6309218 ], [ 48.7372815, -17.6304626 ], [ 48.7366657, -17.6297174 ], [ 48.7365813, -17.6308948 ], [ 48.7361464, -17.6320044 ], [ 48.7348607, -17.6333057 ], [ 48.7341626, -17.6335625 ], [ 48.733618, -17.6334277 ], [ 48.7331795, -17.6328255 ], [ 48.7320707, -17.6326948 ], [ 48.731262, -17.6326707 ], [ 48.7307533, -17.6324327 ], [ 48.7304884, -17.631752 ], [ 48.730201, -17.6315067 ], [ 48.729782, -17.6315019 ], [ 48.7290747, -17.6317301 ], [ 48.7277856, -17.6319745 ], [ 48.7263328, -17.632326 ], [ 48.7249079, -17.633275 ], [ 48.7239312, -17.6341709 ], [ 48.723323799999989, -17.6342975 ], [ 48.7228538, -17.6345994 ], [ 48.7223847, -17.6355277 ], [ 48.7220036, -17.6357568 ], [ 48.7215318, -17.6357694 ], [ 48.7213072, -17.6355497 ], [ 48.7207965, -17.6345944 ], [ 48.720458199999989, -17.634297 ], [ 48.7198633, -17.6341843 ], [ 48.7188538, -17.634459 ], [ 48.7181875, -17.6350118 ], [ 48.7181818, -17.635753 ], [ 48.7184337, -17.6367544 ], [ 48.7189063, -17.6378536 ], [ 48.7191537, -17.6392672 ], [ 48.7191639, -17.6393091 ], [ 48.7184267, -17.6395375 ], [ 48.7179621, -17.6394759 ], [ 48.7173174, -17.6392969 ], [ 48.716071, -17.6385317 ], [ 48.7143156, -17.6373038 ], [ 48.7137703, -17.6383717 ], [ 48.7136218, -17.6392963 ], [ 48.713635, -17.6399513 ], [ 48.7134395, -17.6406708 ], [ 48.7129353, -17.6410305 ], [ 48.7113396, -17.641374 ], [ 48.7108784, -17.6417475 ], [ 48.710678800000011, -17.6422997 ], [ 48.7104953, -17.6439755 ], [ 48.7105459, -17.6452326 ], [ 48.710287, -17.6460724 ], [ 48.7097608, -17.6467097 ], [ 48.708283, -17.647793 ], [ 48.7075338, -17.6485209 ], [ 48.7075859, -17.6490826 ], [ 48.70737, -17.6497689 ], [ 48.7083548, -17.6505459 ], [ 48.7083664, -17.6514782 ], [ 48.7081512, -17.6519469 ], [ 48.7080229, -17.6522874 ], [ 48.7074541, -17.6527601 ], [ 48.707156300000015, -17.653696 ], [ 48.7074742, -17.6543705 ], [ 48.708234, -17.6550399 ], [ 48.7091744, -17.6560039 ], [ 48.7099188, -17.6569834 ], [ 48.7104801, -17.6578961 ], [ 48.7111026, -17.6586988 ], [ 48.7118932, -17.6608679 ], [ 48.7118132, -17.6624264 ], [ 48.7113997, -17.6638298 ], [ 48.7106488, -17.6688532 ], [ 48.7105429, -17.6695613 ], [ 48.7105316, -17.6713098 ], [ 48.7108076, -17.6721649 ], [ 48.7112154, -17.6729549 ], [ 48.71165, -17.6732359 ], [ 48.7135106, -17.6735324 ], [ 48.714443599999981, -17.6739031 ], [ 48.71702160000001, -17.675876 ], [ 48.7173943, -17.6765075 ], [ 48.7175009, -17.6770784 ], [ 48.7175228, -17.6788265 ], [ 48.7177945, -17.6793319 ], [ 48.7185946, -17.6796724 ], [ 48.7202299, -17.6805117 ], [ 48.7206673, -17.6810153 ], [ 48.7209837, -17.682442 ], [ 48.7213193, -17.682756 ], [ 48.7229243, -17.6838183 ], [ 48.723732, -17.6847625 ], [ 48.7241024, -17.6852033 ], [ 48.7245305, -17.6854102 ], [ 48.7249391, -17.6862532 ], [ 48.725660800000014, -17.6873891 ], [ 48.726082, -17.688396 ], [ 48.7259212, -17.6890961 ], [ 48.725742499999988, -17.6907479 ], [ 48.7260929, -17.6926709 ], [ 48.7263592, -17.6932178 ], [ 48.726812, -17.6935138 ], [ 48.727710699999989, -17.6935368 ], [ 48.728682, -17.6933773 ], [ 48.7290436, -17.6937987 ], [ 48.729554700000016, -17.69517 ], [ 48.7298136, -17.6961521 ], [ 48.7301321, -17.6984628 ], [ 48.7307436, -17.6997133 ], [ 48.7309714, -17.7002128 ], [ 48.7312334, -17.7008123 ], [ 48.731308200000015, -17.7019973 ], [ 48.7322349, -17.7026465 ], [ 48.7332307, -17.7028453 ], [ 48.734652, -17.7036656 ], [ 48.7354057, -17.7044793 ], [ 48.7364121, -17.705118 ], [ 48.73785, -17.7053977 ], [ 48.7386951, -17.7053927 ], [ 48.7395892, -17.7058799 ], [ 48.7400341, -17.7068068 ], [ 48.7404167, -17.7082608 ], [ 48.7405908, -17.7092391 ], [ 48.7431246, -17.7107923 ], [ 48.7436297, -17.7116759 ], [ 48.7438517, -17.7119413 ], [ 48.7457018, -17.7071894 ], [ 48.7465908, -17.704906 ], [ 48.7484303, -17.7045992 ], [ 48.7509346, -17.7054426 ], [ 48.751042, -17.7055068 ], [ 48.7509856, -17.70578 ], [ 48.7511418, -17.7062898 ], [ 48.7515571, -17.7067775 ], [ 48.7523223, -17.7068881 ], [ 48.753224200000012, -17.706758 ], [ 48.7541453, -17.7061782 ], [ 48.7546911, -17.7063344 ], [ 48.755979, -17.707137 ], [ 48.7566893, -17.7072386 ], [ 48.7578434, -17.7069764 ], [ 48.758695, -17.7068134 ], [ 48.7607072, -17.7065889 ], [ 48.7618873, -17.706642 ], [ 48.7636345, -17.7066836 ], [ 48.7648611, -17.706937 ], [ 48.7660194, -17.707631 ], [ 48.7664419, -17.7089655 ], [ 48.7671163, -17.7075703 ], [ 48.7670287, -17.7057973 ], [ 48.7667435, -17.704567 ], [ 48.7666501, -17.7035065 ], [ 48.7668011, -17.7028353 ], [ 48.7665753, -17.7025032 ], [ 48.7655358, -17.7019703 ], [ 48.7651913, -17.7015584 ], [ 48.7652363, -17.7011753 ], [ 48.7657034, -17.6998644 ], [ 48.7660106, -17.6993108 ], [ 48.766034, -17.6992109 ], [ 48.7661007, -17.6991759 ], [ 48.7665349, -17.6984105 ], [ 48.766776, -17.6969826 ], [ 48.7665134, -17.6963498 ], [ 48.7653703, -17.6955398 ], [ 48.7644325, -17.6943515 ], [ 48.7643715, -17.6932477 ], [ 48.7642085, -17.6922071 ], [ 48.7639596, -17.6918254 ], [ 48.7658911, -17.6880526 ], [ 48.7662484, -17.6885977 ], [ 48.7665511, -17.6893631 ], [ 48.7664693, -17.6899857 ], [ 48.7663863, -17.6905174 ], [ 48.7662099, -17.6911555 ], [ 48.7662101, -17.6915572 ], [ 48.7664541, -17.6919129 ], [ 48.767156199999988, -17.6921738 ], [ 48.7682761, -17.6921975 ], [ 48.7695303, -17.6920652 ], [ 48.7707052, -17.6922126 ], [ 48.771365100000011, -17.6912174 ], [ 48.771488799999986, -17.6900449 ], [ 48.7713126, -17.6887597 ], [ 48.7705599, -17.6874386 ], [ 48.770509, -17.6867541 ], [ 48.7706907, -17.6861676 ], [ 48.771125399999988, -17.6856385 ], [ 48.7721698, -17.6851225 ], [ 48.7731216, -17.6839425 ], [ 48.773561, -17.6821439 ], [ 48.7739858, -17.6808493 ], [ 48.7746467, -17.6799347 ], [ 48.7755649, -17.6779081 ], [ 48.7765768, -17.6722935 ], [ 48.776449, -17.6713293 ], [ 48.7766229, -17.6701384 ], [ 48.776421, -17.6691534 ], [ 48.7770587, -17.6667305 ], [ 48.7769795, -17.6651771 ], [ 48.7768817, -17.6641103 ], [ 48.7776453, -17.6630132 ], [ 48.7781064, -17.6612748 ], [ 48.7777525, -17.6599087 ], [ 48.778114, -17.6585946 ], [ 48.7788221, -17.6574739 ], [ 48.7792533, -17.6556593 ], [ 48.7798926, -17.6552657 ], [ 48.780028400000013, -17.6472877 ], [ 48.779544, -17.6455806 ], [ 48.7790055, -17.6445593 ], [ 48.7783561, -17.6437408 ], [ 48.777087500000015, -17.6431512 ], [ 48.7762773, -17.642254 ], [ 48.7756309, -17.6410123 ], [ 48.7773451, -17.6403855 ], [ 48.7771511, -17.6387454 ], [ 48.7724425, -17.6371751 ], [ 48.7706559, -17.6372074 ], [ 48.7692188, -17.6367492 ], [ 48.7682519, -17.6372292 ], [ 48.767312, -17.6383735 ], [ 48.7658799, -17.6386246 ], [ 48.7646713, -17.6393131 ], [ 48.7626695, -17.6418662 ], [ 48.761345, -17.6423408 ], [ 48.757775, -17.6448883 ], [ 48.7541502, -17.6417125 ], [ 48.7527111, -17.6412607 ], [ 48.7517319, -17.6403445 ], [ 48.7517264, -17.638733 ], [ 48.7529041, -17.6364335 ], [ 48.7519275, -17.6357563 ], [ 48.7497688, -17.6357767 ], [ 48.7480944, -17.6364753 ], [ 48.7469042, -17.6362549 ], [ 48.7459343, -17.6346547 ], [ 48.7463774, -17.6314408 ] ] ] ] } }
]
}
