{
"type": "FeatureCollection",
"name": "MDG-303702-NODATE-secondary_zoning-001",
"crs": { "type": "name", "properties": { "name": "urn:ogc:def:crs:OGC:1.3:CRS84" } },
"features": [
{ "type": "Feature", "properties": { }, "geometry": { "type": "MultiPolygon", "coordinates": [ [ [ [ 44.8701556, -19.1550569 ], [ 44.8695325, -19.1506255 ], [ 44.8679267, -19.144605 ], [ 44.8679629, -19.1408116 ], [ 44.8696411, -19.1392453 ], [ 44.8636601, -19.1385614 ], [ 44.8593574, -19.1363112 ], [ 44.8530227, -19.1378369 ], [ 44.8456993, -19.1384053 ], [ 44.840365299999988, -19.1396231 ], [ 44.8367066, -19.139591 ], [ 44.8330201, -19.1424038 ], [ 44.836297, -19.1474909 ], [ 44.8402516, -19.1513193 ], [ 44.8428789, -19.1548199 ], [ 44.8447982, -19.1627402 ], [ 44.8474104, -19.1678213 ], [ 44.8773117, -19.1721902 ], [ 44.8733948, -19.1642529 ], [ 44.8701556, -19.1550569 ] ] ], [ [ [ 44.8503951, -19.0998771 ], [ 44.8490802, -19.098285 ], [ 44.845755, -19.098256 ], [ 44.8437598, -19.0982385 ], [ 44.8437751, -19.096658 ], [ 44.8397664, -19.0985197 ], [ 44.836432, -19.0994389 ], [ 44.829750599999983, -19.1025415 ], [ 44.8290701, -19.1041161 ], [ 44.8287376, -19.1041132 ], [ 44.8253813, -19.1072449 ], [ 44.8292205, -19.1227696 ], [ 44.830421, -19.1360581 ], [ 44.8377598, -19.1339097 ], [ 44.8387637, -19.1332863 ], [ 44.8497516, -19.1321179 ], [ 44.8603977, -19.1318942 ], [ 44.8657162, -19.1322564 ], [ 44.8627561, -19.1287532 ], [ 44.8617765, -19.1268479 ], [ 44.8594575, -19.1258794 ], [ 44.857861299999989, -19.1189105 ], [ 44.8578765, -19.1173299 ], [ 44.8558841, -19.1169965 ], [ 44.8562653, -19.1119415 ], [ 44.8536413, -19.108125 ], [ 44.8476586, -19.1077568 ], [ 44.8483359, -19.1064981 ], [ 44.850026, -19.1036676 ], [ 44.8503951, -19.0998771 ] ] ], [ [ [ 44.8056952, -19.0801981 ], [ 44.8050208, -19.0811405 ], [ 44.8188051, -19.0995993 ], [ 44.8211048, -19.102465 ], [ 44.83347, -19.0962515 ], [ 44.83218, -19.0921303 ], [ 44.83089, -19.0880091 ], [ 44.832611, -19.0820177 ], [ 44.8373242, -19.0760524 ], [ 44.8397281, -19.06817 ], [ 44.8420981, -19.0637648 ], [ 44.8444375, -19.0625207 ], [ 44.8444649, -19.0596757 ], [ 44.8438184, -19.0577732 ], [ 44.8438428, -19.0552443 ], [ 44.8435317, -19.0530286 ], [ 44.8399116, -19.0492033 ], [ 44.8382832, -19.0457115 ], [ 44.8386707, -19.0400244 ], [ 44.8373839, -19.0355872 ], [ 44.8344721, -19.0273421 ], [ 44.8331579, -19.0257499 ], [ 44.8268705, -19.0228494 ], [ 44.8235653, -19.0209234 ], [ 44.8249133, -19.0190385 ], [ 44.8212851, -19.0161612 ], [ 44.8044038, -19.0090562 ], [ 44.8010429, -19.0128198 ], [ 44.798309, -19.0203825 ], [ 44.7935773, -19.0282433 ], [ 44.7891745, -19.0364231 ], [ 44.7921156, -19.0415078 ], [ 44.7960981, -19.0421759 ], [ 44.7977319, -19.0450358 ], [ 44.7983465, -19.0500994 ], [ 44.7982994, -19.054841 ], [ 44.7979356, -19.0579991 ], [ 44.8005794, -19.0596035 ], [ 44.8067833, -19.0710399 ], [ 44.8074107, -19.0748392 ], [ 44.8056952, -19.0801981 ] ] ], [ [ [ 44.7449784, -18.7739498 ], [ 44.7470334, -18.7676462 ], [ 44.7444074, -18.764777 ], [ 44.739417099999983, -18.7659956 ], [ 44.7304575, -18.7659129 ], [ 44.719533, -18.7632826 ], [ 44.7200961, -18.7730876 ], [ 44.7233789, -18.7765954 ], [ 44.7243615, -18.7778691 ], [ 44.7223477, -18.7800632 ], [ 44.7222861, -18.7860689 ], [ 44.7198201, -18.7999553 ], [ 44.7221174, -18.8025057 ], [ 44.7250689, -18.8060105 ], [ 44.7280141, -18.8101475 ], [ 44.7292901, -18.8152173 ], [ 44.7295961, -18.8177491 ], [ 44.7275883, -18.8193111 ], [ 44.7295606, -18.8212262 ], [ 44.7318616, -18.8234604 ], [ 44.7331603, -18.8263175 ], [ 44.7344623, -18.8288586 ], [ 44.7347265, -18.8354996 ], [ 44.7396128, -18.8447124 ], [ 44.7402189, -18.8504083 ], [ 44.7395034, -18.8554597 ], [ 44.7381173, -18.8611371 ], [ 44.738388, -18.867146 ], [ 44.7406704, -18.8712767 ], [ 44.740967, -18.8747568 ], [ 44.7435945, -18.8776262 ], [ 44.743904099999988, -18.8798419 ], [ 44.742218, -18.8823554 ], [ 44.7355539, -18.8845066 ], [ 44.7361179, -18.8943117 ], [ 44.7363982, -18.8993724 ], [ 44.7376652, -18.9053905 ], [ 44.7392063, -18.9171014 ], [ 44.7459945, -18.9354995 ], [ 44.7482393, -18.9434234 ], [ 44.7464881, -18.9522588 ], [ 44.7474493, -18.9557451 ], [ 44.7514134, -18.9579946 ], [ 44.7556521, -18.9659368 ], [ 44.7594726, -18.9824105 ], [ 44.7643737, -18.9906748 ], [ 44.7646644, -18.9947871 ], [ 44.7696171, -18.9979937 ], [ 44.7688791, -19.005258 ], [ 44.7757087, -19.0201784 ], [ 44.7865912, -19.0288126 ], [ 44.7923296, -19.0200126 ], [ 44.796064, -19.0121428 ], [ 44.7977696, -19.0077323 ], [ 44.7904866, -19.0048216 ], [ 44.791869399999989, -18.9994598 ], [ 44.7982241, -18.9954071 ], [ 44.7936408, -18.9884111 ], [ 44.787691, -18.9851962 ], [ 44.7868013, -18.9744397 ], [ 44.7872123, -18.9665401 ], [ 44.7889332, -18.9605491 ], [ 44.7893189, -18.9551783 ], [ 44.7895073, -18.936212 ], [ 44.7890123, -18.9191365 ], [ 44.7884923, -18.9045897 ], [ 44.7925372, -18.8986195 ], [ 44.7922926, -18.8897656 ], [ 44.795086599999983, -18.8758808 ], [ 44.7952642, -18.8578629 ], [ 44.788441700000014, -18.8426276 ], [ 44.780947, -18.8283344 ], [ 44.7840317, -18.8185621 ], [ 44.7807624, -18.8134747 ], [ 44.7776816, -18.8062415 ], [ 44.773279, -18.7982331 ], [ 44.7700597, -18.7956408 ], [ 44.7680348, -18.791547 ], [ 44.7601201, -18.7864171 ], [ 44.7534857, -18.7860405 ], [ 44.755493, -18.7822968 ], [ 44.7489192, -18.7780956 ], [ 44.7449784, -18.7739498 ] ] ], [ [ [ 44.8699797, -18.8041182 ], [ 44.86953, -18.8023376 ], [ 44.8711727, -18.8012411 ], [ 44.8707978, -18.791466 ], [ 44.8705528, -18.7882359 ], [ 44.8689512, -18.7894515 ], [ 44.8677792, -18.7901078 ], [ 44.864288, -18.7894118 ], [ 44.861719, -18.7898341 ], [ 44.861009, -18.7909384 ], [ 44.8605197, -18.7933772 ], [ 44.8595535, -18.7969224 ], [ 44.8560538, -18.7971145 ], [ 44.852781, -18.7979748 ], [ 44.8527683, -18.7993072 ], [ 44.8532221, -18.8006436 ], [ 44.8555307, -18.8031064 ], [ 44.8576231, -18.8037906 ], [ 44.8590033, -18.8058012 ], [ 44.8580496, -18.808014 ], [ 44.8580244, -18.8106788 ], [ 44.85964, -18.8124694 ], [ 44.8617283, -18.8135977 ], [ 44.8614867, -18.814484 ], [ 44.8607766, -18.8155883 ], [ 44.859379499999989, -18.8153543 ], [ 44.8586716, -18.8162366 ], [ 44.8577157, -18.8186714 ], [ 44.8558353, -18.8202098 ], [ 44.8525683, -18.8204039 ], [ 44.8497741, -18.8199356 ], [ 44.849925, -18.8285984 ], [ 44.8510594, -18.8319395 ], [ 44.8526625, -18.8350625 ], [ 44.8516852, -18.839718 ], [ 44.8523702, -18.8412785 ], [ 44.8549147, -18.8435213 ], [ 44.8548937, -18.845742 ], [ 44.8541602, -18.8492891 ], [ 44.8543787, -18.8508456 ], [ 44.856438, -18.855083 ], [ 44.8561605, -18.8597445 ], [ 44.8575411, -18.8617551 ], [ 44.8607837, -18.8642259 ], [ 44.8624208, -18.8637958 ], [ 44.8640663, -18.8624773 ], [ 44.8640788, -18.8611449 ], [ 44.8645642, -18.8591502 ], [ 44.8660056, -18.8547207 ], [ 44.8671489, -18.8571735 ], [ 44.868059, -18.8596242 ], [ 44.8699167, -18.8605284 ], [ 44.8696709, -18.8618589 ], [ 44.8685004, -18.8622931 ], [ 44.8682483, -18.8642898 ], [ 44.8705643, -18.8660862 ], [ 44.8705476, -18.8678628 ], [ 44.8740238, -18.8703354 ], [ 44.8759109, -18.8681305 ], [ 44.8777875, -18.867036 ], [ 44.8791913, -18.8666037 ], [ 44.8808387, -18.865063 ], [ 44.8829444, -18.8644145 ], [ 44.8845897, -18.8630959 ], [ 44.8911336, -18.8618184 ], [ 44.8948926, -18.8589628 ], [ 44.8995866, -18.8558928 ], [ 44.900761, -18.8550142 ], [ 44.9005421, -18.8534578 ], [ 44.9007938, -18.851461 ], [ 44.9008163, -18.8490182 ], [ 44.903873, -18.8463786 ], [ 44.90527860000001, -18.845724 ], [ 44.906451, -18.8450675 ], [ 44.907169, -18.8430746 ], [ 44.9078769, -18.8421921 ], [ 44.9092804, -18.8417596 ], [ 44.9104507, -18.8413251 ], [ 44.9111687, -18.8393322 ], [ 44.9093068, -18.8388726 ], [ 44.9081366, -18.8393071 ], [ 44.9062849, -18.837737 ], [ 44.904914, -18.8346163 ], [ 44.9053927, -18.8332878 ], [ 44.9037989, -18.8290548 ], [ 44.901262, -18.8259243 ], [ 44.9008058, -18.8248101 ], [ 44.8991917, -18.8227978 ], [ 44.8968554, -18.8232224 ], [ 44.8952332, -18.8220984 ], [ 44.8940486, -18.8240873 ], [ 44.8928764, -18.8247438 ], [ 44.8929175, -18.8203023 ], [ 44.891547, -18.8171815 ], [ 44.8894543, -18.8164977 ], [ 44.8873451, -18.8175904 ], [ 44.8838285, -18.8195596 ], [ 44.8831309, -18.8193316 ], [ 44.8833972, -18.8157804 ], [ 44.8827141, -18.813998 ], [ 44.8808609, -18.8126498 ], [ 44.8766696, -18.8119481 ], [ 44.8764592, -18.8095033 ], [ 44.8748559, -18.8063805 ], [ 44.87278, -18.8039199 ], [ 44.8720888, -18.8030256 ], [ 44.8699797, -18.8041182 ] ] ], [ [ [ 44.7741139, -18.6806412 ], [ 44.7711352, -18.6799822 ], [ 44.7711633, -18.6771373 ], [ 44.7694125, -18.6753234 ], [ 44.766238600000015, -18.672035 ], [ 44.7662732, -18.6685579 ], [ 44.7633041, -18.6669505 ], [ 44.7599593, -18.6697653 ], [ 44.7499719, -18.6734681 ], [ 44.7453446, -18.6718453 ], [ 44.7373276, -18.677462 ], [ 44.7412565, -18.682556 ], [ 44.744535, -18.6863795 ], [ 44.7468186, -18.6901939 ], [ 44.7411544, -18.692671 ], [ 44.7348651, -18.6913488 ], [ 44.7278869, -18.6925489 ], [ 44.72286, -18.6975603 ], [ 44.7194977, -18.7019548 ], [ 44.7164865, -18.7044558 ], [ 44.7121353, -18.7082086 ], [ 44.7167502, -18.7110967 ], [ 44.7173715, -18.7152121 ], [ 44.7212908, -18.7212548 ], [ 44.721889699999984, -18.7275828 ], [ 44.7204558, -18.7380014 ], [ 44.7217279, -18.7433873 ], [ 44.720339199999984, -18.7493807 ], [ 44.7228901, -18.7595203 ], [ 44.7305123, -18.7605394 ], [ 44.7371456, -18.7609167 ], [ 44.7484532, -18.7584916 ], [ 44.754081499999984, -18.7598075 ], [ 44.7551119, -18.7563395 ], [ 44.7594445, -18.7544822 ], [ 44.7611258, -18.7522846 ], [ 44.7666933, -18.7545328 ], [ 44.7687858, -18.7495088 ], [ 44.7695217, -18.7422446 ], [ 44.7734123, -18.7514473 ], [ 44.7733243, -18.7602981 ], [ 44.772954800000015, -18.7640883 ], [ 44.7752494, -18.7669542 ], [ 44.7809002, -18.7660566 ], [ 44.7892401, -18.7650771 ], [ 44.7898257, -18.7696139 ], [ 44.79748, -18.7674692 ], [ 44.8027742, -18.7690968 ], [ 44.8038345, -18.7624674 ], [ 44.7992845, -18.7526271 ], [ 44.7964096, -18.7412209 ], [ 44.8007815, -18.7352532 ], [ 44.7998355, -18.7301867 ], [ 44.797882, -18.7263758 ], [ 44.7972709, -18.7209962 ], [ 44.7880719, -18.7117466 ], [ 44.7871139, -18.7079446 ], [ 44.7851733, -18.7028692 ], [ 44.7845503, -18.698754 ], [ 44.7842683, -18.6936934 ], [ 44.7800217, -18.6870168 ], [ 44.7757348, -18.6844493 ], [ 44.7741139, -18.6806412 ] ] ], [ [ [ 44.6143521, -18.3311076 ], [ 44.6176146, -18.3355647 ], [ 44.6205899, -18.3359096 ], [ 44.6239096, -18.3349934 ], [ 44.629205, -18.3350444 ], [ 44.6264503, -18.3451331 ], [ 44.6307063, -18.3495995 ], [ 44.6350352, -18.3566777 ], [ 44.6349329, -18.3566956 ], [ 44.6329499, -18.3565753 ], [ 44.6306162, -18.3581334 ], [ 44.6302995, -18.3606555 ], [ 44.6308537, -18.3669865 ], [ 44.6313353, -18.3840606 ], [ 44.6302619, -18.3916367 ], [ 44.6321246, -18.4033505 ], [ 44.6343654, -18.4106424 ], [ 44.6366097, -18.4176183 ], [ 44.6408511, -18.423665 ], [ 44.643367, -18.4363334 ], [ 44.6464359, -18.4594385 ], [ 44.6510629, -18.4604311 ], [ 44.652016700000011, -18.4642335 ], [ 44.6565942, -18.4699672 ], [ 44.6565379, -18.4753405 ], [ 44.6551698, -18.4794368 ], [ 44.6610067, -18.4915046 ], [ 44.6689889, -18.5203464 ], [ 44.6721837, -18.5317567 ], [ 44.6737549, -18.5399905 ], [ 44.675001499999986, -18.5475889 ], [ 44.6742992, -18.5513756 ], [ 44.6772324, -18.5561451 ], [ 44.6808287, -18.5609208 ], [ 44.6777882, -18.5630001 ], [ 44.6781346, -18.5650048 ], [ 44.6810977, -18.5669294 ], [ 44.6850585, -18.5685474 ], [ 44.6860234, -18.5714015 ], [ 44.6839734, -18.5735722 ], [ 44.6859677, -18.5767749 ], [ 44.6852655, -18.5805616 ], [ 44.6835787, -18.5833907 ], [ 44.687182299999989, -18.5861409 ], [ 44.6900379, -18.5998895 ], [ 44.6929821, -18.6037106 ], [ 44.6926082, -18.6078166 ], [ 44.6939113, -18.6100416 ], [ 44.6948275, -18.617637 ], [ 44.697782, -18.6205098 ], [ 44.7006645, -18.6224575 ], [ 44.7000116, -18.6293819 ], [ 44.7006193, -18.6347616 ], [ 44.7022381, -18.6385702 ], [ 44.7058139, -18.6455582 ], [ 44.7117145, -18.6522517 ], [ 44.7163215, -18.6557718 ], [ 44.7222132, -18.6634133 ], [ 44.725478, -18.6685015 ], [ 44.728768699999989, -18.6710608 ], [ 44.7317471, -18.6717205 ], [ 44.7437373, -18.6667726 ], [ 44.7500321, -18.6674623 ], [ 44.7536833, -18.6671794 ], [ 44.7533865, -18.6636993 ], [ 44.7597064, -18.6618599 ], [ 44.7640522, -18.6584218 ], [ 44.7693175, -18.6625789 ], [ 44.7736006, -18.6654626 ], [ 44.7785659, -18.6664555 ], [ 44.7842225, -18.6646093 ], [ 44.7842628, -18.6605 ], [ 44.7889118, -18.6599091 ], [ 44.7932354, -18.658683 ], [ 44.799573300000013, -18.6549456 ], [ 44.7913414, -18.6488662 ], [ 44.7870862, -18.6431381 ], [ 44.7851678, -18.6358501 ], [ 44.7805661, -18.6316994 ], [ 44.7776628, -18.6234542 ], [ 44.7753792, -18.6196403 ], [ 44.7724452, -18.614556 ], [ 44.7698178, -18.6120034 ], [ 44.7661835, -18.6107063 ], [ 44.7605538, -18.6100233 ], [ 44.7589276, -18.6068473 ], [ 44.7622741, -18.6037163 ], [ 44.7629748, -18.5999292 ], [ 44.7603384, -18.5983248 ], [ 44.752698, -18.5998363 ], [ 44.7494082, -18.5972774 ], [ 44.7530737, -18.5954139 ], [ 44.753443, -18.5916238 ], [ 44.7484675, -18.5918948 ], [ 44.7425007, -18.5918405 ], [ 44.7468321, -18.5896671 ], [ 44.7491778, -18.5871594 ], [ 44.753477599999989, -18.5881468 ], [ 44.7571491, -18.585651 ], [ 44.7614802, -18.5834773 ], [ 44.7595006, -18.581257 ], [ 44.757218199999983, -18.578697 ], [ 44.7489379, -18.5779897 ], [ 44.7449888, -18.5751087 ], [ 44.7430476, -18.5703493 ], [ 44.7444682, -18.5608786 ], [ 44.743553, -18.5529672 ], [ 44.7419339, -18.5491591 ], [ 44.7429756, -18.5444267 ], [ 44.7383678, -18.5412236 ], [ 44.7340597, -18.5411842 ], [ 44.7377399, -18.5377405 ], [ 44.7407444, -18.5355551 ], [ 44.745775, -18.5295945 ], [ 44.7481387, -18.5251903 ], [ 44.7508713, -18.5169959 ], [ 44.754881800000014, -18.5135548 ], [ 44.7622212, -18.508563 ], [ 44.7745453, -18.5020346 ], [ 44.7759478, -18.4941441 ], [ 44.7703778, -18.4877719 ], [ 44.7697524, -18.4839729 ], [ 44.7707927, -18.4792403 ], [ 44.7742233, -18.4776796 ], [ 44.7738267, -18.4738933 ], [ 44.7735294, -18.4704133 ], [ 44.7738854, -18.4678875 ], [ 44.7788665, -18.4666673 ], [ 44.7769191, -18.4625404 ], [ 44.7732255, -18.4568808 ], [ 44.7680841, -18.4513975 ], [ 44.7638249, -18.4466176 ], [ 44.7628748, -18.4421834 ], [ 44.7605969, -18.4380534 ], [ 44.7612934, -18.4345824 ], [ 44.760337199999988, -18.4307804 ], [ 44.766676, -18.4260952 ], [ 44.7707055, -18.420441 ], [ 44.7742562, -18.4164057 ], [ 44.7754279, -18.4116315 ], [ 44.7708413, -18.4065329 ], [ 44.7665769, -18.4023853 ], [ 44.7613038, -18.3998093 ], [ 44.7603353, -18.3972717 ], [ 44.7613565, -18.3944357 ], [ 44.7567398, -18.3924977 ], [ 44.7554496, -18.3890088 ], [ 44.756474, -18.3858568 ], [ 44.755604799999986, -18.3815316 ], [ 44.754228, -18.378566 ], [ 44.7591971, -18.3782944 ], [ 44.756954199999988, -18.3706874 ], [ 44.7569697, -18.369107 ], [ 44.7583373, -18.3646936 ], [ 44.7573814, -18.3608916 ], [ 44.751463200000011, -18.356729 ], [ 44.747875, -18.3513228 ], [ 44.7452425, -18.3497185 ], [ 44.7416577, -18.3439961 ], [ 44.7369829, -18.3480634 ], [ 44.7346721, -18.3474102 ], [ 44.7330611, -18.34297 ], [ 44.7372742, -18.3393625 ], [ 44.7334581, -18.3363352 ], [ 44.7307851, -18.3388398 ], [ 44.7267975, -18.3403841 ], [ 44.7267659, -18.343545 ], [ 44.7260723, -18.3466998 ], [ 44.7190642, -18.3523258 ], [ 44.716101, -18.3507181 ], [ 44.7114382, -18.3535203 ], [ 44.7084304, -18.3563377 ], [ 44.6944826, -18.3606342 ], [ 44.6955046, -18.3577987 ], [ 44.698827699999981, -18.3565651 ], [ 44.7038313, -18.352818 ], [ 44.7029087, -18.3458551 ], [ 44.704277499999989, -18.3414422 ], [ 44.7063018, -18.3376675 ], [ 44.7013755, -18.3338287 ], [ 44.7014267, -18.3287714 ], [ 44.709093, -18.3234682 ], [ 44.7110386, -18.3207284 ], [ 44.7098091, -18.3181009 ], [ 44.7008451, -18.3165009 ], [ 44.694312599999989, -18.3122679 ], [ 44.6909808, -18.3144498 ], [ 44.6896957, -18.3106446 ], [ 44.68443, -18.3077506 ], [ 44.6861104, -18.3052374 ], [ 44.6936861, -18.3087849 ], [ 44.6973038, -18.3110312 ], [ 44.6986724, -18.3066183 ], [ 44.6940941, -18.3012021 ], [ 44.6918066, -18.2983359 ], [ 44.6858537, -18.2979645 ], [ 44.6848997, -18.2941624 ], [ 44.682421, -18.2868193 ], [ 44.6809421, -18.2856402 ], [ 44.6810836, -18.2841418 ], [ 44.6794898, -18.2818718 ], [ 44.6774526, -18.2793765 ], [ 44.6755768, -18.280152 ], [ 44.6716387, -18.280892 ], [ 44.6690612, -18.2811268 ], [ 44.6637558, -18.283019 ], [ 44.6541498, -18.2813745 ], [ 44.6466092, -18.2766419 ], [ 44.6433325, -18.2789412 ], [ 44.6423731, -18.2799679 ], [ 44.6396464, -18.2814955 ], [ 44.636345800000015, -18.2816177 ], [ 44.6333898, -18.2807802 ], [ 44.6317149, -18.2789434 ], [ 44.6302582, -18.2765018 ], [ 44.628363199999988, -18.2754721 ], [ 44.6207662, -18.2729713 ], [ 44.6161359, -18.2702967 ], [ 44.6129448, -18.2716819 ], [ 44.6103739, -18.2744892 ], [ 44.607589, -18.2774966 ], [ 44.6077792, -18.2795215 ], [ 44.6069222, -18.2829887 ], [ 44.6096617, -18.2851917 ], [ 44.6108319, -18.2887164 ], [ 44.6087996, -18.293122 ], [ 44.6117304, -18.2975759 ], [ 44.613966, -18.3051839 ], [ 44.6142263, -18.3118244 ], [ 44.6088474, -18.3196746 ], [ 44.6111235, -18.3234899 ], [ 44.6130855, -18.3257217 ], [ 44.6143521, -18.3311076 ] ], [ [ 44.6350352, -18.3566777 ], [ 44.6350729, -18.3566711 ], [ 44.6350452, -18.3566793 ], [ 44.6350352, -18.3566777 ] ], [ [ 44.6350452, -18.3566793 ], [ 44.6350674, -18.356683 ], [ 44.635076500000011, -18.3567464 ], [ 44.6350452, -18.3566793 ] ] ], [ [ [ 44.6349329, -18.3566956 ], [ 44.6349328, -18.3566609 ], [ 44.6349215, -18.356659 ], [ 44.6349329, -18.3566956 ] ] ] ] } }
]
}
