{
"type": "FeatureCollection",
"name": "MDG-2303-NODATE-secondary_zoning-001",
"crs": { "type": "name", "properties": { "name": "urn:ogc:def:crs:OGC:1.3:CRS84" } },
"features": [
{ "type": "Feature", "properties": { }, "geometry": { "type": "MultiPolygon", "coordinates": [ [ [ [ 46.644679, -25.0180185 ], [ 46.63582, -25.0141361 ], [ 46.633183, -25.016355 ], [ 46.6438237, -25.0226331 ], [ 46.644679, -25.0180185 ] ] ], [ [ [ 46.5820314, -24.8644375 ], [ 46.5840237, -24.8489432 ], [ 46.5989086, -24.8187486 ], [ 46.5877719, -24.8219448 ], [ 46.5803178, -24.8264672 ], [ 46.5714006, -24.8245027 ], [ 46.5633684, -24.8277502 ], [ 46.5542248, -24.8298229 ], [ 46.550561, -24.8356714 ], [ 46.5515534, -24.8442355 ], [ 46.5554603, -24.8513035 ], [ 46.5559477, -24.8595076 ], [ 46.557726, -24.8657499 ], [ 46.571733099999989, -24.8682626 ], [ 46.5820314, -24.8644375 ] ] ], [ [ [ 46.7789616, -24.5680119 ], [ 46.7612834, -24.574889 ], [ 46.7225297, -24.5641684 ], [ 46.7048225, -24.5853468 ], [ 46.6883301, -24.6054365 ], [ 46.7021337, -24.6560786 ], [ 46.7122202, -24.6978389 ], [ 46.7334386, -24.7115433 ], [ 46.7492141, -24.719965 ], [ 46.7677158, -24.739098 ], [ 46.7802437, -24.7315159 ], [ 46.7799412, -24.7188897 ], [ 46.7758455, -24.7087234 ], [ 46.770805, -24.7015298 ], [ 46.7605113, -24.6901755 ], [ 46.7667119, -24.6846928 ], [ 46.7682573, -24.671816 ], [ 46.76955, -24.6483705 ], [ 46.7695233, -24.6351381 ], [ 46.769453399999989, -24.634106 ], [ 46.769711399999984, -24.633329 ], [ 46.770821, -24.6331459 ], [ 46.7725774, -24.6337182 ], [ 46.7746814, -24.6346844 ], [ 46.7750785, -24.6358771 ], [ 46.7763231, -24.6367085 ], [ 46.778220499999989, -24.6374181 ], [ 46.7789472, -24.6393261 ], [ 46.7782323, -24.6401645 ], [ 46.7781969, -24.6410363 ], [ 46.7787495, -24.6419299 ], [ 46.77968, -24.6426072 ], [ 46.7809903, -24.643498 ], [ 46.7825591, -24.6437311 ], [ 46.7839965, -24.6437856 ], [ 46.7853206, -24.642813 ], [ 46.785912, -24.6415201 ], [ 46.7865623, -24.6408609 ], [ 46.7863954, -24.6397309 ], [ 46.7856023, -24.6389498 ], [ 46.7854335, -24.6375487 ], [ 46.7850102, -24.636956 ], [ 46.7842529, -24.6355557 ], [ 46.7841383, -24.6340621 ], [ 46.7840694, -24.6331628 ], [ 46.7842386, -24.632266 ], [ 46.7838087, -24.6310436 ], [ 46.7834428, -24.6295225 ], [ 46.7833812, -24.6283866 ], [ 46.7836292, -24.6273247 ], [ 46.7834947, -24.6257108 ], [ 46.7829909, -24.6226604 ], [ 46.7829355, -24.6216388 ], [ 46.7837901, -24.6201846 ], [ 46.78399, -24.6192812 ], [ 46.7831771, -24.617979 ], [ 46.783204, -24.6166654 ], [ 46.7833638, -24.6158588 ], [ 46.7825259, -24.6140808 ], [ 46.790649599999988, -24.5865458 ], [ 46.7789616, -24.5680119 ] ] ] ] } }
]
}
