{
"type": "FeatureCollection",
"name": "MDG-1299-2002-boundary_modification-001",
"crs": { "type": "name", "properties": { "name": "urn:ogc:def:crs:OGC:1.3:CRS84" } },
"features": [
{ "type": "Feature", "properties": { }, "geometry": { "type": "Polygon", "coordinates": [ [ [ 46.9788786, -16.3075943 ], [ 46.9809486, -16.3090032 ], [ 46.9830803, -16.309249 ], [ 46.9861667, -16.308862 ], [ 46.9880231, -16.3090124 ], [ 46.9906903, -16.3091426 ], [ 46.9937346, -16.3091756 ], [ 46.9952605, -16.310389 ], [ 46.9975728, -16.312692 ], [ 46.9999646, -16.3126848 ], [ 47.0008702, -16.3102883 ], [ 47.0003293, -16.3043683 ], [ 47.001625, -16.3015926 ], [ 47.0028315, -16.2981452 ], [ 47.0049098, -16.2953671 ], [ 47.0081246, -16.2944335 ], [ 47.012079, -16.2935815 ], [ 47.0152435, -16.29059 ], [ 47.0155437, -16.2893292 ], [ 47.0156205, -16.2862211 ], [ 47.0160914, -16.2839938 ], [ 47.0174306, -16.2813439 ], [ 47.0200023, -16.2832258 ], [ 47.021401499999989, -16.2855733 ], [ 47.02304, -16.2861847 ], [ 47.025454, -16.2881226 ], [ 47.0273628, -16.2879038 ], [ 47.030057199999987, -16.2863443 ], [ 47.0330626, -16.2861084 ], [ 47.0345142, -16.2848136 ], [ 47.03655, -16.2834058 ], [ 47.0385448, -16.2836843 ], [ 47.0389168, -16.2829643 ], [ 47.0390547, -16.2822406 ], [ 47.0390823, -16.2820868 ], [ 47.0392386, -16.2812636 ], [ 47.0394665, -16.2794637 ], [ 47.0402034, -16.278729 ], [ 47.0402312, -16.2786385 ], [ 47.041699199999989, -16.2781637 ], [ 47.042774400000013, -16.2777986 ], [ 47.043868, -16.2773431 ], [ 47.0448117, -16.2768518 ], [ 47.0449317, -16.2763542 ], [ 47.045474, -16.2761807 ], [ 47.0458359, -16.2752664 ], [ 47.0465439, -16.2742696 ], [ 47.0474893, -16.2742936 ], [ 47.048330299999989, -16.273866 ], [ 47.0489468, -16.2735024 ], [ 47.0498633, -16.2732734 ], [ 47.0501061, -16.2731099 ], [ 47.0507315, -16.2726015 ], [ 47.051009199999989, -16.2717056 ], [ 47.0514674, -16.2715775 ], [ 47.052484199999988, -16.2705887 ], [ 47.0528178, -16.2696203 ], [ 47.0530116, -16.268824 ], [ 47.0541627, -16.268766 ], [ 47.05461, -16.2682221 ], [ 47.0550849, -16.2675154 ], [ 47.0552411, -16.266674 ], [ 47.0551826, -16.2659871 ], [ 47.0553024, -16.2654714 ], [ 47.0559282, -16.2650986 ], [ 47.0566864, -16.2651052 ], [ 47.0571739, -16.2653296 ], [ 47.0577461, -16.2656894 ], [ 47.0586172, -16.2658583 ], [ 47.0593105, -16.2660459 ], [ 47.05962, -16.2662257 ], [ 47.060051300000012, -16.2664323 ], [ 47.0607631, -16.2665746 ], [ 47.0614083, -16.2663916 ], [ 47.062119699999982, -16.2663983 ], [ 47.0625516, -16.2667676 ], [ 47.0630088, -16.2668706 ], [ 47.0633768, -16.2672169 ], [ 47.0638553, -16.2675318 ], [ 47.0643985, -16.2676204 ], [ 47.0647646, -16.2679085 ], [ 47.0653363, -16.2681146 ], [ 47.065861, -16.2682846 ], [ 47.0662927, -16.2685906 ], [ 47.0665279, -16.2689333 ], [ 47.0667639, -16.2695021 ], [ 47.0666619, -16.2697828 ], [ 47.0667847, -16.2700807 ], [ 47.0669093, -16.270894 ], [ 47.067023, -16.2713005 ], [ 47.0671374, -16.2718878 ], [ 47.0674574, -16.272384 ], [ 47.0676834, -16.2727448 ], [ 47.0679278, -16.2730424 ], [ 47.0680971, -16.2732769 ], [ 47.0681016, -16.2736127 ], [ 47.0685381, -16.2735647 ], [ 47.0690071, -16.2738525 ], [ 47.0692133, -16.2739151 ], [ 47.0698222, -16.2740487 ], [ 47.0704685, -16.2741731 ], [ 47.070993, -16.2742799 ], [ 47.0713119, -16.2744415 ], [ 47.0715191, -16.2748025 ], [ 47.0717078, -16.2752177 ], [ 47.0722226, -16.275207 ], [ 47.0725695, -16.2753866 ], [ 47.072982, -16.275557 ], [ 47.073516, -16.2756909 ], [ 47.0738629, -16.2758344 ], [ 47.074312899999988, -16.2760408 ], [ 47.0748091, -16.2760572 ], [ 47.0750614, -16.2759298 ], [ 47.0753053, -16.2760917 ], [ 47.076081, -16.2757456 ], [ 47.0770444, -16.2755615 ], [ 47.0773519, -16.2751627 ], [ 47.0775483, -16.2751077 ], [ 47.0779039, -16.2751066 ], [ 47.0782784, -16.2751143 ], [ 47.0786051, -16.2748601 ], [ 47.0789134, -16.2746963 ], [ 47.0793805, -16.2744597 ], [ 47.079726, -16.2742234 ], [ 47.0801467, -16.2740864 ], [ 47.0805392, -16.2738952 ], [ 47.081007, -16.2738394 ], [ 47.0813712, -16.2736121 ], [ 47.0816515, -16.2734665 ], [ 47.0820532, -16.2732482 ], [ 47.0823627, -16.2734189 ], [ 47.0823621, -16.2732381 ], [ 47.0828941, -16.2728385 ], [ 47.0830802, -16.2725304 ], [ 47.083481, -16.272068 ], [ 47.083667, -16.2717328 ], [ 47.0838161, -16.2715334 ], [ 47.0843492, -16.2714141 ], [ 47.0848546, -16.2714214 ], [ 47.0853504, -16.2713293 ], [ 47.0858652, -16.2713275 ], [ 47.0861737, -16.271218 ], [ 47.0865666, -16.2711624 ], [ 47.087432, -16.2711147 ], [ 47.0880084, -16.2712389 ], [ 47.0885428, -16.2714811 ], [ 47.0894123, -16.271225 ], [ 47.0891853, -16.2705748 ], [ 47.089926, -16.2709068 ], [ 47.0904223, -16.2709594 ], [ 47.0906436, -16.270763 ], [ 47.0912071, -16.2705679 ], [ 47.0916557, -16.2703946 ], [ 47.0923298, -16.2704465 ], [ 47.0928446, -16.2704267 ], [ 47.0932458, -16.2700908 ], [ 47.0942168, -16.2694184 ], [ 47.0946663, -16.2694801 ], [ 47.0948342, -16.2693168 ], [ 47.0953102, -16.2689535 ], [ 47.0952053, -16.2684204 ], [ 47.0950924, -16.2682671 ], [ 47.0950437, -16.267761 ], [ 47.0951453, -16.2673809 ], [ 47.095827100000015, -16.2669898 ], [ 47.0963029, -16.2665542 ], [ 47.0968448, -16.2662992 ], [ 47.0974424, -16.2659174 ], [ 47.0980971, -16.2657795 ], [ 47.098649099999989, -16.2657143 ], [ 47.0990889, -16.2656947 ], [ 47.0996592, -16.2655028 ], [ 47.1000513, -16.2652483 ], [ 47.1004343, -16.265039 ], [ 47.1009198, -16.2646938 ], [ 47.1013126, -16.2646111 ], [ 47.1017605, -16.2642479 ], [ 47.1022275, -16.263984 ], [ 47.1030221, -16.2637281 ], [ 47.1033963, -16.2636816 ], [ 47.103885, -16.2642043 ], [ 47.1048473, -16.2637217 ], [ 47.1056701, -16.2635019 ], [ 47.1063619, -16.2632915 ], [ 47.1071676, -16.2634785 ], [ 47.1082056, -16.2632218 ], [ 47.1089728, -16.2631467 ], [ 47.1098605, -16.2627639 ], [ 47.110122, -16.2626002 ], [ 47.110982, -16.2623169 ], [ 47.111741, -16.2625403 ], [ 47.1122112, -16.2631263 ], [ 47.1132024, -16.2628696 ], [ 47.1142883, -16.26292 ], [ 47.114802, -16.2626289 ], [ 47.1151466, -16.2621666 ], [ 47.1158578, -16.2621279 ], [ 47.1166168, -16.2623693 ], [ 47.1174113, -16.2620772 ], [ 47.1180742, -16.2616589 ], [ 47.1187552, -16.2610507 ], [ 47.119390800000012, -16.2608315 ], [ 47.1198392, -16.2606129 ], [ 47.1209222, -16.2598857 ], [ 47.1216043, -16.2595849 ], [ 47.1230097, -16.2599596 ], [ 47.1233461, -16.2598319 ], [ 47.1244851, -16.2590774 ], [ 47.1253165, -16.2586675 ], [ 47.1260634, -16.2581676 ], [ 47.1269609, -16.2579202 ], [ 47.127476300000012, -16.2575986 ], [ 47.1278679, -16.2576819 ], [ 47.128681, -16.2573806 ], [ 47.1286805, -16.2572359 ], [ 47.129349, -16.2572332 ], [ 47.129390799999989, -16.2569712 ], [ 47.1295301, -16.2566994 ], [ 47.1296416, -16.2563943 ], [ 47.1296025, -16.2560482 ], [ 47.1297603, -16.2557222 ], [ 47.1300307, -16.255459 ], [ 47.131685599999983, -16.255019 ], [ 47.1325852, -16.2539997 ], [ 47.1326116, -16.2534622 ], [ 47.133588, -16.253222 ], [ 47.1345318, -16.2528569 ], [ 47.1358275, -16.2515141 ], [ 47.1377861, -16.250905 ], [ 47.1386505, -16.2510148 ], [ 47.139678499999988, -16.2502162 ], [ 47.140751699999988, -16.2494347 ], [ 47.1422251, -16.2480731 ], [ 47.143110900000011, -16.2472381 ], [ 47.145907199999989, -16.2467034 ], [ 47.1472589, -16.2453422 ], [ 47.1487755, -16.2454632 ], [ 47.151536899999989, -16.2433661 ], [ 47.1529323, -16.2434677 ], [ 47.1539262, -16.2439432 ], [ 47.1552878, -16.2427356 ], [ 47.1575115, -16.2417961 ], [ 47.1626678, -16.2397292 ], [ 47.16267340000001, -16.2384586 ], [ 47.1659851, -16.2384635 ], [ 47.1722532, -16.231914 ], [ 47.1790114, -16.2236197 ], [ 47.2029992, -16.210336 ], [ 47.2146332, -16.1525917 ], [ 47.2144469, -16.1496946 ], [ 47.213754800000011, -16.1465197 ], [ 47.2124605, -16.1424789 ], [ 47.2129195, -16.1380672 ], [ 47.212511799999987, -16.134205 ], [ 47.2095393, -16.130017 ], [ 47.2097344, -16.1248505 ], [ 47.2101517, -16.1208589 ], [ 47.2085735, -16.1175474 ], [ 47.2084729, -16.1143559 ], [ 47.2077047, -16.1074292 ], [ 47.2065855, -16.1037328 ], [ 47.2059128, -16.1024721 ], [ 47.2052383, -16.1007814 ], [ 47.2026936, -16.0973511 ], [ 47.201928, -16.0938329 ], [ 47.2014652, -16.0922328 ], [ 47.2010004, -16.0917511 ], [ 47.1989874, -16.0911588 ], [ 47.1974522, -16.0899779 ], [ 47.1973385, -16.0883269 ], [ 47.1970091, -16.0861779 ], [ 47.1950138, -16.0813518 ], [ 47.1923609, -16.0767004 ], [ 47.1909032, -16.0727323 ], [ 47.1896099, -16.0698129 ], [ 47.1890091, -16.0665296 ], [ 47.18807, -16.0631959 ], [ 47.1872274, -16.061651 ], [ 47.1861694, -16.0596424 ], [ 47.1844726, -16.058032 ], [ 47.1832003, -16.055835 ], [ 47.1831564, -16.0538224 ], [ 47.1804376, -16.0523765 ], [ 47.1769289, -16.0535713 ], [ 47.1735169, -16.054479 ], [ 47.172892, -16.0539309 ], [ 47.1724028, -16.051748 ], [ 47.1725715, -16.0495282 ], [ 47.1725462, -16.0476186 ], [ 47.1722214, -16.0465535 ], [ 47.170932, -16.0444769 ], [ 47.1711363, -16.0426254 ], [ 47.1717615, -16.0395531 ], [ 47.1720738, -16.0385455 ], [ 47.1718723, -16.0382911 ], [ 47.1718105, -16.0376263 ], [ 47.1715726, -16.0372818 ], [ 47.1713582, -16.0364762 ], [ 47.1713768, -16.0358536 ], [ 47.1711848, -16.0353644 ], [ 47.1712362, -16.0350172 ], [ 47.1712233, -16.0344558 ], [ 47.1711124, -16.0331396 ], [ 47.1710692, -16.032905 ], [ 47.1712661, -16.0320265 ], [ 47.1712215, -16.0314449 ], [ 47.1709861, -16.0306497 ], [ 47.1709108, -16.0303029 ], [ 47.170919, -16.0297313 ], [ 47.1708894, -16.0288687 ], [ 47.1708121, -16.027791 ], [ 47.1706996, -16.0270163 ], [ 47.170579599999989, -16.0261699 ], [ 47.1705089, -16.0255867 ], [ 47.1695613, -16.0249077 ], [ 47.1680012, -16.0242468 ], [ 47.1668245, -16.0237841 ], [ 47.1657966, -16.0236065 ], [ 47.1651914, -16.0227208 ], [ 47.1650517, -16.0220987 ], [ 47.1646383, -16.0216614 ], [ 47.1640774, -16.0212553 ], [ 47.1637182, -16.0211648 ], [ 47.1633143, -16.0204723 ], [ 47.1630934, -16.0197351 ], [ 47.1625738, -16.0187909 ], [ 47.1623743, -16.0178455 ], [ 47.1615983, -16.015096 ], [ 47.1603033, -16.01154 ], [ 47.1596899, -16.0093748 ], [ 47.159291, -16.0072324 ], [ 47.13303, -16.0074375 ], [ 47.1315605, -16.008303 ], [ 47.1293663, -16.0101264 ], [ 47.1279614, -16.0118103 ], [ 47.1257349, -16.0126953 ], [ 47.1252849, -16.0129097 ], [ 47.1252387, -16.0130455 ], [ 47.125138, -16.0136064 ], [ 47.1247286, -16.0141142 ], [ 47.1228765, -16.0162094 ], [ 47.1207495, -16.0173563 ], [ 47.1185211, -16.0188832 ], [ 47.1158989, -16.0201041 ], [ 47.1141948, -16.0207942 ], [ 47.1127109, -16.0208696 ], [ 47.1103207, -16.0208512 ], [ 47.1085143, -16.0208845 ], [ 47.1064019, -16.0208113 ], [ 47.1037365, -16.0215196 ], [ 47.1025714, -16.0220881 ], [ 47.1009907, -16.0230075 ], [ 47.0985522, -16.0249514 ], [ 47.0971979, -16.026972 ], [ 47.0963073, -16.0283284 ], [ 47.0949631, -16.0288846 ], [ 47.0947803, -16.0299855 ], [ 47.0931749, -16.0307081 ], [ 47.0877458, -16.0339545 ], [ 47.0862459, -16.0364558 ], [ 47.082577, -16.0393879 ], [ 47.079426, -16.0403496 ], [ 47.0758478, -16.0425843 ], [ 47.0727027, -16.0433051 ], [ 47.070663599999989, -16.0438946 ], [ 47.0670284, -16.0443769 ], [ 47.0656334, -16.0438572 ], [ 47.0627735, -16.0441411 ], [ 47.0600231, -16.0460711 ], [ 47.058138, -16.0472996 ], [ 47.0550902, -16.050013 ], [ 47.0546751, -16.0516146 ], [ 47.054775299999989, -16.0535401 ], [ 47.0549647, -16.0542085 ], [ 47.0541218, -16.0564625 ], [ 47.0529935, -16.0600104 ], [ 47.0513374, -16.0623665 ], [ 47.0510766, -16.0626566 ], [ 47.050319900000012, -16.0637923 ], [ 47.0445789, -16.0683014 ], [ 47.0443454, -16.0683744 ], [ 47.0444113, -16.0685008 ], [ 47.04366490000001, -16.0689643 ], [ 47.042911, -16.0699794 ], [ 47.041859500000015, -16.0714745 ], [ 47.041506399999989, -16.0727705 ], [ 47.04169, -16.075539 ], [ 47.0404015, -16.0771209 ], [ 47.0395375, -16.0787692 ], [ 47.0390539, -16.0795483 ], [ 47.038720799999986, -16.0805619 ], [ 47.037521, -16.0825591 ], [ 47.0364659, -16.0840464 ], [ 47.0339881, -16.0871533 ], [ 47.0327994, -16.0890354 ], [ 47.0318708, -16.0900617 ], [ 47.0311344, -16.0908478 ], [ 47.030632, -16.0916088 ], [ 47.0299891, -16.092298 ], [ 47.0294867, -16.0930681 ], [ 47.0288881, -16.0938769 ], [ 47.027382, -16.0958773 ], [ 47.0261603, -16.0966001 ], [ 47.025544, -16.097974 ], [ 47.0209229, -16.1036958 ], [ 47.0199674, -16.1049318 ], [ 47.0191455, -16.1061674 ], [ 47.0180574, -16.1077327 ], [ 47.0172707, -16.1086276 ], [ 47.0151288, -16.111118 ], [ 47.0144471, -16.1115972 ], [ 47.0132342, -16.1121881 ], [ 47.011964700000014, -16.1128709 ], [ 47.0099543, -16.1133541 ], [ 47.007508, -16.1140589 ], [ 47.0047573, -16.1145443 ], [ 47.0022153, -16.1150108 ], [ 46.9996926, -16.1155689 ], [ 46.996678, -16.1166605 ], [ 46.9942515, -16.1176403 ], [ 46.9926187, -16.1182794 ], [ 46.9897696, -16.1193818 ], [ 46.9882798, -16.1200067 ], [ 46.9846978, -16.1217972 ], [ 46.9829728, -16.1225362 ], [ 46.9821355, -16.1228608 ], [ 46.9811647, -16.1232042 ], [ 46.9866322, -16.1462456 ], [ 46.9896919, -16.1639597 ], [ 46.9820703, -16.1856716 ], [ 46.972841, -16.2039921 ], [ 46.9670767, -16.2130695 ], [ 46.9606566, -16.2251394 ], [ 46.9587722, -16.2384553 ], [ 46.957066, -16.2496133 ], [ 46.9610253, -16.2588575 ], [ 46.9666724, -16.2624087 ], [ 46.9754812, -16.2718676 ], [ 46.9776327, -16.3025711 ], [ 46.9788786, -16.3075943 ] ] ] } }
]
}
