{
"type": "FeatureCollection",
"name": "MDG-555697884-NODATE-secondary_zoning-001",
"crs": { "type": "name", "properties": { "name": "urn:ogc:def:crs:OGC:1.3:CRS84" } },
"features": [
{ "type": "Feature", "properties": { }, "geometry": { "type": "Polygon", "coordinates": [ [ [ 48.3203699, -19.5141699 ], [ 48.320188, -19.514956 ], [ 48.3209555, -19.51531 ], [ 48.32048910000001, -19.5162499 ], [ 48.3189914, -19.5160239 ], [ 48.318683, -19.5168716 ], [ 48.3182041, -19.5167257 ], [ 48.3177678, -19.5175144 ], [ 48.3179983, -19.5182058 ], [ 48.3180951, -19.5183255 ], [ 48.3173304, -19.5182127 ], [ 48.3165366, -19.5183414 ], [ 48.31645970000001, -19.519971 ], [ 48.3163992, -19.5202431 ], [ 48.3151231, -19.5199244 ], [ 48.3147441, -19.5201696 ], [ 48.3152931, -19.5208878 ], [ 48.3138645, -19.5211438 ], [ 48.3120398, -19.522942 ], [ 48.3105133, -19.5229878 ], [ 48.3102462, -19.5218745 ], [ 48.3090676, -19.5217357 ], [ 48.3073195, -19.5246793 ], [ 48.3061189, -19.5254154 ], [ 48.3061569, -19.525958 ], [ 48.3064237, -19.5270411 ], [ 48.3051191, -19.5270242 ], [ 48.3039894, -19.5283931 ], [ 48.3035129, -19.5284582 ], [ 48.3032304, -19.5287929 ], [ 48.3043388, -19.5311642 ], [ 48.303712, -19.5322198 ], [ 48.3032713, -19.5322048 ], [ 48.3035381, -19.5317202 ], [ 48.3021462, -19.5320449 ], [ 48.3005605, -19.5323093 ], [ 48.3003122, -19.5334169 ], [ 48.3002002, -19.5345645 ], [ 48.3006909, -19.5349032 ], [ 48.3002912, -19.5366748 ], [ 48.3001163, -19.5367696 ], [ 48.3004229, -19.537642 ], [ 48.301285, -19.5384394 ], [ 48.3013426, -19.5388469 ], [ 48.3012348, -19.5393426 ], [ 48.3010902, -19.5406143 ], [ 48.302010499999987, -19.5417711 ], [ 48.3024327, -19.5423281 ], [ 48.3022765, -19.5430485 ], [ 48.301942, -19.5439796 ], [ 48.302137399999985, -19.5445258 ], [ 48.3022394, -19.5451298 ], [ 48.3015565, -19.5462329 ], [ 48.3007319, -19.5465646 ], [ 48.300512, -19.5456678 ], [ 48.2999668, -19.5468348 ], [ 48.3023404, -19.54833 ], [ 48.302096, -19.5488507 ], [ 48.3006586, -19.5484684 ], [ 48.2998524, -19.5480447 ], [ 48.2991845, -19.5483875 ], [ 48.299159, -19.5488227 ], [ 48.2996366, -19.5487617 ], [ 48.3006293, -19.5489746 ], [ 48.3008862, -19.5492995 ], [ 48.2999331, -19.5500345 ], [ 48.299463, -19.5510211 ], [ 48.2995538, -19.5515019 ], [ 48.3000592, -19.5519062 ], [ 48.3009498, -19.5527731 ], [ 48.3024604, -19.5576287 ], [ 48.2984782, -19.5580516 ], [ 48.2980668, -19.55947 ], [ 48.2967279, -19.5599227 ], [ 48.298516, -19.5624871 ], [ 48.297663300000011, -19.5626823 ], [ 48.29943810000001, -19.5648147 ], [ 48.2981193, -19.5667223 ], [ 48.2975297, -19.566405 ], [ 48.2973405, -19.5676145 ], [ 48.2981157, -19.5691896 ], [ 48.2992342, -19.5721519 ], [ 48.2980365, -19.5748459 ], [ 48.2984991, -19.574983 ], [ 48.305587, -19.5656966 ], [ 48.3054789, -19.5644993 ], [ 48.307188, -19.5639426 ], [ 48.3063387, -19.5626258 ], [ 48.305593, -19.5607483 ], [ 48.307929, -19.5561933 ], [ 48.3078766, -19.5550585 ], [ 48.3088282, -19.5544566 ], [ 48.310198, -19.5550788 ], [ 48.3103892, -19.5567072 ], [ 48.3111503, -19.5569413 ], [ 48.3139807, -19.5533601 ], [ 48.3153308, -19.5520808 ], [ 48.3153247, -19.5514293 ], [ 48.3153293, -19.5512466 ], [ 48.3154702, -19.5501824 ], [ 48.3151451, -19.548938 ], [ 48.3142097, -19.5484155 ], [ 48.3144273, -19.5482537 ], [ 48.31514, -19.5450769 ], [ 48.3148641, -19.5448545 ], [ 48.3145065, -19.5441862 ], [ 48.3159038, -19.543775 ], [ 48.317638599999988, -19.5398837 ], [ 48.3167746, -19.5395553 ], [ 48.3173137, -19.538801 ], [ 48.318458, -19.5386218 ], [ 48.3186913, -19.5352155 ], [ 48.3182027, -19.5346906 ], [ 48.3186195, -19.5318738 ], [ 48.3197333, -19.5305692 ], [ 48.3192376, -19.529469 ], [ 48.317802500000013, -19.5291824 ], [ 48.317009, -19.5284696 ], [ 48.3161243, -19.5264759 ], [ 48.3162122, -19.5259653 ], [ 48.3168307, -19.5267371 ], [ 48.319947799999987, -19.5274145 ], [ 48.3200429, -19.5268314 ], [ 48.3180004, -19.525565 ], [ 48.3183116, -19.5251519 ], [ 48.3173131, -19.5226419 ], [ 48.317675600000015, -19.521188 ], [ 48.31874, -19.5219774 ], [ 48.321072, -19.5227289 ], [ 48.3223845, -19.5144442 ], [ 48.3203699, -19.5141699 ] ] ] } }
]
}
