{
"type": "FeatureCollection",
"name": "MDG-5022-NODATE-secondary_zoning-001",
"crs": { "type": "name", "properties": { "name": "urn:ogc:def:crs:OGC:1.3:CRS84" } },
"features": [
{ "type": "Feature", "properties": { }, "geometry": { "type": "MultiPolygon", "coordinates": [ [ [ [ 49.4629009, -12.8053489 ], [ 49.4654372, -12.8012032 ], [ 49.449163, -12.778511 ], [ 49.4399178, -12.7735427 ], [ 49.437627, -12.7665241 ], [ 49.4235274, -12.7712139 ], [ 49.4012687, -12.8067513 ], [ 49.4108734, -12.8087791 ], [ 49.4113044, -12.8111231 ], [ 49.4168807, -12.8249517 ], [ 49.4231054, -12.8278067 ], [ 49.425537, -12.8305159 ], [ 49.4293329, -12.8308573 ], [ 49.4473471, -12.8204369 ], [ 49.4513986, -12.8103971 ], [ 49.4565473, -12.8075874 ], [ 49.4631329, -12.8076954 ], [ 49.4629009, -12.8053489 ] ] ], [ [ [ 49.5486804, -12.6918016 ], [ 49.4856029, -12.7306403 ], [ 49.4955358, -12.7420593 ], [ 49.5057731, -12.7609142 ], [ 49.5160821, -12.770565 ], [ 49.5255427, -12.762409 ], [ 49.5307586, -12.764492 ], [ 49.5351989, -12.7681519 ], [ 49.5820024, -12.7489105 ], [ 49.5946452, -12.7403167 ], [ 49.614375900000013, -12.7253586 ], [ 49.6162142, -12.7228179 ], [ 49.6166665, -12.7204215 ], [ 49.6175782, -12.7161066 ], [ 49.6160558, -12.7118255 ], [ 49.6170087, -12.7103782 ], [ 49.6125586, -12.7056598 ], [ 49.6051467, -12.6981141 ], [ 49.6063763, -12.6960996 ], [ 49.60317890000001, -12.6967072 ], [ 49.6007176, -12.6948291 ], [ 49.5818682, -12.6976127 ], [ 49.5742606, -12.6955635 ], [ 49.5716351, -12.6932499 ], [ 49.5680628, -12.6944737 ], [ 49.5486804, -12.6918016 ] ] ] ] } }
]
}
