{
"type": "FeatureCollection",
"name": "MDG-5023-2015-boundary_modification-001",
"crs": { "type": "name", "properties": { "name": "urn:ogc:def:crs:OGC:1.3:CRS84" } },
"features": [
{ "type": "Feature", "properties": { }, "geometry": { "type": "Polygon", "coordinates": [ [ [ 49.4782087, -14.832823 ], [ 49.4799127, -14.8321821 ], [ 49.4819942, -14.831404 ], [ 49.4831812, -14.8309647 ], [ 49.4847931, -14.830368 ], [ 49.486366, -14.829779 ], [ 49.4863731, -14.8297763 ], [ 49.4865791, -14.8290484 ], [ 49.4866669, -14.8287383 ], [ 49.488071, -14.8239504 ], [ 49.4911304, -14.8233115 ], [ 49.4937329, -14.8221991 ], [ 49.4965329, -14.8227137 ], [ 49.4994169, -14.8237756 ], [ 49.5010867, -14.8235366 ], [ 49.501855, -14.8234266 ], [ 49.5020038, -14.8234053 ], [ 49.5022358, -14.8233721 ], [ 49.503660499999988, -14.8226254 ], [ 49.5039045, -14.8224975 ], [ 49.5042211, -14.8223315 ], [ 49.5051673, -14.8217093 ], [ 49.5059179, -14.8212158 ], [ 49.5069906, -14.8211966 ], [ 49.5100755, -14.8211415 ], [ 49.5110188, -14.8211335 ], [ 49.5132766, -14.821645 ], [ 49.5149896, -14.8216208 ], [ 49.516421, -14.8227136 ], [ 49.5178047, -14.8227838 ], [ 49.5183008, -14.8222387 ], [ 49.518965, -14.8216914 ], [ 49.5191416, -14.8215359 ], [ 49.5194084, -14.8212473 ], [ 49.5195291, -14.8206127 ], [ 49.5197636, -14.8203403 ], [ 49.5198411, -14.8200861 ], [ 49.5195836, -14.8191772 ], [ 49.5192653, -14.8189232 ], [ 49.5183341, -14.8179236 ], [ 49.5176846, -14.8169095 ], [ 49.5174099, -14.816427 ], [ 49.5172258, -14.8163199 ], [ 49.517227, -14.8161308 ], [ 49.5171942, -14.8152918 ], [ 49.5163209, -14.8138114 ], [ 49.5165695, -14.8130273 ], [ 49.5169696, -14.8125891 ], [ 49.5169832, -14.8124096 ], [ 49.5177443, -14.8125465 ], [ 49.5178103, -14.811881 ], [ 49.5181365, -14.8112171 ], [ 49.5182948, -14.8109247 ], [ 49.5188714, -14.8099566 ], [ 49.5184035, -14.8091245 ], [ 49.5183849, -14.8082387 ], [ 49.5189036, -14.8063008 ], [ 49.5194782, -14.8048369 ], [ 49.5197069, -14.8038157 ], [ 49.519747400000014, -14.80362 ], [ 49.5199623, -14.8035889 ], [ 49.5199463, -14.8035064 ], [ 49.5201976, -14.8032707 ], [ 49.520348299999981, -14.8031948 ], [ 49.5210165, -14.8025577 ], [ 49.5214816, -14.8021186 ], [ 49.5219855, -14.801373 ], [ 49.5226584, -14.8010523 ], [ 49.5232448, -14.8003794 ], [ 49.5232628, -14.7997726 ], [ 49.5237922, -14.7989159 ], [ 49.524000599999987, -14.7983486 ], [ 49.5242951, -14.798107 ], [ 49.5240288, -14.7976994 ], [ 49.5236258, -14.7975732 ], [ 49.523241, -14.796856 ], [ 49.5230216, -14.7963264 ], [ 49.5231108, -14.7961247 ], [ 49.5238463, -14.7956396 ], [ 49.5240253, -14.7956476 ], [ 49.5243273, -14.7955378 ], [ 49.5245994, -14.7956078 ], [ 49.5250853, -14.7954744 ], [ 49.5252761, -14.7952337 ], [ 49.5253482, -14.7949274 ], [ 49.5256022, -14.7945071 ], [ 49.525664600000013, -14.7943321 ], [ 49.5259865, -14.7941008 ], [ 49.5264872, -14.7931443 ], [ 49.5265608, -14.7929903 ], [ 49.5265872, -14.7925785 ], [ 49.5272424, -14.792527 ], [ 49.5272919, -14.7922151 ], [ 49.5271058, -14.7917272 ], [ 49.5274928, -14.7915055 ], [ 49.5275637, -14.7915361 ], [ 49.5275965, -14.7911928 ], [ 49.5281466, -14.7910004 ], [ 49.5283707, -14.7907546 ], [ 49.5291301, -14.7904221 ], [ 49.5292923, -14.7900295 ], [ 49.5297212, -14.7897122 ], [ 49.5297131, -14.789533 ], [ 49.5296381, -14.7892281 ], [ 49.528650100000014, -14.7891366 ], [ 49.5288586, -14.7889438 ], [ 49.5285937, -14.788631 ], [ 49.5287205, -14.7884181 ], [ 49.528709299999989, -14.7883868 ], [ 49.5295651, -14.7876046 ], [ 49.5298136, -14.7868204 ], [ 49.5294462, -14.786546 ], [ 49.5295559, -14.7862649 ], [ 49.5298591, -14.7858756 ], [ 49.5298084, -14.7853858 ], [ 49.529737, -14.7849595 ], [ 49.5296644, -14.7848234 ], [ 49.5296689, -14.7846731 ], [ 49.5297232, -14.7836727 ], [ 49.52972, -14.7827339 ], [ 49.5297051, -14.7821011 ], [ 49.5297061, -14.7818057 ], [ 49.5295619, -14.7815862 ], [ 49.5293808, -14.7810771 ], [ 49.528602, -14.7801123 ], [ 49.52856509999998, -14.7799615 ], [ 49.5286117, -14.7796691 ], [ 49.5281603, -14.7784834 ], [ 49.5280287, -14.7776572 ], [ 49.5273592, -14.7774768 ], [ 49.5267044, -14.7771853 ], [ 49.523844, -14.7769462 ], [ 49.5227981, -14.7773355 ], [ 49.5214171, -14.7767009 ], [ 49.5208709, -14.7771517 ], [ 49.5195774, -14.7769273 ], [ 49.5195984, -14.7768848 ], [ 49.5192751, -14.776652 ], [ 49.518727, -14.7766122 ], [ 49.5184767, -14.7765472 ], [ 49.5182469, -14.7760388 ], [ 49.5176122, -14.7749189 ], [ 49.5177409, -14.7744582 ], [ 49.5177139, -14.773736 ], [ 49.5177191, -14.7733614 ], [ 49.5177494, -14.773208 ], [ 49.5173937, -14.7729862 ], [ 49.517138, -14.7723875 ], [ 49.5168859, -14.772007 ], [ 49.5165308, -14.7714634 ], [ 49.516483699999988, -14.770483 ], [ 49.5158921, -14.7697001 ], [ 49.515407899999985, -14.7688524 ], [ 49.5147566, -14.7666146 ], [ 49.5140846, -14.7655322 ], [ 49.5136025, -14.7651427 ], [ 49.5135714, -14.7647911 ], [ 49.5131269, -14.7644452 ], [ 49.5130433, -14.7640439 ], [ 49.5125408, -14.7632713 ], [ 49.512273, -14.7626463 ], [ 49.5118468, -14.7617971 ], [ 49.5111316, -14.760625 ], [ 49.5107604, -14.7600014 ], [ 49.5106537, -14.7597766 ], [ 49.5105211, -14.7595521 ], [ 49.5104672, -14.7594019 ], [ 49.5104137, -14.7592769 ], [ 49.510386, -14.7591515 ], [ 49.5102804, -14.7590021 ], [ 49.5102796, -14.7589518 ], [ 49.5101729, -14.7587269 ], [ 49.5099879, -14.7584529 ], [ 49.509776699999989, -14.758154 ], [ 49.5097924, -14.7574747 ], [ 49.5096333, -14.7572003 ], [ 49.5096558, -14.7569736 ], [ 49.508942, -14.7559021 ], [ 49.5083926, -14.7554571 ], [ 49.5081009, -14.7549581 ], [ 49.5074643, -14.7538604 ], [ 49.5073228, -14.7530324 ], [ 49.5072573, -14.7521027 ], [ 49.5077218, -14.7503104 ], [ 49.5076148, -14.7500603 ], [ 49.5077387, -14.7497065 ], [ 49.5077268, -14.7489018 ], [ 49.5077468, -14.7467636 ], [ 49.5076146, -14.7465642 ], [ 49.5077079, -14.7458838 ], [ 49.5079371, -14.7456542 ], [ 49.5079323, -14.7453273 ], [ 49.5078466, -14.7447752 ], [ 49.507680400000012, -14.7441646 ], [ 49.507699099999989, -14.7435448 ], [ 49.5074628, -14.7432966 ], [ 49.5070947, -14.7428742 ], [ 49.5070928, -14.7427485 ], [ 49.5070906, -14.7425976 ], [ 49.5070884, -14.7424467 ], [ 49.5070858, -14.7422707 ], [ 49.5070555, -14.7419693 ], [ 49.5070244, -14.7416176 ], [ 49.507021, -14.7413913 ], [ 49.5069668, -14.741216 ], [ 49.5069095, -14.7408395 ], [ 49.5068747, -14.7402363 ], [ 49.506947, -14.7398832 ], [ 49.5070197, -14.7395552 ], [ 49.5072557, -14.7392595 ], [ 49.5075489, -14.7386423 ], [ 49.5077272, -14.7384637 ], [ 49.5078272, -14.7382359 ], [ 49.5080785, -14.7377545 ], [ 49.5083302, -14.7372983 ], [ 49.5083541, -14.7371722 ], [ 49.5085815, -14.7368168 ], [ 49.5088084, -14.7364364 ], [ 49.5091856, -14.7357268 ], [ 49.5095395, -14.7351937 ], [ 49.5095852, -14.7347906 ], [ 49.5097358, -14.7344867 ], [ 49.5098631, -14.7343591 ], [ 49.5101683, -14.7340278 ], [ 49.5104607, -14.7335497 ], [ 49.5116622, -14.7319444 ], [ 49.5117622, -14.7317166 ], [ 49.5117312, -14.7313649 ], [ 49.5117274, -14.7311135 ], [ 49.5117514, -14.7309874 ], [ 49.511775799999988, -14.7308864 ], [ 49.5117488, -14.7308113 ], [ 49.5116949, -14.7306612 ], [ 49.5116934, -14.7305606 ], [ 49.5115859, -14.7302854 ], [ 49.5114792, -14.7300606 ], [ 49.5114261, -14.7299607 ], [ 49.5113707, -14.72971 ], [ 49.511213, -14.7295361 ], [ 49.5114895, -14.7291044 ], [ 49.5114321, -14.7286276 ], [ 49.511376, -14.7283265 ], [ 49.5113209, -14.7281009 ], [ 49.5112663, -14.7279005 ], [ 49.5111862, -14.7277256 ], [ 49.511157, -14.7274996 ], [ 49.5111532, -14.7272481 ], [ 49.511072, -14.7269977 ], [ 49.5111469, -14.7268206 ], [ 49.5111196, -14.7267204 ], [ 49.511091900000011, -14.726595 ], [ 49.511035, -14.7262437 ], [ 49.5109534, -14.7259682 ], [ 49.5108979, -14.7257174 ], [ 49.5108946, -14.7254911 ], [ 49.5108658, -14.7252903 ], [ 49.5108111, -14.7250899 ], [ 49.5107531, -14.7246631 ], [ 49.5107999, -14.7243355 ], [ 49.5109003, -14.7241328 ], [ 49.5110003, -14.7239051 ], [ 49.511174100000012, -14.7234247 ], [ 49.5112995, -14.7231714 ], [ 49.511349, -14.7230198 ], [ 49.5113209, -14.7228693 ], [ 49.51147, -14.7224648 ], [ 49.5115696, -14.7222119 ], [ 49.5117935, -14.7216302 ], [ 49.5116868, -14.7214054 ], [ 49.5117078, -14.7210781 ], [ 49.5117273, -14.7206502 ], [ 49.5117468, -14.7202224 ], [ 49.5118408, -14.7195923 ], [ 49.511883200000014, -14.7189629 ], [ 49.5119551, -14.7185846 ], [ 49.5119259, -14.7183586 ], [ 49.5119701, -14.717855 ], [ 49.5120945, -14.7175262 ], [ 49.51209, -14.7172245 ], [ 49.5120852, -14.7168976 ], [ 49.5121773, -14.7161417 ], [ 49.512199100000011, -14.7158647 ], [ 49.5122489, -14.7157383 ], [ 49.5122702, -14.7154361 ], [ 49.5122402, -14.7150367 ], [ 49.5122882, -14.7149077 ], [ 49.5122321, -14.7146067 ], [ 49.5121501, -14.714306 ], [ 49.5121224, -14.7141806 ], [ 49.5120928, -14.7139295 ], [ 49.512036699999989, -14.7136285 ], [ 49.5120292, -14.7131255 ], [ 49.51213, -14.7129481 ], [ 49.5120498, -14.7127731 ], [ 49.5119177, -14.7125738 ], [ 49.511805, -14.7119465 ], [ 49.5117991, -14.7115442 ], [ 49.5117414, -14.7111426 ], [ 49.51173210000001, -14.7105139 ], [ 49.5115191, -14.7100893 ], [ 49.5116449, -14.7098612 ], [ 49.511507099999989, -14.7092846 ], [ 49.511499699999987, -14.7087817 ], [ 49.511414, -14.7082295 ], [ 49.5116143, -14.7077991 ], [ 49.5122273, -14.7073126 ], [ 49.5124273, -14.7068571 ], [ 49.5123697, -14.7064554 ], [ 49.512467, -14.7060516 ], [ 49.5124375, -14.7058005 ], [ 49.5124334, -14.7055239 ], [ 49.512351, -14.7051981 ], [ 49.5124997, -14.7047684 ], [ 49.5126802, -14.7047407 ], [ 49.5130112, -14.7044091 ], [ 49.5136451, -14.7035953 ], [ 49.5138271, -14.7036682 ], [ 49.5138234, -14.7034168 ], [ 49.514231499999987, -14.7030589 ], [ 49.5142809, -14.7029073 ], [ 49.515101, -14.702443 ], [ 49.515329, -14.702138 ], [ 49.5154571, -14.7020608 ], [ 49.515818, -14.7020054 ], [ 49.5160741, -14.7018509 ], [ 49.5163029, -14.7015961 ], [ 49.5168155, -14.7013123 ], [ 49.5168837, -14.7006825 ], [ 49.5171559, -14.6998738 ], [ 49.5167587, -14.6992254 ], [ 49.5167258, -14.698748 ], [ 49.5169224, -14.6980661 ], [ 49.5169681, -14.6976631 ], [ 49.517424899999988, -14.6971033 ], [ 49.5183456, -14.6964615 ], [ 49.5189379, -14.6963274 ], [ 49.5194789, -14.6962192 ], [ 49.519785, -14.6961313 ], [ 49.5204805, -14.6958027 ], [ 49.5220014, -14.6955549 ], [ 49.5224926, -14.6955731 ], [ 49.5229052, -14.695517 ], [ 49.5236784, -14.6953804 ], [ 49.5253029, -14.6951563 ], [ 49.5260491, -14.6949445 ], [ 49.5265022, -14.6941333 ], [ 49.5267482, -14.6932998 ], [ 49.5270773, -14.6928424 ], [ 49.5286535, -14.6928453 ], [ 49.5292522, -14.6931387 ], [ 49.5297434, -14.6931569 ], [ 49.530104, -14.6930764 ], [ 49.5305937, -14.692994 ], [ 49.53101, -14.6931894 ], [ 49.5311867, -14.6929102 ], [ 49.5313043, -14.6921288 ], [ 49.5313975, -14.6914484 ], [ 49.531649099999989, -14.6909921 ], [ 49.5323414, -14.6906302 ], [ 49.5330082, -14.6902938 ], [ 49.5332646, -14.6901644 ], [ 49.5339573, -14.6898277 ], [ 49.5343178, -14.6897471 ], [ 49.5347297, -14.6896407 ], [ 49.535503200000015, -14.6895292 ], [ 49.5360621, -14.6888925 ], [ 49.5363672, -14.6885612 ], [ 49.5364942, -14.6884085 ], [ 49.5367267, -14.6884052 ], [ 49.5369592, -14.6884019 ], [ 49.53714, -14.6883993 ], [ 49.5374754, -14.6883694 ], [ 49.5376046, -14.6883676 ], [ 49.537810199999988, -14.6882893 ], [ 49.5380168, -14.6882863 ], [ 49.538195, -14.6881077 ], [ 49.538815, -14.688099 ], [ 49.5392299, -14.6881937 ], [ 49.5395938, -14.6883395 ], [ 49.5401599, -14.6881805 ], [ 49.5406758, -14.6881229 ], [ 49.5414493, -14.6880114 ], [ 49.5419682, -14.6881549 ], [ 49.5423564, -14.6881998 ], [ 49.5427671, -14.6880179 ], [ 49.5429472, -14.687965 ], [ 49.5431928, -14.6871064 ], [ 49.5434892, -14.6861967 ], [ 49.5438157, -14.6855633 ], [ 49.5439134, -14.6851846 ], [ 49.5436531, -14.6850625 ], [ 49.5438542, -14.6846824 ], [ 49.543774, -14.6845075 ], [ 49.5440507, -14.6840005 ], [ 49.5441719, -14.6834706 ], [ 49.5437891, -14.683361 ], [ 49.5434852, -14.6834313 ], [ 49.5431309, -14.6835187 ], [ 49.5425571, -14.6836588 ], [ 49.5419153, -14.6837833 ], [ 49.5416289, -14.6838863 ], [ 49.5413923, -14.6839226 ], [ 49.5412063, -14.6839417 ], [ 49.5410544, -14.6839768 ], [ 49.5409025, -14.684012 ], [ 49.5407336, -14.6840473 ], [ 49.5406153, -14.6840655 ], [ 49.5403947, -14.6840356 ], [ 49.5401564, -14.6839566 ], [ 49.5399529, -14.683943 ], [ 49.5395801, -14.6839317 ], [ 49.5392746, -14.6838866 ], [ 49.5390713, -14.6838895 ], [ 49.5388681, -14.6838923 ], [ 49.5387494, -14.6838775 ], [ 49.5385972, -14.6838962 ], [ 49.5384934, -14.6837493 ], [ 49.5385206, -14.6833037 ], [ 49.5383829, -14.6831573 ], [ 49.538227600000013, -14.6829616 ], [ 49.5379699, -14.6827179 ], [ 49.5378653, -14.6825216 ], [ 49.5377769, -14.6822755 ], [ 49.5377232, -14.6820784 ], [ 49.5375867, -14.6820144 ], [ 49.5374829, -14.6818674 ], [ 49.5373624, -14.6817372 ], [ 49.5372917, -14.6815404 ], [ 49.5372225, -14.6814424 ], [ 49.537069099999989, -14.6813787 ], [ 49.5368472, -14.6812664 ], [ 49.5366116, -14.6813686 ], [ 49.536408900000012, -14.6814045 ], [ 49.5361569, -14.6815399 ], [ 49.5359203, -14.6815763 ], [ 49.5356673, -14.6816458 ], [ 49.5353951, -14.6815672 ], [ 49.5351249, -14.6816205 ], [ 49.5348846, -14.6814095 ], [ 49.5346618, -14.6812313 ], [ 49.5345086, -14.681184 ], [ 49.5343388, -14.6811534 ], [ 49.5341189, -14.681173 ], [ 49.5339837, -14.6811914 ], [ 49.533661399999986, -14.681163 ], [ 49.5330008, -14.6811558 ], [ 49.5327107, -14.6810116 ], [ 49.5325728, -14.6808486 ], [ 49.5323293, -14.6804234 ], [ 49.532038, -14.6801967 ], [ 49.5317975, -14.6799692 ], [ 49.5315592, -14.6798901 ], [ 49.5313911, -14.679975 ], [ 49.5312399, -14.6800595 ], [ 49.5310708, -14.6800784 ], [ 49.5307169, -14.6801988 ], [ 49.5303625, -14.6802863 ], [ 49.529788, -14.6803768 ], [ 49.5295359, -14.6805123 ], [ 49.5294032, -14.6806955 ], [ 49.529169, -14.6808967 ], [ 49.5290699, -14.6810629 ], [ 49.5285655, -14.6813174 ], [ 49.5282602, -14.6812887 ], [ 49.5251598, -14.6823711 ], [ 49.5248903, -14.6824739 ], [ 49.5246378, -14.6825763 ], [ 49.5244191, -14.6826784 ], [ 49.5242007, -14.6827968 ], [ 49.5239992, -14.6829151 ], [ 49.5237633, -14.6830009 ], [ 49.5235621, -14.6831356 ], [ 49.5230207, -14.6831762 ], [ 49.5224785, -14.6831673 ], [ 49.5219587, -14.6835209 ], [ 49.5217408, -14.6836724 ], [ 49.52166050000001, -14.6839703 ], [ 49.5217312, -14.6841671 ], [ 49.5218178, -14.6842978 ], [ 49.5217928, -14.6848917 ], [ 49.5218625, -14.6850227 ], [ 49.5213554, -14.6850958 ], [ 49.5211684, -14.6850489 ], [ 49.5206964, -14.685204 ], [ 49.5205779, -14.6852056 ], [ 49.5202711, -14.685078 ], [ 49.5198667, -14.6852156 ], [ 49.5196004, -14.6855326 ], [ 49.5193132, -14.6855862 ], [ 49.5190563, -14.6853919 ], [ 49.5179725, -14.6854071 ], [ 49.5178936, -14.685804 ], [ 49.5177636, -14.6861685 ], [ 49.5176663, -14.6864667 ], [ 49.5176187, -14.6866817 ], [ 49.517272899999988, -14.6873461 ], [ 49.5168595, -14.6880279 ], [ 49.516795, -14.6882431 ], [ 49.5166114, -14.6884271 ], [ 49.5165113, -14.6885274 ], [ 49.51595529999998, -14.6887331 ], [ 49.5157904, -14.6890322 ], [ 49.5156443, -14.6894629 ], [ 49.5151093, -14.6899321 ], [ 49.5148206, -14.6898867 ], [ 49.514503, -14.6901715 ], [ 49.514076, -14.6899301 ], [ 49.5130704, -14.6906532 ], [ 49.51289, -14.6910515 ], [ 49.5126571, -14.6913351 ], [ 49.512250599999987, -14.6913408 ], [ 49.5120484, -14.6914096 ], [ 49.51122, -14.6915201 ], [ 49.5098394, -14.6920836 ], [ 49.5093964, -14.6919084 ], [ 49.509309800000011, -14.6917777 ], [ 49.508492, -14.6914595 ], [ 49.508064, -14.6911522 ], [ 49.5078991, -14.6875685 ], [ 49.507724, -14.6874549 ], [ 49.5070682, -14.6874482 ], [ 49.506246, -14.6868162 ], [ 49.5052051, -14.6867781 ], [ 49.5039812, -14.6872014 ], [ 49.5027418, -14.6872978 ], [ 49.5017025, -14.6870064 ], [ 49.5012645, -14.6863374 ], [ 49.5021498, -14.6856899 ], [ 49.5031267, -14.6848445 ], [ 49.5047958, -14.683565 ], [ 49.5047254, -14.6833971 ], [ 49.5046982, -14.6833403 ], [ 49.5046639, -14.6832687 ], [ 49.5045541, -14.6830396 ], [ 49.5044912, -14.6829341 ], [ 49.5044434, -14.682696 ], [ 49.5042075, -14.6823669 ], [ 49.50405210000001, -14.6822534 ], [ 49.503949, -14.681917 ], [ 49.5037711, -14.6816732 ], [ 49.5037623, -14.6815304 ], [ 49.5034708, -14.6812113 ], [ 49.5034394, -14.6811236 ], [ 49.5033572, -14.6811013 ], [ 49.5032938, -14.6809714 ], [ 49.5032172, -14.680966 ], [ 49.5031341, -14.6808855 ], [ 49.5030102, -14.6806743 ], [ 49.5030582, -14.6803944 ], [ 49.5030351, -14.680314 ], [ 49.5030936, -14.6801884 ], [ 49.5030833, -14.6800049 ], [ 49.5031094, -14.6797254 ], [ 49.5031387, -14.6796663 ], [ 49.5030729, -14.6796196 ], [ 49.5030463, -14.6795427 ], [ 49.5030157, -14.6795138 ], [ 49.5030146, -14.6794403 ], [ 49.5029466, -14.6794339 ], [ 49.5029528, -14.6793384 ], [ 49.5029065, -14.6792729 ], [ 49.5028758, -14.6792366 ], [ 49.50297, -14.6790188 ], [ 49.5029621, -14.678949 ], [ 49.503033, -14.6788731 ], [ 49.5030818, -14.6787601 ], [ 49.5030203, -14.6788013 ], [ 49.5028289, -14.678613 ], [ 49.5026437, -14.6784905 ], [ 49.5025, -14.6783091 ], [ 49.5022124, -14.6782471 ], [ 49.5019915, -14.6781106 ], [ 49.5018629, -14.6780901 ], [ 49.5018109, -14.6781425 ], [ 49.5017214, -14.6781066 ], [ 49.5016313, -14.6782405 ], [ 49.5015097, -14.6781761 ], [ 49.5013969, -14.6782071 ], [ 49.5012758, -14.6781751 ], [ 49.5011473, -14.6781591 ], [ 49.501011, -14.6781317 ], [ 49.5008655, -14.6779795 ], [ 49.5007508, -14.6778782 ], [ 49.5006952, -14.6776986 ], [ 49.500559, -14.6776606 ], [ 49.5003075, -14.677533 ], [ 49.5002557, -14.677562 ], [ 49.5000487, -14.6774017 ], [ 49.5000339, -14.6772645 ], [ 49.4999937, -14.6771911 ], [ 49.5000155, -14.6770946 ], [ 49.5000826, -14.6770797 ], [ 49.4999967, -14.6769209 ], [ 49.4999437, -14.6768686 ], [ 49.4998619, -14.6769506 ], [ 49.4997246, -14.6768497 ], [ 49.4996165, -14.6766823 ], [ 49.4994946, -14.6765871 ], [ 49.499561799999981, -14.6765508 ], [ 49.4994047, -14.6764027 ], [ 49.4993892, -14.6761052 ], [ 49.4991853, -14.6760934 ], [ 49.498994, -14.6760156 ], [ 49.4989205, -14.6760383 ], [ 49.4989172, -14.675818 ], [ 49.4988834, -14.6746163 ], [ 49.4986457, -14.6737441 ], [ 49.4985949, -14.6733508 ], [ 49.4984562, -14.6730901 ], [ 49.4983181, -14.6728731 ], [ 49.4986523, -14.6723534 ], [ 49.4984989, -14.6722395 ], [ 49.4985536, -14.6719064 ], [ 49.4984191, -14.6716076 ], [ 49.4970826, -14.6709986 ], [ 49.4974464, -14.6703131 ], [ 49.4981864, -14.6697911 ], [ 49.4981722, -14.6691952 ], [ 49.4980929, -14.66906 ], [ 49.4975954, -14.66866 ], [ 49.4971956, -14.6683702 ], [ 49.4966757, -14.668024 ], [ 49.4956098, -14.6670208 ], [ 49.4951601, -14.6662834 ], [ 49.4949536, -14.6658801 ], [ 49.4943515, -14.6654612 ], [ 49.4936071, -14.6649547 ], [ 49.4929092, -14.66392 ], [ 49.4927517, -14.6638683 ], [ 49.4921805, -14.663371 ], [ 49.4919007, -14.6631375 ], [ 49.4907553, -14.66299 ], [ 49.4907057, -14.6629379 ], [ 49.490632, -14.6630814 ], [ 49.49038, -14.6632642 ], [ 49.4903733, -14.6631747 ], [ 49.4898481, -14.6632031 ], [ 49.4895265, -14.6630704 ], [ 49.4890746, -14.6629185 ], [ 49.4885399, -14.6626674 ], [ 49.487713899999989, -14.6621356 ], [ 49.4869206, -14.6619832 ], [ 49.4860799, -14.661557 ], [ 49.4852131, -14.6608253 ], [ 49.4844154, -14.6622185 ], [ 49.484092900000014, -14.6612664 ], [ 49.4829217, -14.660488 ], [ 49.4819633, -14.6612714 ], [ 49.481082799999989, -14.6610832 ], [ 49.4805162, -14.6601311 ], [ 49.4800575, -14.6598895 ], [ 49.4793694, -14.6598885 ], [ 49.479064, -14.6597556 ], [ 49.4785141, -14.6595734 ], [ 49.4779132, -14.6599826 ], [ 49.4777747, -14.6597735 ], [ 49.4771663, -14.6600352 ], [ 49.4769214, -14.6599595 ], [ 49.475603100000015, -14.6598576 ], [ 49.4748023, -14.6599203 ], [ 49.4743924, -14.6600526 ], [ 49.4728955, -14.6606905 ], [ 49.472375299999989, -14.6610564 ], [ 49.471441200000015, -14.6609111 ], [ 49.4704142, -14.6610836 ], [ 49.4695868, -14.66119 ], [ 49.4691595, -14.6612434 ], [ 49.4689042, -14.6611994 ], [ 49.4692216, -14.6617805 ], [ 49.469266, -14.6618538 ], [ 49.4693144, -14.6622013 ], [ 49.4692022, -14.6626775 ], [ 49.4689612, -14.6636145 ], [ 49.4680504, -14.6635797 ], [ 49.4673021, -14.6635373 ], [ 49.465966, -14.6622107 ], [ 49.4645064, -14.6583485 ], [ 49.4625587, -14.660037 ], [ 49.4616548, -14.660097 ], [ 49.4614111, -14.6597364 ], [ 49.4607224, -14.6596984 ], [ 49.4604336, -14.6595864 ], [ 49.459467, -14.6598107 ], [ 49.4585312, -14.6595441 ], [ 49.4573142, -14.6596875 ], [ 49.4568828, -14.6598253 ], [ 49.4567353, -14.6597429 ], [ 49.4567804, -14.6591199 ], [ 49.4562628, -14.6581775 ], [ 49.4561302, -14.6576308 ], [ 49.455949600000011, -14.6575067 ], [ 49.4558932, -14.6569799 ], [ 49.4555681, -14.6567016 ], [ 49.4552199, -14.65614 ], [ 49.4547638, -14.6556979 ], [ 49.453398, -14.6552947 ], [ 49.4511188, -14.6546773 ], [ 49.4491607, -14.6549047 ], [ 49.4489105, -14.6548396 ], [ 49.4487849, -14.6543982 ], [ 49.4489935, -14.6534669 ], [ 49.4490609, -14.653255 ], [ 49.4490596, -14.6527908 ], [ 49.4489631, -14.6524862 ], [ 49.4489851, -14.6521378 ], [ 49.4487784, -14.651708 ], [ 49.4487215, -14.6515242 ], [ 49.4480335, -14.6511539 ], [ 49.44740620000001, -14.6508671 ], [ 49.446918, -14.6504518 ], [ 49.4465928, -14.6500712 ], [ 49.4455345, -14.6499434 ], [ 49.4443084, -14.6490898 ], [ 49.4439679, -14.6483982 ], [ 49.4437587, -14.6466709 ], [ 49.4432925, -14.6459072 ], [ 49.4431436, -14.6457806 ], [ 49.4425086, -14.6452796 ], [ 49.4420359, -14.6448114 ], [ 49.4417716, -14.6441451 ], [ 49.441222, -14.643604 ], [ 49.4407093, -14.6433684 ], [ 49.4403737, -14.6433889 ], [ 49.4399487, -14.6432206 ], [ 49.4391177, -14.6427098 ], [ 49.4388609, -14.6425551 ], [ 49.4387048, -14.6422565 ], [ 49.438481, -14.6417638 ], [ 49.4380355, -14.6416749 ], [ 49.4376902, -14.6414001 ], [ 49.4374936, -14.6409175 ], [ 49.437504, -14.6405164 ], [ 49.4377398, -14.6395848 ], [ 49.437528, -14.6391763 ], [ 49.4373796, -14.6386561 ], [ 49.4373221, -14.6384248 ], [ 49.4375245, -14.6378101 ], [ 49.4369049, -14.6369271 ], [ 49.436604, -14.636351 ], [ 49.4359785, -14.6354311 ], [ 49.4358942, -14.6348415 ], [ 49.4352713, -14.6337317 ], [ 49.434119, -14.6330934 ], [ 49.4345618, -14.6307453 ], [ 49.4346091, -14.6306391 ], [ 49.4345375, -14.6301864 ], [ 49.4342188, -14.6298743 ], [ 49.4337268, -14.6295698 ], [ 49.4332192, -14.6293077 ], [ 49.432786, -14.6293901 ], [ 49.4325339, -14.6294965 ], [ 49.4318588, -14.6292683 ], [ 49.4312289, -14.6287916 ], [ 49.4306416, -14.6282616 ], [ 49.4303224, -14.6279178 ], [ 49.4293856, -14.6268229 ], [ 49.4293628, -14.6263643 ], [ 49.4289724, -14.6255889 ], [ 49.428616, -14.6249186 ], [ 49.428641, -14.6244013 ], [ 49.4284009, -14.624278 ], [ 49.4272805, -14.6243513 ], [ 49.4279715, -14.6238038 ], [ 49.4277051, -14.6237389 ], [ 49.4270811, -14.6240481 ], [ 49.4261377, -14.6239924 ], [ 49.4259494, -14.6237101 ], [ 49.4256087, -14.6233772 ], [ 49.4252204, -14.6234985 ], [ 49.4243983, -14.6239687 ], [ 49.423973200000013, -14.62341 ], [ 49.4235343, -14.6234107 ], [ 49.4233159, -14.6232924 ], [ 49.4232304, -14.6229929 ], [ 49.4228293, -14.6229773 ], [ 49.4224701, -14.6224916 ], [ 49.423040900000011, -14.6222464 ], [ 49.423418600000012, -14.6217665 ], [ 49.4233662, -14.621514 ], [ 49.4230899, -14.621138 ], [ 49.4227291, -14.6205363 ], [ 49.4230553, -14.6202364 ], [ 49.4232214, -14.6201076 ], [ 49.4233962, -14.6198362 ], [ 49.4234363, -14.6196088 ], [ 49.4220335, -14.6184991 ], [ 49.4216882, -14.6182242 ], [ 49.4217533, -14.6179416 ], [ 49.4218039, -14.6176054 ], [ 49.4212708, -14.6169816 ], [ 49.420613, -14.6161605 ], [ 49.419897, -14.6157166 ], [ 49.4198, -14.6150005 ], [ 49.4197084, -14.6146536 ], [ 49.419237900000013, -14.6128243 ], [ 49.4184235, -14.6127035 ], [ 49.4182025, -14.6127751 ], [ 49.4179589, -14.6124144 ], [ 49.4171572, -14.6116605 ], [ 49.4165689, -14.6106768 ], [ 49.4161955, -14.6103284 ], [ 49.4153592, -14.6101868 ], [ 49.4153694, -14.6097647 ], [ 49.4152546, -14.6093126 ], [ 49.4150025, -14.6087358 ], [ 49.4149021, -14.6085314 ], [ 49.4147371, -14.6083596 ], [ 49.4146284, -14.6079549 ], [ 49.4141812, -14.6077499 ], [ 49.4137907, -14.6073333 ], [ 49.4136153, -14.6064389 ], [ 49.413238799999988, -14.605869 ], [ 49.4132847, -14.6056848 ], [ 49.4134529, -14.6049377 ], [ 49.4137794, -14.6042844 ], [ 49.4133305, -14.6035784 ], [ 49.4131787, -14.6031901 ], [ 49.4129383, -14.6022913 ], [ 49.4128467, -14.6019497 ], [ 49.412411, -14.6017815 ], [ 49.4117738, -14.6011677 ], [ 49.4114932, -14.6008656 ], [ 49.4111412, -14.6004906 ], [ 49.4108405, -14.5995451 ], [ 49.410148700000015, -14.5985206 ], [ 49.4091837, -14.5984599 ], [ 49.4099788, -14.5976209 ], [ 49.4117132, -14.5958038 ], [ 49.4130816, -14.5952841 ], [ 49.4116535, -14.5954143 ], [ 49.4113417, -14.5948277 ], [ 49.4111723, -14.5939649 ], [ 49.4103878, -14.5932792 ], [ 49.4100029, -14.592873 ], [ 49.4095694, -14.5928631 ], [ 49.409349, -14.5929821 ], [ 49.4089641, -14.5929609 ], [ 49.4088476, -14.5923875 ], [ 49.4090067, -14.5921533 ], [ 49.4084385, -14.5921926 ], [ 49.4074751, -14.5926277 ], [ 49.4071279, -14.5929648 ], [ 49.4068094, -14.5934175 ], [ 49.4067491, -14.5937506 ], [ 49.4064738, -14.5941975 ], [ 49.4060892, -14.5941974 ], [ 49.405753499999989, -14.5938221 ], [ 49.4045591, -14.5936326 ], [ 49.4035849, -14.5929337 ], [ 49.4024267, -14.5933819 ], [ 49.40158120000001, -14.5929714 ], [ 49.4009183, -14.5928274 ], [ 49.4005471, -14.5930065 ], [ 49.4002538, -14.5929524 ], [ 49.3995129, -14.593031 ], [ 49.3991515, -14.5931414 ], [ 49.398898800000012, -14.5928916 ], [ 49.3987226, -14.5930681 ], [ 49.3981489, -14.5931022 ], [ 49.3976048, -14.5925557 ], [ 49.3969909, -14.5928067 ], [ 49.3959719, -14.5920028 ], [ 49.3957121, -14.5920169 ], [ 49.3954922, -14.5914079 ], [ 49.3952027, -14.5908632 ], [ 49.3948503, -14.5908416 ], [ 49.3943185, -14.5903899 ], [ 49.3944575, -14.589122 ], [ 49.3931026, -14.5883121 ], [ 49.392217099999989, -14.5885087 ], [ 49.391541, -14.5889609 ], [ 49.391448600000011, -14.5897007 ], [ 49.3911715, -14.5900156 ], [ 49.3908819, -14.5906051 ], [ 49.3909475, -14.5910262 ], [ 49.3914884, -14.5913512 ], [ 49.391412, -14.5916899 ], [ 49.3909018, -14.5920027 ], [ 49.3908867, -14.5924619 ], [ 49.3905284, -14.5927885 ], [ 49.3896772, -14.5931112 ], [ 49.3890489, -14.5927399 ], [ 49.3885936, -14.5927196 ], [ 49.3878924, -14.5921647 ], [ 49.3876159, -14.5921473 ], [ 49.3868257, -14.5918098 ], [ 49.385965, -14.591853 ], [ 49.3855524, -14.5921698 ], [ 49.385078500000013, -14.5921185 ], [ 49.3851775, -14.5924703 ], [ 49.384571099999988, -14.5932486 ], [ 49.3836592, -14.5934983 ], [ 49.38329980000001, -14.5941309 ], [ 49.382457100000011, -14.5942952 ], [ 49.3818508, -14.5943192 ], [ 49.3816037, -14.5940851 ], [ 49.3812855, -14.5941844 ], [ 49.3810877, -14.5943664 ], [ 49.3809521, -14.5947375 ], [ 49.3808299, -14.5948672 ], [ 49.3807548, -14.5949564 ], [ 49.3806286, -14.5952472 ], [ 49.3803733, -14.5954519 ], [ 49.3794211, -14.5952539 ], [ 49.3787544, -14.5956111 ], [ 49.3784651, -14.5954514 ], [ 49.3773707, -14.5954398 ], [ 49.3770821, -14.595664 ], [ 49.3777423, -14.5959256 ], [ 49.3781554, -14.5964937 ], [ 49.3784727, -14.5981029 ], [ 49.3793626, -14.6011386 ], [ 49.3801682, -14.6034225 ], [ 49.382596, -14.6084453 ], [ 49.3829489, -14.6091534 ], [ 49.3835432, -14.6103455 ], [ 49.3854799, -14.6144354 ], [ 49.3865141, -14.6172845 ], [ 49.3909536, -14.6239294 ], [ 49.3931753, -14.6273773 ], [ 49.3944215, -14.6282267 ], [ 49.3979634, -14.6300375 ], [ 49.4005124, -14.633194 ], [ 49.4028816, -14.6366397 ], [ 49.4032953, -14.6372437 ], [ 49.4056071, -14.6425175 ], [ 49.4067586, -14.6450846 ], [ 49.4085511, -14.6468171 ], [ 49.4107568, -14.6491177 ], [ 49.4133265, -14.651623 ], [ 49.4134741, -14.6537059 ], [ 49.413932200000012, -14.6573926 ], [ 49.4147167, -14.6632979 ], [ 49.4151728, -14.6668412 ], [ 49.416333, -14.6698111 ], [ 49.418099500000011, -14.6734166 ], [ 49.4182696, -14.6736966 ], [ 49.4199895, -14.6765278 ], [ 49.4204914, -14.6781344 ], [ 49.4216099, -14.6816328 ], [ 49.4216944, -14.6823846 ], [ 49.4217748, -14.6828496 ], [ 49.420805, -14.6861131 ], [ 49.4195977, -14.6876837 ], [ 49.4188865, -14.6894503 ], [ 49.4197101, -14.6903713 ], [ 49.4222603, -14.6909818 ], [ 49.4262156, -14.6919675 ], [ 49.4291694, -14.6950105 ], [ 49.4318571, -14.6974834 ], [ 49.4343383, -14.6996492 ], [ 49.4363105, -14.7023343 ], [ 49.4377759, -14.704322 ], [ 49.437078, -14.706858 ], [ 49.4367261, -14.7081368 ], [ 49.4286017, -14.7117978 ], [ 49.4291719, -14.7130811 ], [ 49.4297012, -14.7171898 ], [ 49.4292843, -14.720854 ], [ 49.4274383, -14.7231659 ], [ 49.4269556, -14.7253371 ], [ 49.4269286, -14.7285643 ], [ 49.4275194, -14.7312094 ], [ 49.4291384, -14.7361708 ], [ 49.4318522, -14.7429457 ], [ 49.4345614, -14.7468524 ], [ 49.4422023, -14.7504044 ], [ 49.4463029, -14.7511725 ], [ 49.4466764, -14.751988 ], [ 49.4487263, -14.7582021 ], [ 49.4487588, -14.7596316 ], [ 49.4496338, -14.7631043 ], [ 49.4496871, -14.766762 ], [ 49.4500041, -14.7725615 ], [ 49.4508705, -14.7763858 ], [ 49.4521806, -14.7803115 ], [ 49.456492, -14.7853788 ], [ 49.4592274, -14.788496 ], [ 49.460691, -14.7903042 ], [ 49.4635229, -14.792452 ], [ 49.4670864, -14.794231 ], [ 49.4693343, -14.7967453 ], [ 49.4707137, -14.7978375 ], [ 49.4709458, -14.8010969 ], [ 49.4721498, -14.8046503 ], [ 49.4728666, -14.8055977 ], [ 49.4727884, -14.8098385 ], [ 49.4756019, -14.8104863 ], [ 49.4777585, -14.8101656 ], [ 49.47916, -14.8098726 ], [ 49.480983, -14.8095736 ], [ 49.4789191, -14.8126112 ], [ 49.4783771, -14.8139864 ], [ 49.4778713, -14.8178229 ], [ 49.4784677, -14.8201396 ], [ 49.4769311, -14.8238677 ], [ 49.4757203, -14.8250514 ], [ 49.4759605, -14.8276764 ], [ 49.4759631, -14.8290276 ], [ 49.4776892, -14.8311189 ], [ 49.4778482, -14.8319054 ], [ 49.4779778, -14.8329089 ], [ 49.4782087, -14.832823 ] ] ] } }
]
}
