{
"type": "FeatureCollection",
"name": "MDG-20287-NODATE-secondary_zoning-001",
"crs": { "type": "name", "properties": { "name": "urn:ogc:def:crs:OGC:1.3:CRS84" } },
"features": [
{ "type": "Feature", "properties": { }, "geometry": { "type": "MultiPolygon", "coordinates": [ [ [ [ 47.4388844, -21.3266225 ], [ 47.4362176, -21.3265113 ], [ 47.434689800000015, -21.3235946 ], [ 47.431773, -21.3268169 ], [ 47.4305785, -21.3274002 ], [ 47.4291339, -21.3277614 ], [ 47.4276061, -21.3281503 ], [ 47.4259949, -21.3286503 ], [ 47.4251615, -21.3292058 ], [ 47.4239114, -21.3291503 ], [ 47.4234948, -21.3285669 ], [ 47.421772399999988, -21.3291503 ], [ 47.4203001, -21.3290669 ], [ 47.4196612, -21.3296503 ], [ 47.419689, -21.3298725 ], [ 47.4184389, -21.3309281 ], [ 47.4165499, -21.3310114 ], [ 47.416161, -21.3308447 ], [ 47.4150499, -21.3311225 ], [ 47.4141332, -21.3314559 ], [ 47.4139109, -21.3319559 ], [ 47.4134664, -21.3322336 ], [ 47.412605299999981, -21.3325948 ], [ 47.411883, -21.332567 ], [ 47.410383, -21.3331781 ], [ 47.4095218, -21.3334559 ], [ 47.4090773, -21.3337892 ], [ 47.4089384, -21.3337337 ], [ 47.4090773, -21.3344003 ], [ 47.4090495, -21.3346504 ], [ 47.409271800000013, -21.3349837 ], [ 47.4091884, -21.3351504 ], [ 47.4092996, -21.3357615 ], [ 47.4095774, -21.3360948 ], [ 47.4096607, -21.3364282 ], [ 47.4096607, -21.3364004 ], [ 47.4098274, -21.3367059 ], [ 47.4097996, -21.336956 ], [ 47.4098274, -21.3372615 ], [ 47.4098274, -21.3374004 ], [ 47.4098829, -21.3376782 ], [ 47.409994, -21.3380115 ], [ 47.4102996, -21.3380949 ], [ 47.4103829, -21.3384838 ], [ 47.4107441, -21.3387893 ], [ 47.4107996, -21.3390393 ], [ 47.4110219, -21.3396504 ], [ 47.4107996, -21.3399282 ], [ 47.4111052, -21.3404282 ], [ 47.4112163, -21.3410394 ], [ 47.4112163, -21.3410116 ], [ 47.4116886, -21.3421505 ], [ 47.4117441, -21.3426227 ], [ 47.4123553, -21.343095 ], [ 47.412355299999987, -21.3433727 ], [ 47.4125497, -21.3440116 ], [ 47.4128275, -21.3446505 ], [ 47.413272, -21.3445116 ], [ 47.4138276, -21.3441228 ], [ 47.414272, -21.3441228 ], [ 47.415077599999989, -21.3444005 ], [ 47.415549899999988, -21.3451506 ], [ 47.4152721, -21.3458728 ], [ 47.416161, -21.3466784 ], [ 47.4165777, -21.3461506 ], [ 47.4176333, -21.344595 ], [ 47.4192445, -21.3424283 ], [ 47.420439, -21.3413449 ], [ 47.4214391, -21.3402616 ], [ 47.4215224, -21.3388727 ], [ 47.4219391, -21.3389004 ], [ 47.4222725, -21.3396505 ], [ 47.4226336, -21.3397894 ], [ 47.4227169, -21.3400671 ], [ 47.4230503, -21.3402338 ], [ 47.4233836, -21.3411227 ], [ 47.4234947, -21.3420949 ], [ 47.4235503, -21.3420394 ], [ 47.4240781, -21.3440394 ], [ 47.4236614, -21.3450117 ], [ 47.4231892, -21.3453172 ], [ 47.4231058, -21.3457617 ], [ 47.4225225, -21.3467061 ], [ 47.4229114, -21.3472617 ], [ 47.4226614, -21.3483451 ], [ 47.4226336, -21.3492062 ], [ 47.4226336, -21.3495117 ], [ 47.4228003, -21.3496506 ], [ 47.422744699999988, -21.3498173 ], [ 47.422828, -21.3503173 ], [ 47.4229947, -21.3506507 ], [ 47.4228002, -21.3510396 ], [ 47.422939099999986, -21.3510673 ], [ 47.4234669, -21.3516229 ], [ 47.424217, -21.352734 ], [ 47.4241336, -21.3528174 ], [ 47.425217, -21.3535674 ], [ 47.4254393, -21.3543452 ], [ 47.4258282, -21.3545952 ], [ 47.4268282, -21.3565952 ], [ 47.4275783, -21.3567619 ], [ 47.4283283, -21.3571508 ], [ 47.4288839, -21.356623 ], [ 47.4296339, -21.356623 ], [ 47.4300784, -21.357873 ], [ 47.430384, -21.3564563 ], [ 47.4329397, -21.3559285 ], [ 47.4331897, -21.3559008 ], [ 47.4347731, -21.3558452 ], [ 47.4373843, -21.3562619 ], [ 47.4391622, -21.354623 ], [ 47.441856800000011, -21.3550952 ], [ 47.4419124, -21.3544285 ], [ 47.4460792, -21.3538174 ], [ 47.444468, -21.3531785 ], [ 47.4454403, -21.352484 ], [ 47.447440400000012, -21.3526229 ], [ 47.4496905, -21.3518174 ], [ 47.4505517, -21.3516507 ], [ 47.4516629, -21.3512896 ], [ 47.4530796, -21.3503173 ], [ 47.4538297, -21.349984 ], [ 47.4542186, -21.3506507 ], [ 47.4554686, -21.3504285 ], [ 47.4566909, -21.3504007 ], [ 47.4602467, -21.3491784 ], [ 47.4592744, -21.3484284 ], [ 47.4602744, -21.3486507 ], [ 47.4610523, -21.3474284 ], [ 47.4606911, -21.3460117 ], [ 47.4631635, -21.3444561 ], [ 47.4623301, -21.344345 ], [ 47.4666081, -21.3402061 ], [ 47.4658859, -21.3391505 ], [ 47.4668303, -21.3357615 ], [ 47.4659414, -21.3330393 ], [ 47.465497, -21.3325115 ], [ 47.4647191, -21.3317892 ], [ 47.4631357, -21.3310392 ], [ 47.4624412, -21.3303726 ], [ 47.4617468, -21.3298725 ], [ 47.4603578, -21.3296781 ], [ 47.4587188, -21.3290947 ], [ 47.4574965, -21.3289003 ], [ 47.4560242, -21.3286225 ], [ 47.4538297, -21.3282892 ], [ 47.4515796, -21.3273447 ], [ 47.4492461, -21.3265114 ], [ 47.4479127, -21.3263725 ], [ 47.4473571, -21.326428 ], [ 47.4465237, -21.3236224 ], [ 47.441579, -21.3266502 ], [ 47.4388844, -21.3266225 ] ] ], [ [ [ 47.5225557, -21.1073408 ], [ 47.5188333, -21.1049796 ], [ 47.5180833, -21.107313 ], [ 47.5166943, -21.1083686 ], [ 47.5170277, -21.1098964 ], [ 47.5161387, -21.1118409 ], [ 47.5146109, -21.1134242 ], [ 47.5128052, -21.1158964 ], [ 47.5107218, -21.1192299 ], [ 47.5095828, -21.1203688 ], [ 47.5076938, -21.1208132 ], [ 47.5068049, -21.1230632 ], [ 47.5043603, -21.1245633 ], [ 47.5025547, -21.1263411 ], [ 47.502638, -21.1276745 ], [ 47.5023047, -21.1288134 ], [ 47.5033047, -21.1296745 ], [ 47.5019713, -21.1312023 ], [ 47.5005823, -21.131869 ], [ 47.4991378, -21.1335079 ], [ 47.497776599999987, -21.1358413 ], [ 47.4966655, -21.1350913 ], [ 47.4951654, -21.1353968 ], [ 47.494748699999988, -21.1362857 ], [ 47.4984156, -21.138258 ], [ 47.5003601, -21.1391691 ], [ 47.5031602, -21.1405691 ], [ 47.5054604, -21.1423692 ], [ 47.5082605, -21.1434692 ], [ 47.5106606, -21.1438692 ], [ 47.5114607, -21.1467693 ], [ 47.5118607, -21.1473693 ], [ 47.5128607, -21.1463693 ], [ 47.5148609, -21.1453692 ], [ 47.5148609, -21.1463693 ], [ 47.5148609, -21.1482693 ], [ 47.5156609, -21.1486693 ], [ 47.516861, -21.1483693 ], [ 47.518333299999988, -21.1467581 ], [ 47.5186666, -21.1466748 ], [ 47.5208612, -21.1463693 ], [ 47.521639, -21.1470915 ], [ 47.5223057, -21.1469248 ], [ 47.5258614, -21.1473693 ], [ 47.5257781, -21.1482304 ], [ 47.5277782, -21.149147 ], [ 47.5295838, -21.1508138 ], [ 47.531195, -21.1511194 ], [ 47.5318062, -21.151036 ], [ 47.533334, -21.1479249 ], [ 47.5337507, -21.1465915 ], [ 47.5357508, -21.1453137 ], [ 47.5373343, -21.1444248 ], [ 47.5381676, -21.1435359 ], [ 47.5370842, -21.1422025 ], [ 47.5368065, -21.1402858 ], [ 47.5362231, -21.1393692 ], [ 47.5376121, -21.1390358 ], [ 47.5374176, -21.138258 ], [ 47.537751, -21.136508 ], [ 47.5377232, -21.1348135 ], [ 47.5394733, -21.1338968 ], [ 47.5408067, -21.1332579 ], [ 47.5414734, -21.1333968 ], [ 47.5412234, -21.1343691 ], [ 47.5420845, -21.134758 ], [ 47.5429179, -21.1308134 ], [ 47.5412511, -21.1272023 ], [ 47.54014, -21.12498 ], [ 47.5395844, -21.1244244 ], [ 47.5379176, -21.1213688 ], [ 47.5360287, -21.1203966 ], [ 47.5335285, -21.1194521 ], [ 47.531084, -21.1181465 ], [ 47.5298895, -21.1153409 ], [ 47.5280838, -21.1124798 ], [ 47.5251948, -21.1111742 ], [ 47.5273615, -21.1089241 ], [ 47.527806, -21.1077852 ], [ 47.5288061, -21.1075075 ], [ 47.5288339, -21.1055352 ], [ 47.528306, -21.1057852 ], [ 47.5273893, -21.1057019 ], [ 47.5267504, -21.1055074 ], [ 47.526167, -21.106313 ], [ 47.5246392, -21.1075075 ], [ 47.5225557, -21.1073408 ] ] ] ] } }
]
}
