{
"type": "FeatureCollection",
"name": "MDG-5025-2015-boundary_modification-001",
"crs": { "type": "name", "properties": { "name": "urn:ogc:def:crs:OGC:1.3:CRS84" } },
"features": [
{ "type": "Feature", "properties": { }, "geometry": { "type": "MultiPolygon", "coordinates": [ [ [ [ 49.1985839, -12.4437677 ], [ 49.1689441, -12.4371401 ], [ 49.1659829, -12.4309628 ], [ 49.1614539, -12.4300072 ], [ 49.1584239, -12.429368 ], [ 49.1570081, -12.4293852 ], [ 49.160439, -12.4376417 ], [ 49.1754545, -12.4739882 ], [ 49.1733079, -12.4761308 ], [ 49.1732419, -12.4780942 ], [ 49.1717351, -12.4824358 ], [ 49.1717421, -12.4840817 ], [ 49.1702407, -12.4855291 ], [ 49.1720164, -12.4946601 ], [ 49.1723008, -12.4968996 ], [ 49.1783503, -12.5113072 ], [ 49.1794791, -12.5139957 ], [ 49.180002, -12.5112218 ], [ 49.1809413, -12.509311 ], [ 49.1828747, -12.5072614 ], [ 49.1836783, -12.5048096 ], [ 49.182491, -12.5030515 ], [ 49.1816563, -12.50147 ], [ 49.1819133, -12.4993233 ], [ 49.1831835, -12.4978464 ], [ 49.1837999, -12.4971296 ], [ 49.1948379, -12.4707229 ], [ 49.1959142, -12.4681477 ], [ 49.2029476, -12.4685313 ], [ 49.204408600000015, -12.4707228 ], [ 49.207068, -12.4747119 ], [ 49.2073709, -12.4746991 ], [ 49.215265599999988, -12.4743663 ], [ 49.21747, -12.473525 ], [ 49.2197372, -12.4710369 ], [ 49.2200341, -12.4700488 ], [ 49.2211919, -12.4708852 ], [ 49.2219869, -12.4711862 ], [ 49.2226176, -12.4710229 ], [ 49.2227718, -12.4707101 ], [ 49.2226076, -12.4702457 ], [ 49.222759799999984, -12.4697774 ], [ 49.222912, -12.4693091 ], [ 49.2232204, -12.4686834 ], [ 49.222896, -12.4680655 ], [ 49.222892, -12.4677546 ], [ 49.2222533, -12.4672962 ], [ 49.222878, -12.4666665 ], [ 49.2238251, -12.4664993 ], [ 49.2246141, -12.466334 ], [ 49.2255572, -12.4658559 ], [ 49.2260237, -12.4652282 ], [ 49.2268126, -12.4650629 ], [ 49.2272872, -12.465057 ], [ 49.2277597, -12.4648957 ], [ 49.2279139, -12.4645828 ], [ 49.2283845, -12.464266 ], [ 49.2286968, -12.4639512 ], [ 49.229011199999988, -12.4637918 ], [ 49.2290072, -12.463481 ], [ 49.2290032, -12.4631701 ], [ 49.22915540000001, -12.4627018 ], [ 49.2297801, -12.4620721 ], [ 49.2300864, -12.4612909 ], [ 49.2303948, -12.4606652 ], [ 49.2307051, -12.4601949 ], [ 49.2303808, -12.4595771 ], [ 49.2303748, -12.4591107 ], [ 49.2308453, -12.4587939 ], [ 49.2313158, -12.4584771 ], [ 49.2313098, -12.4580108 ], [ 49.2313038, -12.4575445 ], [ 49.2316182, -12.4573851 ], [ 49.2317723, -12.4570722 ], [ 49.2317663, -12.4566059 ], [ 49.231600099999987, -12.4559861 ], [ 49.2317483, -12.4552069 ], [ 49.2318965, -12.4544277 ], [ 49.2314139, -12.4538118 ], [ 49.2315641, -12.453188 ], [ 49.2315561, -12.4525662 ], [ 49.2317083, -12.4520979 ], [ 49.2320166, -12.4514722 ], [ 49.2313659, -12.4500811 ], [ 49.231191699999982, -12.4488394 ], [ 49.2312116, -12.4484577 ], [ 49.2315577, -12.4474565 ], [ 49.2342024, -12.4474236 ], [ 49.2367496, -12.4428607 ], [ 49.2354925, -12.4410043 ], [ 49.2372871, -12.4385128 ], [ 49.2372984, -12.435266 ], [ 49.2373005, -12.4346508 ], [ 49.2344434, -12.4346592 ], [ 49.230582, -12.4360458 ], [ 49.2298606, -12.4364048 ], [ 49.2249346, -12.4388564 ], [ 49.2210733, -12.4425853 ], [ 49.2198451, -12.4451239 ], [ 49.2089157, -12.4472127 ], [ 49.2068506, -12.4459268 ], [ 49.2047641, -12.4419369 ], [ 49.1986415, -12.4402579 ], [ 49.1985839, -12.4437677 ] ] ], [ [ [ 49.1944885, -12.3874724 ], [ 49.187573, -12.3623637 ], [ 49.1765397, -12.344959 ], [ 49.1590093, -12.3524015 ], [ 49.157177, -12.3614595 ], [ 49.1581647, -12.3626168 ], [ 49.158386300000011, -12.3630393 ], [ 49.1587173, -12.3635668 ], [ 49.1591591, -12.3643055 ], [ 49.1594982, -12.3654707 ], [ 49.1597252, -12.3663184 ], [ 49.1599494, -12.3669535 ], [ 49.1602764, -12.3671621 ], [ 49.1606061, -12.3675833 ], [ 49.1608237, -12.3676869 ], [ 49.1611574, -12.368427 ], [ 49.1609466, -12.3688548 ], [ 49.1609506, -12.3691736 ], [ 49.1581703, -12.3716524 ], [ 49.1611565, -12.3769312 ], [ 49.1620228, -12.377027 ], [ 49.1620348, -12.3779835 ], [ 49.1619347, -12.3786226 ], [ 49.1621577, -12.3791514 ], [ 49.1619468, -12.3795791 ], [ 49.167601299999987, -12.3820615 ], [ 49.1683608, -12.3822648 ], [ 49.1684716, -12.382476 ], [ 49.1685824, -12.3826873 ], [ 49.1684783, -12.3830075 ], [ 49.1678323, -12.383228 ], [ 49.1675133, -12.3836571 ], [ 49.1674119, -12.3841898 ], [ 49.1675227, -12.3844011 ], [ 49.1679606, -12.3848209 ], [ 49.16807, -12.3849259 ], [ 49.1682916, -12.3853484 ], [ 49.1687241, -12.3853431 ], [ 49.1690552, -12.3858706 ], [ 49.1690619, -12.386402 ], [ 49.168851, -12.3868298 ], [ 49.1687456, -12.3870437 ], [ 49.1688591, -12.3874675 ], [ 49.1688604, -12.3875738 ], [ 49.1685428, -12.3881092 ], [ 49.16844, -12.3885356 ], [ 49.1688766, -12.3888492 ], [ 49.1694172, -12.3888426 ], [ 49.1699578, -12.388836 ], [ 49.1702835, -12.3889384 ], [ 49.1705011, -12.389042 ], [ 49.1708309, -12.3894632 ], [ 49.1710538, -12.389992 ], [ 49.1710592, -12.3904171 ], [ 49.1709564, -12.3908436 ], [ 49.1709618, -12.3912687 ], [ 49.171074, -12.3915863 ], [ 49.1709685, -12.3918001 ], [ 49.1706469, -12.3920167 ], [ 49.1700035, -12.3924497 ], [ 49.1695736, -12.3926676 ], [ 49.1694669, -12.3927752 ], [ 49.1693614, -12.3929891 ], [ 49.1809171, -12.4002889 ], [ 49.1944885, -12.3874724 ] ] ] ] } }
]
}
