{
"type": "FeatureCollection",
"name": "MDG-2308-NODATE-secondary_zoning-001",
"crs": { "type": "name", "properties": { "name": "urn:ogc:def:crs:OGC:1.3:CRS84" } },
"features": [
{ "type": "Feature", "properties": { }, "geometry": { "type": "Polygon", "coordinates": [ [ [ 46.9025217, -22.3042508 ], [ 46.9515521, -22.3044174 ], [ 46.9619137, -22.2952229 ], [ 46.9713864, -22.2928339 ], [ 46.97535890000001, -22.2844727 ], [ 46.9839982, -22.2753058 ], [ 46.9770812, -22.262139 ], [ 46.9878596, -22.25375 ], [ 46.9973601, -22.2445553 ], [ 47.0046938, -22.236583 ], [ 47.0124443, -22.2293884 ], [ 47.0125276, -22.2294995 ], [ 47.0132776, -22.2289439 ], [ 47.0132776, -22.2283884 ], [ 47.0137221, -22.2283884 ], [ 47.0142221, -22.2273606 ], [ 47.014361, -22.2269439 ], [ 47.0139166, -22.2257772 ], [ 47.0140555, -22.2236105 ], [ 47.0142221, -22.2225827 ], [ 47.0139721, -22.2211105 ], [ 47.013611, -22.2198049 ], [ 47.0133054, -22.2187493 ], [ 47.0115831, -22.2183882 ], [ 47.010972, -22.2181659 ], [ 47.0101386, -22.2174993 ], [ 47.0099164, -22.2167215 ], [ 47.009555199999987, -22.2162493 ], [ 47.009471900000015, -22.2158048 ], [ 47.0097219, -22.2158048 ], [ 47.0100275, -22.2144159 ], [ 47.0110553, -22.2136103 ], [ 46.9936722, -22.1960778 ], [ 46.9868418, -22.1924777 ], [ 46.989042, -22.1870976 ], [ 46.9816416, -22.1888377 ], [ 46.9738512, -22.1888377 ], [ 46.9779714, -22.1776675 ], [ 46.9749412, -22.1775674 ], [ 46.9725811, -22.1744974 ], [ 46.9712311, -22.1742274 ], [ 46.970511, -22.1735674 ], [ 46.970831, -22.1728574 ], [ 46.970531, -22.1718073 ], [ 46.970381, -22.1716873 ], [ 46.970401, -22.1714173 ], [ 46.969391, -22.1726474 ], [ 46.9653307, -22.1721973 ], [ 46.9637507, -22.1711173 ], [ 46.9623906, -22.1709473 ], [ 46.9613205, -22.1709473 ], [ 46.9601005, -22.1721673 ], [ 46.9598005, -22.1724273 ], [ 46.9582544, -22.1738574 ], [ 46.9567303, -22.1749774 ], [ 46.9561803, -22.1749074 ], [ 46.9544502, -22.1765474 ], [ 46.9537101, -22.1771974 ], [ 46.9528301, -22.1784874 ], [ 46.95213, -22.1791675 ], [ 46.95202, -22.1791875 ], [ 46.95077, -22.1803175 ], [ 46.9500521, -22.182443 ], [ 46.9448574, -22.1845541 ], [ 46.9440518, -22.1875542 ], [ 46.9426351, -22.1903042 ], [ 46.9423295, -22.1918321 ], [ 46.9302733, -22.1949154 ], [ 46.9260786, -22.1966099 ], [ 46.9196339, -22.1970821 ], [ 46.9102167, -22.2032766 ], [ 46.9061331, -22.20386 ], [ 46.8904101, -22.1976377 ], [ 46.8851598, -22.1941653 ], [ 46.888715599999983, -22.1892487 ], [ 46.8861877, -22.1871097 ], [ 46.889715599999988, -22.1793874 ], [ 46.8882156, -22.1774984 ], [ 46.8831875, -22.176665 ], [ 46.8811596, -22.167776 ], [ 46.878353900000015, -22.1641371 ], [ 46.8717981, -22.1605258 ], [ 46.8671033, -22.1688316 ], [ 46.866186600000013, -22.1714427 ], [ 46.8651032, -22.1740261 ], [ 46.8644088, -22.1757761 ], [ 46.862908699999984, -22.183554 ], [ 46.8645476, -22.1874152 ], [ 46.8678811, -22.1949431 ], [ 46.8728258, -22.2054155 ], [ 46.872548, -22.2083601 ], [ 46.8739648, -22.2116934 ], [ 46.8678255, -22.2501941 ], [ 46.8692978, -22.2521387 ], [ 46.8701034, -22.2542775 ], [ 46.8674088, -22.2570832 ], [ 46.8688255, -22.2614722 ], [ 46.871409, -22.2705834 ], [ 46.871409, -22.2801392 ], [ 46.883604, -22.290056 ], [ 46.8795483, -22.2968339 ], [ 46.8779093, -22.3004729 ], [ 46.8932658, -22.3087181 ], [ 46.8934179, -22.3087062 ], [ 46.8934183, -22.3087062 ], [ 46.9025217, -22.3042508 ] ] ] } }
]
}
