{
"type": "FeatureCollection",
"name": "MDG-5021-2015-boundary_modification-001",
"crs": { "type": "name", "properties": { "name": "urn:ogc:def:crs:OGC:1.3:CRS84" } },
"features": [
{ "type": "Feature", "properties": { }, "geometry": { "type": "Polygon", "coordinates": [ [ [ 48.4429336, -18.9300699 ], [ 48.4429335, -18.9300659 ], [ 48.442397, -18.9283404 ], [ 48.4423782, -18.9268882 ], [ 48.443155700000013, -18.925549 ], [ 48.4444641, -18.9243346 ], [ 48.4452893, -18.9231671 ], [ 48.444249, -18.9231038 ], [ 48.4426965, -18.9225636 ], [ 48.441227, -18.9219827 ], [ 48.4398825, -18.9213607 ], [ 48.438161, -18.9206631 ], [ 48.4366071, -18.9200036 ], [ 48.4349292, -18.9194646 ], [ 48.4337857, -18.9188802 ], [ 48.4323577, -18.918259 ], [ 48.4309714, -18.9176374 ], [ 48.4298753, -18.9168138 ], [ 48.4289905, -18.9161868 ], [ 48.4278807, -18.9165921 ], [ 48.4270554, -18.9179571 ], [ 48.4259848, -18.9193206 ], [ 48.4251194, -18.9203637 ], [ 48.4246647, -18.9215241 ], [ 48.4241467, -18.922959 ], [ 48.4236247, -18.9243426 ], [ 48.4229039, -18.925776 ], [ 48.4216049, -18.9266841 ], [ 48.419980599999988, -18.927227 ], [ 48.4201319, -18.9287037 ], [ 48.4201749, -18.930111 ], [ 48.4187584, -18.9301039 ], [ 48.4182201, -18.9313185 ], [ 48.4174277, -18.9327295 ], [ 48.4167701, -18.9340229 ], [ 48.4167393, -18.9344287 ], [ 48.4165503, -18.9349714 ], [ 48.4164124, -18.9353277 ], [ 48.4161663, -18.9355499 ], [ 48.415708300000013, -18.9358589 ], [ 48.4154439, -18.9360306 ], [ 48.4152675, -18.9361339 ], [ 48.4151482, -18.9365576 ], [ 48.4152934, -18.9367947 ], [ 48.4156514, -18.9370761 ], [ 48.4159551, -18.9372418 ], [ 48.4160832, -18.9375615 ], [ 48.416055199999988, -18.9380387 ], [ 48.415879, -18.939182 ], [ 48.4156366, -18.9400557 ], [ 48.416118799999985, -18.9408016 ], [ 48.4172996, -18.9419006 ], [ 48.4172528, -18.9433129 ], [ 48.4171128, -18.9449072 ], [ 48.4178433, -18.9461328 ], [ 48.4193373, -18.9472283 ], [ 48.4200926, -18.9485908 ], [ 48.4221787, -18.9489607 ], [ 48.4238036, -18.9491141 ], [ 48.424552, -18.949485 ], [ 48.4254071, -18.9501278 ], [ 48.4255358, -18.950291 ], [ 48.4257571, -18.9504861 ], [ 48.4260254, -18.9507575 ], [ 48.4263157, -18.9509299 ], [ 48.4265931, -18.9509928 ], [ 48.4275376, -18.9513654 ], [ 48.4279735, -18.9517285 ], [ 48.4281718, -18.9519239 ], [ 48.4283465, -18.9521207 ], [ 48.428513, -18.9522717 ], [ 48.4285234, -18.9524138 ], [ 48.4286289, -18.9525662 ], [ 48.4288398, -18.9528492 ], [ 48.428935200000012, -18.9531224 ], [ 48.4290191, -18.9533958 ], [ 48.4292067, -18.953668 ], [ 48.4293484, -18.953955 ], [ 48.4296151, -18.9540838 ], [ 48.4299408, -18.9541683 ], [ 48.430135899999989, -18.9542538 ], [ 48.4304354, -18.9542397 ], [ 48.4310804, -18.9541889 ], [ 48.4317833, -18.9541596 ], [ 48.4322901, -18.9541213 ], [ 48.4326588, -18.9540954 ], [ 48.4329464, -18.9540485 ], [ 48.433119699999985, -18.9540796 ], [ 48.4334198, -18.9541093 ], [ 48.4336858, -18.9541833 ], [ 48.4340095, -18.9542566 ], [ 48.4341615, -18.9544415 ], [ 48.4343023, -18.9546484 ], [ 48.4345349, -18.9548214 ], [ 48.434667, -18.9549464 ], [ 48.4346937, -18.9550272 ], [ 48.4349975, -18.9553607 ], [ 48.4354496, -18.9555736 ], [ 48.4355077, -18.9556154 ], [ 48.4357366, -18.9556981 ], [ 48.4366178, -18.9557649 ], [ 48.4378655, -18.955244 ], [ 48.438804499999982, -18.9551066 ], [ 48.4403287, -18.9549752 ], [ 48.4418324, -18.9557633 ], [ 48.4435252, -18.9551823 ], [ 48.445484, -18.9544059 ], [ 48.4448623, -18.9532228 ], [ 48.4436603, -18.9520887 ], [ 48.4422539, -18.9511393 ], [ 48.440992399999985, -18.9503961 ], [ 48.4390914, -18.9502299 ], [ 48.43882, -18.9487472 ], [ 48.4379441, -18.9472325 ], [ 48.4378061, -18.9456918 ], [ 48.4385888, -18.9444243 ], [ 48.4386804, -18.9428716 ], [ 48.438822, -18.9415375 ], [ 48.4402343, -18.9404744 ], [ 48.4393716, -18.9393272 ], [ 48.438532, -18.9378702 ], [ 48.4386236, -18.9363175 ], [ 48.4398827, -18.9356508 ], [ 48.4420957, -18.9357187 ], [ 48.4424344, -18.9344006 ], [ 48.4426341, -18.9328112 ], [ 48.4428642, -18.9314349 ], [ 48.4428684, -18.9314382 ], [ 48.4429336, -18.9300699 ] ] ] } }
]
}
