{
"type": "FeatureCollection",
"name": "MDG-5028-NODATE-secondary_zoning-001",
"crs": { "type": "name", "properties": { "name": "urn:ogc:def:crs:OGC:1.3:CRS84" } },
"features": [
{ "type": "Feature", "properties": { }, "geometry": { "type": "MultiPolygon", "coordinates": [ [ [ [ 47.7374469, -23.0570698 ], [ 47.7374069, -23.0572398 ], [ 47.7359669, -23.0576698 ], [ 47.734466900000015, -23.0580998 ], [ 47.7333669, -23.0572898 ], [ 47.7323869, -23.0571598 ], [ 47.7318569, -23.0584698 ], [ 47.7313369, -23.0589798 ], [ 47.7312469, -23.0602998 ], [ 47.731426899999988, -23.0613498 ], [ 47.733067, -23.0619998 ], [ 47.734426899999981, -23.0625898 ], [ 47.7351969, -23.0628098 ], [ 47.735777, -23.0639398 ], [ 47.7355569, -23.0653198 ], [ 47.736097, -23.0654398 ], [ 47.7374869, -23.0649098 ], [ 47.738697, -23.0648098 ], [ 47.738977, -23.0649898 ], [ 47.740437, -23.0662098 ], [ 47.741277, -23.0651698 ], [ 47.741717, -23.0636598 ], [ 47.7401869, -23.0623498 ], [ 47.7394469, -23.0613898 ], [ 47.738467, -23.0601598 ], [ 47.7378469, -23.0587498 ], [ 47.7374469, -23.0570698 ] ] ], [ [ [ 47.7203496, -22.9800429 ], [ 47.7200996, -22.9798529 ], [ 47.7197096, -22.9795129 ], [ 47.7192396, -22.9793529 ], [ 47.7188995, -22.9793129 ], [ 47.7185095, -22.9793829 ], [ 47.7180895, -22.9801129 ], [ 47.7175795, -22.9798529 ], [ 47.7165794, -22.9798529 ], [ 47.7163994, -22.9799529 ], [ 47.716139399999989, -22.9799929 ], [ 47.7157094, -22.9801129 ], [ 47.7158094, -22.9803929 ], [ 47.7163794, -22.9805929 ], [ 47.7167094, -22.9808129 ], [ 47.7170594, -22.981223 ], [ 47.7168794, -22.981643 ], [ 47.7166194, -22.981653 ], [ 47.7164994, -22.981933 ], [ 47.7156694, -22.982193 ], [ 47.7152293, -22.982193 ], [ 47.7151493, -22.982213 ], [ 47.7146093, -22.982233 ], [ 47.7137593, -22.982743 ], [ 47.7135492, -22.983143 ], [ 47.7130292, -22.982953 ], [ 47.7125792, -22.982933 ], [ 47.7122192, -22.982543 ], [ 47.7118992, -22.982453 ], [ 47.7113591, -22.982143 ], [ 47.7110791, -22.982073 ], [ 47.7105991, -22.982003 ], [ 47.7102291, -22.981753 ], [ 47.709749, -22.981513 ], [ 47.709339, -22.9813329 ], [ 47.709449, -22.9811629 ], [ 47.708399, -22.982313 ], [ 47.708399, -22.982493 ], [ 47.708279, -22.982683 ], [ 47.708399, -22.982913 ], [ 47.708239, -22.983263 ], [ 47.708279, -22.983313 ], [ 47.708289, -22.983313 ], [ 47.7078389, -22.983833 ], [ 47.7078289, -22.983943 ], [ 47.708219, -22.984283 ], [ 47.708349, -22.984573 ], [ 47.708399, -22.984673 ], [ 47.708519, -22.985023 ], [ 47.708439, -22.985243 ], [ 47.708629, -22.985533 ], [ 47.708939, -22.985953 ], [ 47.708759, -22.986173 ], [ 47.708749, -22.986433 ], [ 47.708509, -22.986483 ], [ 47.708509, -22.986453 ], [ 47.707648899999988, -22.986433 ], [ 47.7073489, -22.986333 ], [ 47.7072089, -22.986303 ], [ 47.7068089, -22.986273 ], [ 47.7067389, -22.986483 ], [ 47.7062389, -22.986663 ], [ 47.7060088, -22.986643 ], [ 47.7059588, -22.986763 ], [ 47.7055488, -22.986853 ], [ 47.7051988, -22.9870831 ], [ 47.7047188, -22.986933 ], [ 47.7045488, -22.987003 ], [ 47.7045588, -22.986673 ], [ 47.7048788, -22.986553 ], [ 47.7047788, -22.986233 ], [ 47.7047988, -22.986193 ], [ 47.7046388, -22.985903 ], [ 47.7045488, -22.985563 ], [ 47.7047888, -22.985223 ], [ 47.704658800000011, -22.985113 ], [ 47.7042988, -22.985333 ], [ 47.7042387, -22.985153 ], [ 47.7041987, -22.985523 ], [ 47.7037787, -22.985333 ], [ 47.7036387, -22.985453 ], [ 47.7036787, -22.985943 ], [ 47.7035587, -22.986123 ], [ 47.7036587, -22.986323 ], [ 47.7036787, -22.986783 ], [ 47.7037087, -22.986923 ], [ 47.7037487, -22.986953 ], [ 47.7039887, -22.9874631 ], [ 47.7042187, -22.9874331 ], [ 47.7036087, -22.9879331 ], [ 47.7041787, -22.9879931 ], [ 47.7043788, -22.9881331 ], [ 47.7033487, -22.9881831 ], [ 47.7028987, -22.9880931 ], [ 47.7025587, -22.9878231 ], [ 47.7021286, -22.9876531 ], [ 47.7011286, -22.9876531 ], [ 47.7012186, -22.9880131 ], [ 47.7010686, -22.9880731 ], [ 47.7010686, -22.9884231 ], [ 47.7007986, -22.9884031 ], [ 47.6999785, -22.9891731 ], [ 47.6995785, -22.9893231 ], [ 47.6993385, -22.9896331 ], [ 47.6993085, -22.9897131 ], [ 47.6994985, -22.9894831 ], [ 47.6997085, -22.9897131 ], [ 47.6991285, -22.9901731 ], [ 47.6991885, -22.9903231 ], [ 47.6992185, -22.9903031 ], [ 47.6988085, -22.9911231 ], [ 47.6987385, -22.9913331 ], [ 47.6988185, -22.9913631 ], [ 47.6978384, -22.9922831 ], [ 47.6978184, -22.9922931 ], [ 47.6977384, -22.9928832 ], [ 47.6979884, -22.9931332 ], [ 47.6981184, -22.9931832 ], [ 47.6986684, -22.9932532 ], [ 47.6991185, -22.9932332 ], [ 47.6989885, -22.9930232 ], [ 47.6995285, -22.9932032 ], [ 47.6998085, -22.9934032 ], [ 47.7002385, -22.9932632 ], [ 47.7009986, -22.9937332 ], [ 47.7008486, -22.9943432 ], [ 47.7016686, -22.9963332 ], [ 47.7014886, -22.9974232 ], [ 47.7016486, -22.9976032 ], [ 47.701948599999987, -22.9975732 ], [ 47.7022686, -22.9985733 ], [ 47.7033487, -23.0000233 ], [ 47.7037987, -23.0001833 ], [ 47.7021986, -23.0025033 ], [ 47.7012386, -23.0037734 ], [ 47.7009886, -23.0051334 ], [ 47.7025086, -23.0059634 ], [ 47.7030987, -23.0059334 ], [ 47.7039387, -23.0065534 ], [ 47.7047888, -23.0083534 ], [ 47.7039187, -23.0097935 ], [ 47.7042587, -23.0119335 ], [ 47.7065888, -23.0118435 ], [ 47.7071989, -23.0133535 ], [ 47.7082389, -23.0155736 ], [ 47.7082889, -23.0168436 ], [ 47.710429, -23.0168236 ], [ 47.710419, -23.0188136 ], [ 47.709839, -23.0205737 ], [ 47.7118691, -23.0214637 ], [ 47.7136292, -23.0229137 ], [ 47.7158193, -23.0225337 ], [ 47.7180094, -23.0234137 ], [ 47.7202596, -23.0236537 ], [ 47.7212896, -23.0250438 ], [ 47.7223897, -23.0264538 ], [ 47.7226297, -23.0279238 ], [ 47.7237997, -23.0295338 ], [ 47.7261099, -23.0294238 ], [ 47.72831, -23.0291138 ], [ 47.7304301, -23.0294239 ], [ 47.7299401, -23.0278138 ], [ 47.72963, -23.0263438 ], [ 47.72924, -23.0245538 ], [ 47.7307201, -23.0231737 ], [ 47.7303201, -23.0217637 ], [ 47.7321402, -23.0203437 ], [ 47.7317602, -23.0176236 ], [ 47.7309901, -23.0167636 ], [ 47.7301201, -23.0156336 ], [ 47.72816, -23.0147336 ], [ 47.7272299, -23.0142436 ], [ 47.7274399, -23.0132036 ], [ 47.72755, -23.0127335 ], [ 47.72831, -23.0126935 ], [ 47.72918, -23.0123735 ], [ 47.7304201, -23.0126835 ], [ 47.7298701, -23.0124735 ], [ 47.7304001, -23.0124335 ], [ 47.7305101, -23.0123935 ], [ 47.7301901, -23.0121235 ], [ 47.7309801, -23.0117935 ], [ 47.7311901, -23.0114135 ], [ 47.7316902, -23.0115035 ], [ 47.7323802, -23.0113935 ], [ 47.7326502, -23.0113935 ], [ 47.7327402, -23.0111535 ], [ 47.7331503, -23.0109035 ], [ 47.7332203, -23.0108835 ], [ 47.7338603, -23.0099535 ], [ 47.7341903, -23.0095035 ], [ 47.7336203, -23.0092235 ], [ 47.7339103, -23.0088435 ], [ 47.7333003, -23.0086535 ], [ 47.7331503, -23.0083335 ], [ 47.7331403, -23.0082535 ], [ 47.7332503, -23.0076335 ], [ 47.7331703, -23.0073935 ], [ 47.733050299999988, -23.0064334 ], [ 47.7332703, -23.0062934 ], [ 47.733320299999988, -23.0058134 ], [ 47.733580300000014, -23.0055034 ], [ 47.7344503, -23.0039134 ], [ 47.7341203, -23.0035834 ], [ 47.7326102, -23.0037634 ], [ 47.7322902, -23.0035334 ], [ 47.7317702, -23.0032834 ], [ 47.7314002, -23.0032234 ], [ 47.7309401, -23.0031834 ], [ 47.7307501, -23.0031834 ], [ 47.7306301, -23.0029634 ], [ 47.7308801, -23.0028134 ], [ 47.7313202, -23.0020434 ], [ 47.7315702, -23.0019233 ], [ 47.7318802, -23.0015433 ], [ 47.7320602, -23.0011833 ], [ 47.7323902, -23.0006833 ], [ 47.7324702, -23.0003133 ], [ 47.7328602, -22.9996233 ], [ 47.7328102, -22.9994433 ], [ 47.7330703, -22.9990833 ], [ 47.7331503, -22.9989633 ], [ 47.7332603, -22.9985733 ], [ 47.7331603, -22.9979533 ], [ 47.7330503, -22.9970733 ], [ 47.7332503, -22.9968833 ], [ 47.7328603, -22.9964432 ], [ 47.7325402, -22.9961932 ], [ 47.7331203, -22.9954932 ], [ 47.7338103, -22.9953932 ], [ 47.7344403, -22.9953932 ], [ 47.7343573, -22.9953032 ], [ 47.7352604, -22.9951032 ], [ 47.7355404, -22.9948432 ], [ 47.7361904, -22.9946332 ], [ 47.7366605, -22.9944432 ], [ 47.7371605, -22.9941532 ], [ 47.7377305, -22.9941932 ], [ 47.7379905, -22.9939132 ], [ 47.7384306, -22.9934832 ], [ 47.7390106, -22.9933232 ], [ 47.7392806, -22.9933132 ], [ 47.7389806, -22.9925332 ], [ 47.7386306, -22.9920832 ], [ 47.7382205, -22.9916832 ], [ 47.7378005, -22.9913832 ], [ 47.7375105, -22.9910332 ], [ 47.7372905, -22.9907031 ], [ 47.7372105, -22.9904431 ], [ 47.7366205, -22.9904131 ], [ 47.736310399999986, -22.9905531 ], [ 47.7359204, -22.9905631 ], [ 47.7355004, -22.9908832 ], [ 47.7350204, -22.9909632 ], [ 47.7346804, -22.9911532 ], [ 47.7341703, -22.9908531 ], [ 47.7343903, -22.9903431 ], [ 47.7337303, -22.9901531 ], [ 47.7331803, -22.9899931 ], [ 47.7328503, -22.9897731 ], [ 47.7323702, -22.9894731 ], [ 47.7319502, -22.9895031 ], [ 47.731300199999986, -22.9894031 ], [ 47.7310002, -22.9891231 ], [ 47.7303301, -22.9888531 ], [ 47.730100100000016, -22.9883431 ], [ 47.7299301, -22.9881631 ], [ 47.7297101, -22.9876831 ], [ 47.729570099999989, -22.9871731 ], [ 47.7294701, -22.9865931 ], [ 47.7296201, -22.9862631 ], [ 47.7294801, -22.9858631 ], [ 47.7290701, -22.985463 ], [ 47.7288601, -22.9859231 ], [ 47.72843, -22.9862731 ], [ 47.72795, -22.9861431 ], [ 47.72759, -22.985673 ], [ 47.72771, -22.985383 ], [ 47.72796, -22.984863 ], [ 47.72828, -22.984543 ], [ 47.7285, -22.984163 ], [ 47.7288301, -22.983853 ], [ 47.7290001, -22.983373 ], [ 47.7289901, -22.982893 ], [ 47.7289201, -22.982853 ], [ 47.7287201, -22.982373 ], [ 47.72827, -22.982273 ], [ 47.7278, -22.981973 ], [ 47.72708, -22.982253 ], [ 47.72686, -22.981973 ], [ 47.7266099, -22.981823 ], [ 47.7263699, -22.981123 ], [ 47.726239899999982, -22.980933 ], [ 47.7259599, -22.981123 ], [ 47.7256299, -22.981303 ], [ 47.7254299, -22.981493 ], [ 47.7249399, -22.981673 ], [ 47.7245698, -22.981703 ], [ 47.7241498, -22.981543 ], [ 47.7237098, -22.981113 ], [ 47.7235598, -22.980783 ], [ 47.72319980000001, -22.980783 ], [ 47.7225597, -22.9804729 ], [ 47.7230798, -22.9801629 ], [ 47.7226197, -22.9797029 ], [ 47.7222397, -22.9799329 ], [ 47.7217397, -22.9800429 ], [ 47.7215197, -22.9802629 ], [ 47.7211397, -22.9803629 ], [ 47.7208396, -22.9802529 ], [ 47.7203496, -22.9800429 ] ] ] ] } }
]
}
