{
"type": "FeatureCollection",
"name": "MDG-5038-NODATE-secondary_zoning-001",
"crs": { "type": "name", "properties": { "name": "urn:ogc:def:crs:OGC:1.3:CRS84" } },
"features": [
{ "type": "Feature", "properties": { }, "geometry": { "type": "Polygon", "coordinates": [ [ [ 48.8760283, -18.1424051 ], [ 48.8732517, -18.1412848 ], [ 48.8671967, -18.1402054 ], [ 48.8646062, -18.1400727 ], [ 48.8596225, -18.1416197 ], [ 48.8560146, -18.1428195 ], [ 48.8527383, -18.1430252 ], [ 48.8499931, -18.1442142 ], [ 48.846553199999988, -18.1450818 ], [ 48.84330580000001, -18.1474319 ], [ 48.841961, -18.1500885 ], [ 48.8392142, -18.1498824 ], [ 48.8193875, -18.1581893 ], [ 48.8202594, -18.1650405 ], [ 48.8206621, -18.1693256 ], [ 48.821131, -18.1713758 ], [ 48.8215497, -18.1721512 ], [ 48.8226286, -18.1727232 ], [ 48.8231984, -18.1733019 ], [ 48.8246429, -18.1744551 ], [ 48.8262837, -18.1750204 ], [ 48.8279298, -18.1759759 ], [ 48.8278889, -18.1766769 ], [ 48.8274702, -18.1775331 ], [ 48.8271369, -18.1777419 ], [ 48.8289766, -18.1779145 ], [ 48.8289871, -18.1786949 ], [ 48.8283853, -18.1794829 ], [ 48.8277886, -18.1806611 ], [ 48.827192, -18.1818393 ], [ 48.8274119, -18.1830075 ], [ 48.8276344, -18.1843708 ], [ 48.8272471, -18.1859367 ], [ 48.8270587, -18.1871099 ], [ 48.8274985, -18.1894463 ], [ 48.8260984, -18.1916101 ], [ 48.8242769, -18.1928034 ], [ 48.8247192, -18.194272 ], [ 48.8251249, -18.1951347 ], [ 48.8263787, -18.1972659 ], [ 48.8259861, -18.1984416 ], [ 48.825612, -18.2009831 ], [ 48.8270594, -18.2023313 ], [ 48.8281011, -18.2038797 ], [ 48.8291587, -18.2065987 ], [ 48.8309079, -18.2090501 ], [ 48.8330696, -18.2127127 ], [ 48.843276300000014, -18.2134219 ], [ 48.8574749, -18.219674 ], [ 48.865374, -18.2291451 ], [ 48.879425399999988, -18.2339188 ], [ 48.8896878, -18.2268598 ], [ 48.8983981, -18.2199849 ], [ 48.9079109, -18.2137595 ], [ 48.9166198, -18.206884 ], [ 48.9254706, -18.1978614 ], [ 48.9276242, -18.1913992 ], [ 48.9289286, -18.1859377 ], [ 48.9292091, -18.1813143 ], [ 48.927384, -18.174243 ], [ 48.9215152, -18.1685146 ], [ 48.9093514, -18.1602087 ], [ 48.8987384, -18.1498098 ], [ 48.8987385, -18.1498084 ], [ 48.89579, -18.1487567 ], [ 48.8928338, -18.147144 ], [ 48.8897142, -18.1461933 ], [ 48.8872872, -18.1453988 ], [ 48.8860748, -18.1450841 ], [ 48.8834887, -18.1452815 ], [ 48.8805418, -18.1443285 ], [ 48.878285, -18.1433668 ], [ 48.8760283, -18.1424051 ] ] ] } }
]
}
