{
"type": "FeatureCollection",
"name": "MDG-555697917-NODATE-secondary_zoning-001",
"crs": { "type": "name", "properties": { "name": "urn:ogc:def:crs:OGC:1.3:CRS84" } },
"features": [
{ "type": "Feature", "properties": { }, "geometry": { "type": "MultiPolygon", "coordinates": [ [ [ [ 47.6425333, -20.5128332 ], [ 47.64145, -20.5124999 ], [ 47.640216699999989, -20.5121666 ], [ 47.6395333, -20.5131666 ], [ 47.639316699999988, -20.5121666 ], [ 47.6381667, -20.5123332 ], [ 47.6387, -20.5129999 ], [ 47.6383, -20.5134999 ], [ 47.6373833, -20.5141666 ], [ 47.6363167, -20.5143332 ], [ 47.6348833, -20.5144999 ], [ 47.6338, -20.5144999 ], [ 47.6331833, -20.5146666 ], [ 47.6322667, -20.5148332 ], [ 47.6320333, -20.5161666 ], [ 47.6313, -20.5166666 ], [ 47.6311167, -20.5174999 ], [ 47.6306, -20.5176666 ], [ 47.6304167, -20.5183332 ], [ 47.6298667, -20.5181666 ], [ 47.6292667, -20.5181666 ], [ 47.6291167, -20.5181666 ], [ 47.6286333, -20.5184999 ], [ 47.6288, -20.5188332 ], [ 47.6291167, -20.5199999 ], [ 47.6291833, -20.5211666 ], [ 47.6287333, -20.5224999 ], [ 47.6286, -20.5236666 ], [ 47.62915, -20.5263332 ], [ 47.6304667, -20.5259999 ], [ 47.6315667, -20.5258332 ], [ 47.633, -20.5264999 ], [ 47.6340833, -20.5274999 ], [ 47.6348167, -20.5284999 ], [ 47.6337667, -20.5289999 ], [ 47.6348667, -20.5301666 ], [ 47.63585, -20.5308332 ], [ 47.6356333, -20.5321666 ], [ 47.63595, -20.5334999 ], [ 47.6371667, -20.5338332 ], [ 47.6384833, -20.5344999 ], [ 47.63925, -20.5358332 ], [ 47.6407833, -20.5359999 ], [ 47.6421, -20.5363332 ], [ 47.6434333, -20.5358332 ], [ 47.64265, -20.5339999 ], [ 47.64155, -20.5334999 ], [ 47.6424333, -20.5326666 ], [ 47.6440333, -20.5323332 ], [ 47.6451667, -20.5321666 ], [ 47.6463667, -20.5326666 ], [ 47.6473667, -20.5318332 ], [ 47.64845, -20.5308332 ], [ 47.6498333, -20.5308332 ], [ 47.65065, -20.5299999 ], [ 47.6520833, -20.5301666 ], [ 47.6531667, -20.5298332 ], [ 47.6542667, -20.5298332 ], [ 47.6550333, -20.5303332 ], [ 47.6561167, -20.5304999 ], [ 47.657233299999987, -20.5306666 ], [ 47.6583333, -20.5308332 ], [ 47.66015, -20.5311666 ], [ 47.6616167, -20.5289999 ], [ 47.6617333, -20.5279999 ], [ 47.6606333, -20.5271666 ], [ 47.6595333, -20.5266666 ], [ 47.6583333, -20.5259999 ], [ 47.65745, -20.5254999 ], [ 47.6561333, -20.5249999 ], [ 47.6550333, -20.5234999 ], [ 47.6542667, -20.5226666 ], [ 47.6535, -20.5218332 ], [ 47.6526167, -20.5211666 ], [ 47.6516333, -20.5206666 ], [ 47.6509833, -20.5196666 ], [ 47.6511, -20.5183332 ], [ 47.6513833, -20.5178332 ], [ 47.651716699999987, -20.5174999 ], [ 47.6513333, -20.5168332 ], [ 47.64995, -20.5156666 ], [ 47.6481167, -20.5151666 ], [ 47.6472167, -20.5148332 ], [ 47.6462833, -20.5146666 ], [ 47.6456667, -20.5143332 ], [ 47.6451167, -20.5136666 ], [ 47.6441333, -20.5136666 ], [ 47.6432833, -20.5133332 ], [ 47.6425333, -20.5128332 ] ] ], [ [ [ 47.71952, -20.4400599 ], [ 47.71738, -20.4394799 ], [ 47.71532, -20.4399799 ], [ 47.71376, -20.4394099 ], [ 47.71246, -20.4392299 ], [ 47.71086, -20.4405799 ], [ 47.70905, -20.4398299 ], [ 47.70816, -20.4387799 ], [ 47.70706, -20.4386999 ], [ 47.70602, -20.4379899 ], [ 47.70538, -20.4391499 ], [ 47.70454, -20.4398599 ], [ 47.70383, -20.4402499 ], [ 47.70305, -20.4411999 ], [ 47.70201, -20.4418599 ], [ 47.7001, -20.4432599 ], [ 47.69949, -20.4433499 ], [ 47.69814, -20.4441499 ], [ 47.69751, -20.4459199 ], [ 47.69718, -20.4470299 ], [ 47.6966, -20.4482799 ], [ 47.69661, -20.4489799 ], [ 47.69707, -20.4495499 ], [ 47.69776, -20.4502599 ], [ 47.69802, -20.4506799 ], [ 47.69861, -20.4520499 ], [ 47.69796, -20.4533199 ], [ 47.69669, -20.4543099 ], [ 47.69706, -20.4545299 ], [ 47.69724, -20.4563299 ], [ 47.69807, -20.4567099 ], [ 47.69828, -20.4575299 ], [ 47.69843, -20.4591699 ], [ 47.69905, -20.4594799 ], [ 47.70027, -20.4600699 ], [ 47.70116, -20.4602699 ], [ 47.70142, -20.4604799 ], [ 47.70173, -20.4615199 ], [ 47.70147, -20.4632899 ], [ 47.70199, -20.4643099 ], [ 47.70252, -20.4646599 ], [ 47.70517, -20.4664899 ], [ 47.70721, -20.4654299 ], [ 47.70856, -20.4658099 ], [ 47.70947, -20.4663899 ], [ 47.71016, -20.4682399 ], [ 47.71016, -20.4690899 ], [ 47.71105, -20.4697299 ], [ 47.71209, -20.4707499 ], [ 47.71298, -20.4714399 ], [ 47.71347, -20.4721199 ], [ 47.71421, -20.4730499 ], [ 47.71472, -20.4738499 ], [ 47.71499, -20.4740399 ], [ 47.71564, -20.4742899 ], [ 47.71623, -20.4739599 ], [ 47.71658, -20.4741099 ], [ 47.71735, -20.4737299 ], [ 47.71795, -20.4738699 ], [ 47.71876, -20.4737199 ], [ 47.71973, -20.4737399 ], [ 47.72087, -20.4741699 ], [ 47.72134, -20.4739999 ], [ 47.72235, -20.4735499 ], [ 47.72265, -20.4733299 ], [ 47.72373, -20.4729599 ], [ 47.72401, -20.4730099 ], [ 47.72447, -20.4723399 ], [ 47.72741, -20.4717599 ], [ 47.7277, -20.4719899 ], [ 47.72849, -20.4722399 ], [ 47.72885, -20.4722499 ], [ 47.72946, -20.4725499 ], [ 47.72981, -20.4724399 ], [ 47.73018, -20.4723199 ], [ 47.73081, -20.4724099 ], [ 47.73148, -20.4724499 ], [ 47.73224, -20.4729399 ], [ 47.733, -20.4729599 ], [ 47.73374, -20.4723899 ], [ 47.73411, -20.4706499 ], [ 47.73451, -20.4705799 ], [ 47.73529, -20.4699599 ], [ 47.73535, -20.4697799 ], [ 47.73551, -20.4695799 ], [ 47.73565, -20.4689699 ], [ 47.73602, -20.4687299 ], [ 47.73633, -20.4684999 ], [ 47.73689, -20.4687699 ], [ 47.73804, -20.4687299 ], [ 47.73861, -20.4683599 ], [ 47.73873, -20.4679299 ], [ 47.73903, -20.4677699 ], [ 47.73921, -20.4677999 ], [ 47.7402, -20.4675299 ], [ 47.74047, -20.4675499 ], [ 47.74127, -20.4672899 ], [ 47.74152, -20.4671199 ], [ 47.74165, -20.4671299 ], [ 47.74237, -20.4675099 ], [ 47.74351, -20.4673499 ], [ 47.74486, -20.4674899 ], [ 47.74493, -20.4674599 ], [ 47.74546, -20.4676899 ], [ 47.74571, -20.4678899 ], [ 47.74611, -20.4681199 ], [ 47.74661, -20.4685499 ], [ 47.74769, -20.4686899 ], [ 47.74779, -20.4692499 ], [ 47.7485, -20.4693099 ], [ 47.74951, -20.4700699 ], [ 47.74971, -20.4702099 ], [ 47.75011, -20.4704799 ], [ 47.75069, -20.4708299 ], [ 47.75179, -20.4711399 ], [ 47.75215, -20.4712199 ], [ 47.75241, -20.4711599 ], [ 47.75343, -20.4698399 ], [ 47.75364, -20.4697399 ], [ 47.75417, -20.4694499 ], [ 47.75431, -20.4689899 ], [ 47.75456, -20.4689899 ], [ 47.75551, -20.4693999 ], [ 47.75716, -20.4695999 ], [ 47.75782, -20.4690299 ], [ 47.75834, -20.4694599 ], [ 47.75911, -20.4702299 ], [ 47.76051, -20.4693699 ], [ 47.76075, -20.4690299 ], [ 47.76151, -20.4683499 ], [ 47.76193, -20.4684199 ], [ 47.7623, -20.4679999 ], [ 47.76306, -20.4678599 ], [ 47.76507, -20.4686999 ], [ 47.76583, -20.4689499 ], [ 47.76669, -20.4684499 ], [ 47.76719, -20.4682299 ], [ 47.76743, -20.4680699 ], [ 47.76801, -20.4681799 ], [ 47.76881, -20.4684499 ], [ 47.76965, -20.4688699 ], [ 47.76933, -20.4684399 ], [ 47.76949, -20.4683399 ], [ 47.77005, -20.4679199 ], [ 47.77085, -20.4678499 ], [ 47.77145, -20.4681599 ], [ 47.7716, -20.4682799 ], [ 47.7723, -20.4687899 ], [ 47.77279, -20.4684799 ], [ 47.77343, -20.4687299 ], [ 47.77379, -20.4692099 ], [ 47.77452, -20.4698599 ], [ 47.77595, -20.4703499 ], [ 47.77711, -20.4711699 ], [ 47.77814, -20.4716899 ], [ 47.77831, -20.4719099 ], [ 47.77893, -20.4720099 ], [ 47.77935, -20.4721899 ], [ 47.77978, -20.4725499 ], [ 47.78033, -20.4731599 ], [ 47.78091, -20.4735699 ], [ 47.78152, -20.4736599 ], [ 47.78212, -20.4738199 ], [ 47.78271, -20.4735599 ], [ 47.78323, -20.4728499 ], [ 47.78332, -20.4725599 ], [ 47.78364, -20.4718299 ], [ 47.78299, -20.4716899 ], [ 47.78361, -20.4704199 ], [ 47.78343, -20.4699799 ], [ 47.78339, -20.4696199 ], [ 47.78341, -20.4692499 ], [ 47.78389, -20.4690799 ], [ 47.78433, -20.4687899 ], [ 47.78452, -20.4685299 ], [ 47.78472, -20.4682799 ], [ 47.78457, -20.4679799 ], [ 47.78498, -20.4676699 ], [ 47.78534, -20.4676699 ], [ 47.7862, -20.4678699 ], [ 47.78666, -20.4673399 ], [ 47.78713, -20.4669199 ], [ 47.787, -20.4663899 ], [ 47.78725, -20.4660399 ], [ 47.78779, -20.4655599 ], [ 47.78792, -20.4652399 ], [ 47.78776, -20.4648199 ], [ 47.78809, -20.4643999 ], [ 47.78835, -20.4641099 ], [ 47.78838, -20.4639399 ], [ 47.78825, -20.4636099 ], [ 47.78848, -20.4631099 ], [ 47.78837, -20.4624899 ], [ 47.78842, -20.4619499 ], [ 47.78849, -20.4620699 ], [ 47.78836, -20.4616399 ], [ 47.7883, -20.4612399 ], [ 47.78828, -20.4605399 ], [ 47.7877, -20.4602999 ], [ 47.7868, -20.4606799 ], [ 47.7867, -20.4603399 ], [ 47.78691, -20.4595699 ], [ 47.78712, -20.4593999 ], [ 47.78731, -20.4592499 ], [ 47.7875, -20.4591399 ], [ 47.78758, -20.4589199 ], [ 47.78756, -20.4586399 ], [ 47.78755, -20.4584499 ], [ 47.78755, -20.4581899 ], [ 47.78747, -20.4576999 ], [ 47.7874, -20.4575899 ], [ 47.78791, -20.4572699 ], [ 47.78801, -20.4568999 ], [ 47.78795, -20.4560899 ], [ 47.788, -20.4556499 ], [ 47.78795, -20.4552999 ], [ 47.7886, -20.4548199 ], [ 47.78903, -20.4544899 ], [ 47.78981, -20.4532799 ], [ 47.78918, -20.4527199 ], [ 47.789, -20.4529999 ], [ 47.78904, -20.4529999 ], [ 47.78896, -20.4530999 ], [ 47.78871, -20.4532599 ], [ 47.78804, -20.4532499 ], [ 47.78773, -20.4534199 ], [ 47.78721, -20.4536899 ], [ 47.78673, -20.4539199 ], [ 47.78598, -20.4537699 ], [ 47.78567, -20.4540799 ], [ 47.78462, -20.4538499 ], [ 47.78393, -20.4545499 ], [ 47.78252, -20.4534299 ], [ 47.78143, -20.4525899 ], [ 47.78051, -20.4522999 ], [ 47.7795, -20.4514399 ], [ 47.77943, -20.4498499 ], [ 47.77941, -20.4484599 ], [ 47.77894, -20.4471499 ], [ 47.77775, -20.4483399 ], [ 47.77656, -20.4488499 ], [ 47.77615, -20.4488199 ], [ 47.77555, -20.4490599 ], [ 47.77492, -20.4490699 ], [ 47.77391, -20.4488999 ], [ 47.77284, -20.4475799 ], [ 47.77085, -20.4475299 ], [ 47.77013, -20.4471099 ], [ 47.76934, -20.4469699 ], [ 47.76801, -20.4473099 ], [ 47.7658, -20.4478099 ], [ 47.765, -20.4479499 ], [ 47.76462, -20.4474199 ], [ 47.76254, -20.4472699 ], [ 47.76102, -20.4468199 ], [ 47.75903, -20.4478099 ], [ 47.75838, -20.4478399 ], [ 47.75804, -20.4480899 ], [ 47.75611, -20.4485499 ], [ 47.75511, -20.4483999 ], [ 47.75339, -20.4485899 ], [ 47.75276, -20.4487499 ], [ 47.75154, -20.4486899 ], [ 47.75015, -20.4480099 ], [ 47.74877, -20.4469899 ], [ 47.74751, -20.4461799 ], [ 47.74544, -20.4462899 ], [ 47.74502, -20.4469899 ], [ 47.74456, -20.4471599 ], [ 47.74392, -20.4476099 ], [ 47.74344, -20.4480899 ], [ 47.7421, -20.4478899 ], [ 47.74183, -20.4477299 ], [ 47.74112, -20.4468199 ], [ 47.73975, -20.4463699 ], [ 47.73854, -20.4462199 ], [ 47.73814, -20.4462299 ], [ 47.73618, -20.4456399 ], [ 47.73444, -20.4452399 ], [ 47.73176, -20.4460699 ], [ 47.73015, -20.4467399 ], [ 47.73012, -20.4457599 ], [ 47.7284, -20.4462199 ], [ 47.72718, -20.4456599 ], [ 47.72629, -20.4449499 ], [ 47.72586, -20.4430099 ], [ 47.72525, -20.4423299 ], [ 47.72447, -20.4411599 ], [ 47.72313, -20.4409499 ], [ 47.72055, -20.4405199 ], [ 47.71952, -20.4400599 ] ] ], [ [ [ 47.71555, -20.4138099 ], [ 47.7154, -20.4134999 ], [ 47.71524, -20.4132499 ], [ 47.71514, -20.4129599 ], [ 47.71505, -20.4126599 ], [ 47.71493, -20.4123899 ], [ 47.71457, -20.4121299 ], [ 47.71426, -20.4120199 ], [ 47.714, -20.4118299 ], [ 47.71379, -20.4116299 ], [ 47.71349, -20.4113799 ], [ 47.7133, -20.4111399 ], [ 47.71296, -20.4109199 ], [ 47.71255, -20.4106799 ], [ 47.71214, -20.4106199 ], [ 47.71173, -20.4105699 ], [ 47.71136, -20.4105399 ], [ 47.71093, -20.4106899 ], [ 47.71051, -20.4107199 ], [ 47.71015, -20.4107599 ], [ 47.70985, -20.4108299 ], [ 47.70959, -20.4108599 ], [ 47.70927, -20.4109399 ], [ 47.70891, -20.4109399 ], [ 47.70864, -20.4109799 ], [ 47.70838, -20.4110299 ], [ 47.70818, -20.4111199 ], [ 47.70795, -20.4111999 ], [ 47.70772, -20.4113199 ], [ 47.70737, -20.4113799 ], [ 47.70705, -20.4114999 ], [ 47.70678, -20.4115699 ], [ 47.70646, -20.4116299 ], [ 47.70611, -20.4116299 ], [ 47.7058, -20.4116399 ], [ 47.70546, -20.4118199 ], [ 47.70507, -20.4118699 ], [ 47.70472, -20.4119399 ], [ 47.70437, -20.4120099 ], [ 47.70408, -20.4120499 ], [ 47.70371, -20.4120899 ], [ 47.70329, -20.4121199 ], [ 47.70286, -20.4121599 ], [ 47.70249, -20.4121599 ], [ 47.70216, -20.4121899 ], [ 47.70177, -20.4121999 ], [ 47.7014, -20.4122699 ], [ 47.70102, -20.4123799 ], [ 47.70074, -20.4124699 ], [ 47.70044, -20.4124999 ], [ 47.70004, -20.4125799 ], [ 47.6997, -20.4128099 ], [ 47.69932, -20.4129899 ], [ 47.69895, -20.4130699 ], [ 47.69864, -20.4130999 ], [ 47.69808, -20.4129099 ], [ 47.69772, -20.4123699 ], [ 47.69724, -20.4122399 ], [ 47.69658, -20.4122399 ], [ 47.69608, -20.4122399 ], [ 47.69553, -20.4121699 ], [ 47.69482, -20.4121699 ], [ 47.69456, -20.4127899 ], [ 47.69454, -20.4137199 ], [ 47.69499, -20.4139999 ], [ 47.69492, -20.4144399 ], [ 47.69392, -20.4146499 ], [ 47.69222, -20.4148499 ], [ 47.69177, -20.4150699 ], [ 47.69132, -20.4154999 ], [ 47.69087, -20.4159199 ], [ 47.69024, -20.4162499 ], [ 47.68961, -20.4165099 ], [ 47.68925, -20.4169299 ], [ 47.6889, -20.4173499 ], [ 47.68845, -20.4178499 ], [ 47.688, -20.4184399 ], [ 47.68827, -20.4189499 ], [ 47.68954, -20.4191099 ], [ 47.69089, -20.4192499 ], [ 47.69104, -20.4200899 ], [ 47.68939, -20.4205099 ], [ 47.68909, -20.4214999 ], [ 47.68838, -20.4219199 ], [ 47.68766, -20.4221699 ], [ 47.68766, -20.4226699 ], [ 47.68766, -20.4231799 ], [ 47.68784, -20.4237699 ], [ 47.68811, -20.4242699 ], [ 47.68811, -20.4247799 ], [ 47.68811, -20.4252799 ], [ 47.68847, -20.4258699 ], [ 47.68865, -20.4264599 ], [ 47.68874, -20.4269699 ], [ 47.68963, -20.4272999 ], [ 47.69008, -20.4277199 ], [ 47.6908, -20.4280599 ], [ 47.69093, -20.4286199 ], [ 47.69156, -20.4288699 ], [ 47.69219, -20.4291199 ], [ 47.69246, -20.4296299 ], [ 47.693, -20.4300499 ], [ 47.69336, -20.4304699 ], [ 47.69398, -20.4306399 ], [ 47.69452, -20.4309699 ], [ 47.69479, -20.4314799 ], [ 47.69524, -20.4318999 ], [ 47.69569, -20.4323199 ], [ 47.69569, -20.4328299 ], [ 47.69587, -20.4333299 ], [ 47.69587, -20.4338399 ], [ 47.69641, -20.4341699 ], [ 47.69677, -20.4345899 ], [ 47.69686, -20.4351799 ], [ 47.69748, -20.4355199 ], [ 47.69793, -20.4358599 ], [ 47.69865, -20.4361899 ], [ 47.69874, -20.4367799 ], [ 47.69932, -20.4369199 ], [ 47.69979, -20.4369199 ], [ 47.70027, -20.4370299 ], [ 47.70063, -20.4371999 ], [ 47.70111, -20.4373099 ], [ 47.70171, -20.4373699 ], [ 47.70212, -20.4376499 ], [ 47.70248, -20.4378699 ], [ 47.7029, -20.4381499 ], [ 47.70326, -20.4383799 ], [ 47.70374, -20.4380399 ], [ 47.70404, -20.4378199 ], [ 47.70445, -20.4373699 ], [ 47.70487, -20.4369199 ], [ 47.70535, -20.4369199 ], [ 47.70583, -20.4369699 ], [ 47.70631, -20.4369099 ], [ 47.70673, -20.4370799 ], [ 47.70685, -20.4374699 ], [ 47.70732, -20.4375899 ], [ 47.70768, -20.4372499 ], [ 47.70804, -20.4369099 ], [ 47.70852, -20.4370299 ], [ 47.7084, -20.4365799 ], [ 47.70894, -20.4365799 ], [ 47.7093, -20.4366899 ], [ 47.70959, -20.4363499 ], [ 47.70984, -20.4362799 ], [ 47.70997, -20.4362999 ], [ 47.71007, -20.4362199 ], [ 47.71017, -20.4362199 ], [ 47.71025, -20.4362199 ], [ 47.71031, -20.4361799 ], [ 47.71038, -20.4361799 ], [ 47.71045, -20.4361799 ], [ 47.71055, -20.4361799 ], [ 47.71064, -20.4361499 ], [ 47.71073, -20.4361099 ], [ 47.7108, -20.4361599 ], [ 47.7109, -20.4361599 ], [ 47.711, -20.4361399 ], [ 47.71107, -20.4361699 ], [ 47.71107, -20.4362199 ], [ 47.71114, -20.4362499 ], [ 47.71122, -20.4362499 ], [ 47.71161, -20.4362699 ], [ 47.712, -20.4362699 ], [ 47.71243, -20.4360699 ], [ 47.71275, -20.4358399 ], [ 47.71318, -20.4357699 ], [ 47.71354, -20.4358399 ], [ 47.71397, -20.4358399 ], [ 47.71429, -20.4358399 ], [ 47.71465, -20.4358399 ], [ 47.71497, -20.4358399 ], [ 47.71526, -20.4355999 ], [ 47.71544, -20.4351699 ], [ 47.71562, -20.4348299 ], [ 47.71587, -20.4344599 ], [ 47.71618, -20.4343399 ], [ 47.71646, -20.4343399 ], [ 47.71672, -20.4343399 ], [ 47.71698, -20.4343399 ], [ 47.71722, -20.4343399 ], [ 47.71751, -20.4343399 ], [ 47.71775, -20.4343399 ], [ 47.71801, -20.4343399 ], [ 47.71829, -20.4342299 ], [ 47.7187, -20.4340499 ], [ 47.7188, -20.4338799 ], [ 47.71889, -20.4336999 ], [ 47.71895, -20.4335599 ], [ 47.71922, -20.4329699 ], [ 47.71913, -20.4332199 ], [ 47.71932, -20.4327199 ], [ 47.71956, -20.4326799 ], [ 47.71978, -20.4326799 ], [ 47.72004, -20.4325699 ], [ 47.72028, -20.4325499 ], [ 47.72049, -20.4324099 ], [ 47.72066, -20.4322499 ], [ 47.72078, -20.4320099 ], [ 47.72087, -20.4318099 ], [ 47.72085, -20.4316299 ], [ 47.7208, -20.4313399 ], [ 47.72068, -20.4310199 ], [ 47.72087, -20.4308699 ], [ 47.72092, -20.4306199 ], [ 47.72066, -20.4304399 ], [ 47.7203, -20.4304399 ], [ 47.71997, -20.4304399 ], [ 47.71963, -20.4302199 ], [ 47.71944, -20.4300799 ], [ 47.71921, -20.4298399 ], [ 47.71906, -20.4296099 ], [ 47.7189, -20.4294399 ], [ 47.71875, -20.4291699 ], [ 47.71863, -20.4289399 ], [ 47.7182, -20.4285099 ], [ 47.71803, -20.4281399 ], [ 47.71798, -20.4278699 ], [ 47.71798, -20.4275799 ], [ 47.71786, -20.4273099 ], [ 47.71786, -20.4270599 ], [ 47.71786, -20.4267699 ], [ 47.71786, -20.4265699 ], [ 47.71786, -20.4263199 ], [ 47.71791, -20.4259899 ], [ 47.71784, -20.4257399 ], [ 47.71788, -20.4254699 ], [ 47.71793, -20.4252499 ], [ 47.71784, -20.4248899 ], [ 47.71767, -20.4246399 ], [ 47.7176, -20.4243799 ], [ 47.71748, -20.4241299 ], [ 47.71748, -20.4238799 ], [ 47.71745, -20.4236399 ], [ 47.71745, -20.4234099 ], [ 47.71745, -20.4231199 ], [ 47.71744, -20.4228999 ], [ 47.71739, -20.4226999 ], [ 47.71737, -20.4224899 ], [ 47.71737, -20.4222799 ], [ 47.71737, -20.4221599 ], [ 47.71733, -20.4219799 ], [ 47.71729, -20.4217999 ], [ 47.71729, -20.4216199 ], [ 47.71718, -20.4212599 ], [ 47.71709, -20.4208799 ], [ 47.71706, -20.4205599 ], [ 47.71699, -20.4202199 ], [ 47.71696, -20.4198599 ], [ 47.71696, -20.4195099 ], [ 47.7166, -20.4192999 ], [ 47.7166, -20.4187999 ], [ 47.7166, -20.4185199 ], [ 47.7165, -20.4182699 ], [ 47.71641, -20.4179999 ], [ 47.71633, -20.4177799 ], [ 47.71624, -20.4175399 ], [ 47.7162, -20.4172599 ], [ 47.71612, -20.4170099 ], [ 47.71602, -20.4167399 ], [ 47.71595, -20.4165699 ], [ 47.71592, -20.4163799 ], [ 47.71589, -20.4162099 ], [ 47.71585, -20.4160299 ], [ 47.71581, -20.4158499 ], [ 47.7158, -20.4156899 ], [ 47.71578, -20.4154899 ], [ 47.71576, -20.4153299 ], [ 47.71572, -20.4151899 ], [ 47.71569, -20.4150199 ], [ 47.71567, -20.4148399 ], [ 47.71563, -20.4146399 ], [ 47.71559, -20.4144699 ], [ 47.71558, -20.4141199 ], [ 47.71555, -20.4138099 ] ] ], [ [ [ 47.69329, -20.3229699 ], [ 47.69324, -20.3227799 ], [ 47.69304, -20.3225499 ], [ 47.69211, -20.3223099 ], [ 47.69201, -20.3219599 ], [ 47.69165, -20.3213899 ], [ 47.6919, -20.3209699 ], [ 47.69167, -20.3208999 ], [ 47.69125, -20.3208799 ], [ 47.69117, -20.3211399 ], [ 47.69073, -20.3217399 ], [ 47.69056, -20.3220199 ], [ 47.68958, -20.3222299 ], [ 47.68906, -20.3221899 ], [ 47.68886, -20.3216199 ], [ 47.68799, -20.3212499 ], [ 47.6876, -20.3215599 ], [ 47.68702, -20.3222499 ], [ 47.68637, -20.3227299 ], [ 47.68541, -20.3231299 ], [ 47.68514, -20.3233299 ], [ 47.68491, -20.3236399 ], [ 47.68444, -20.3243199 ], [ 47.68355, -20.3243599 ], [ 47.68238, -20.3250099 ], [ 47.68163, -20.3255599 ], [ 47.68185, -20.3265499 ], [ 47.68225, -20.3267899 ], [ 47.68249, -20.3272299 ], [ 47.68257, -20.3274199 ], [ 47.68258, -20.3274299 ], [ 47.68282, -20.3277199 ], [ 47.6829, -20.3280799 ], [ 47.683, -20.3281499 ], [ 47.68322, -20.3283499 ], [ 47.68349, -20.3287399 ], [ 47.68371, -20.3287399 ], [ 47.68379, -20.3288799 ], [ 47.68397, -20.3290699 ], [ 47.68439, -20.3294699 ], [ 47.68452, -20.3295499 ], [ 47.68475, -20.3298899 ], [ 47.68494, -20.3300599 ], [ 47.68514, -20.3302399 ], [ 47.68575, -20.3304199 ], [ 47.68614, -20.3305299 ], [ 47.68626, -20.3305499 ], [ 47.68651, -20.3312699 ], [ 47.68727, -20.3319299 ], [ 47.68565, -20.3329799 ], [ 47.68556, -20.3334199 ], [ 47.68542, -20.3336899 ], [ 47.68551, -20.3342099 ], [ 47.68514, -20.3345999 ], [ 47.68485, -20.3350699 ], [ 47.68459, -20.3355299 ], [ 47.68439, -20.3359899 ], [ 47.68417, -20.3367199 ], [ 47.68442, -20.3372399 ], [ 47.68361, -20.3374399 ], [ 47.6844, -20.3381099 ], [ 47.68425, -20.3386599 ], [ 47.68388, -20.3392499 ], [ 47.68379, -20.3399499 ], [ 47.68333, -20.3402899 ], [ 47.68295, -20.3404999 ], [ 47.68261, -20.3405799 ], [ 47.6822, -20.3409399 ], [ 47.68178, -20.3417999 ], [ 47.68148, -20.3425599 ], [ 47.68137, -20.3433599 ], [ 47.68091, -20.3439199 ], [ 47.68047, -20.3442399 ], [ 47.67982, -20.3448099 ], [ 47.67925, -20.3454299 ], [ 47.67888, -20.3464799 ], [ 47.67853, -20.3472199 ], [ 47.67833, -20.3475399 ], [ 47.67838, -20.3485099 ], [ 47.67808, -20.3488099 ], [ 47.67836, -20.3498199 ], [ 47.67902, -20.3503399 ], [ 47.69163, -20.3637599 ], [ 47.69186, -20.3614999 ], [ 47.69254, -20.3612799 ], [ 47.69413, -20.3617999 ], [ 47.69692, -20.3627399 ], [ 47.69884, -20.3634899 ], [ 47.69995, -20.3629199 ], [ 47.70017, -20.3624599 ], [ 47.70118, -20.3616899 ], [ 47.70137, -20.3615399 ], [ 47.7014, -20.3612899 ], [ 47.70099, -20.3610199 ], [ 47.70129, -20.3604399 ], [ 47.70221, -20.3598599 ], [ 47.70263, -20.3594199 ], [ 47.70339, -20.3590599 ], [ 47.70408, -20.3587999 ], [ 47.70399, -20.3575299 ], [ 47.70449, -20.3568999 ], [ 47.70493, -20.3558699 ], [ 47.7051, -20.3552599 ], [ 47.70614, -20.3550199 ], [ 47.70624, -20.3550899 ], [ 47.707, -20.3554999 ], [ 47.70744, -20.3541099 ], [ 47.70676, -20.3533999 ], [ 47.70626, -20.3531999 ], [ 47.70616, -20.3527899 ], [ 47.70612, -20.3521699 ], [ 47.70569, -20.3516399 ], [ 47.70566, -20.3511599 ], [ 47.70577, -20.3504699 ], [ 47.70694, -20.3495399 ], [ 47.70707, -20.3490699 ], [ 47.70707, -20.3486099 ], [ 47.70727, -20.3482499 ], [ 47.70768, -20.3477899 ], [ 47.70777, -20.3397699 ], [ 47.70704, -20.3394699 ], [ 47.70652, -20.3387699 ], [ 47.70586, -20.3387399 ], [ 47.70531, -20.3385799 ], [ 47.70508, -20.3376499 ], [ 47.7052, -20.3368899 ], [ 47.7056, -20.3360699 ], [ 47.70598, -20.3353199 ], [ 47.70574, -20.3345499 ], [ 47.70537, -20.3337999 ], [ 47.705, -20.3328799 ], [ 47.70469, -20.3328399 ], [ 47.70404, -20.3325999 ], [ 47.70363, -20.3315999 ], [ 47.70263, -20.3310399 ], [ 47.70211, -20.3301999 ], [ 47.70195, -20.3295799 ], [ 47.70158, -20.3291899 ], [ 47.7012, -20.3283099 ], [ 47.70028, -20.3281599 ], [ 47.69924, -20.3282099 ], [ 47.69893, -20.3278999 ], [ 47.69855, -20.3275899 ], [ 47.69785, -20.3269899 ], [ 47.69764, -20.3264799 ], [ 47.69681, -20.3259599 ], [ 47.69593, -20.3258799 ], [ 47.69599, -20.3255499 ], [ 47.69575, -20.3248299 ], [ 47.69563, -20.3246999 ], [ 47.69529, -20.3245999 ], [ 47.69523, -20.3243899 ], [ 47.69518, -20.3243499 ], [ 47.69516, -20.3243499 ], [ 47.69515, -20.3243199 ], [ 47.69514, -20.3243099 ], [ 47.69513, -20.3242599 ], [ 47.69515, -20.3241899 ], [ 47.69515, -20.3241699 ], [ 47.69516, -20.3241499 ], [ 47.69516, -20.3241199 ], [ 47.69515, -20.3240799 ], [ 47.69514, -20.3240599 ], [ 47.6951, -20.3240299 ], [ 47.69506, -20.3239799 ], [ 47.69503, -20.3239499 ], [ 47.69444, -20.3233399 ], [ 47.69393, -20.3232699 ], [ 47.69348, -20.3231499 ], [ 47.69329, -20.3229699 ] ] ], [ [ [ 47.74707, -20.0781099 ], [ 47.74707, -20.0776299 ], [ 47.74677, -20.0771499 ], [ 47.74636, -20.0767799 ], [ 47.74584, -20.0762099 ], [ 47.74566, -20.0757999 ], [ 47.74575, -20.0752999 ], [ 47.74615, -20.0747699 ], [ 47.7462, -20.0742399 ], [ 47.74637, -20.0737499 ], [ 47.74647, -20.0731899 ], [ 47.74592, -20.0731599 ], [ 47.74547, -20.0730499 ], [ 47.74272, -20.0729599 ], [ 47.74091, -20.0729599 ], [ 47.74038, -20.0730899 ], [ 47.7397, -20.0733999 ], [ 47.73921, -20.0736799 ], [ 47.73923, -20.0739199 ], [ 47.73863, -20.0740999 ], [ 47.73804, -20.0742399 ], [ 47.73746, -20.0742499 ], [ 47.7367, -20.0747399 ], [ 47.73595, -20.0748299 ], [ 47.7358, -20.0752999 ], [ 47.73572, -20.0757299 ], [ 47.73619, -20.0755599 ], [ 47.73627, -20.0760999 ], [ 47.73599, -20.0764999 ], [ 47.73564, -20.0769099 ], [ 47.73545, -20.0773999 ], [ 47.73511, -20.0779799 ], [ 47.73492, -20.0787299 ], [ 47.73453, -20.0794999 ], [ 47.73413, -20.0798799 ], [ 47.73387, -20.0803999 ], [ 47.73382, -20.0808399 ], [ 47.73383, -20.0814699 ], [ 47.73384, -20.0820799 ], [ 47.73362, -20.0824899 ], [ 47.73323, -20.0828299 ], [ 47.73334, -20.0831799 ], [ 47.73298, -20.0831899 ], [ 47.73264, -20.0836299 ], [ 47.73281, -20.0840499 ], [ 47.7332, -20.0842699 ], [ 47.73331, -20.0848499 ], [ 47.73323, -20.0852799 ], [ 47.7331, -20.0856799 ], [ 47.73297, -20.0860099 ], [ 47.73262, -20.0863099 ], [ 47.73237, -20.0867899 ], [ 47.73182, -20.0869599 ], [ 47.73137, -20.0871499 ], [ 47.73087, -20.0872099 ], [ 47.73045, -20.0871999 ], [ 47.73025, -20.0875399 ], [ 47.72995, -20.0878199 ], [ 47.72944, -20.0880499 ], [ 47.72898, -20.0881799 ], [ 47.72878, -20.0884999 ], [ 47.72834, -20.0890499 ], [ 47.72813, -20.0894099 ], [ 47.72831, -20.0897599 ], [ 47.72832, -20.0902199 ], [ 47.72851, -20.0905599 ], [ 47.72811, -20.0908899 ], [ 47.72801, -20.0912599 ], [ 47.72809, -20.0916399 ], [ 47.72842, -20.0918299 ], [ 47.72817, -20.0922799 ], [ 47.72822, -20.0926799 ], [ 47.72847, -20.0930699 ], [ 47.72847, -20.0935899 ], [ 47.72869, -20.0938999 ], [ 47.72899, -20.0942699 ], [ 47.72871, -20.0945999 ], [ 47.72868, -20.0950499 ], [ 47.729, -20.0954999 ], [ 47.72856, -20.0957599 ], [ 47.72794, -20.0957799 ], [ 47.7275, -20.0958199 ], [ 47.72724, -20.0961899 ], [ 47.72736, -20.0965999 ], [ 47.7271, -20.0968699 ], [ 47.72689, -20.0971899 ], [ 47.72686, -20.0976699 ], [ 47.72653, -20.0979899 ], [ 47.72633, -20.0983099 ], [ 47.72622, -20.0987299 ], [ 47.726, -20.0990299 ], [ 47.72613, -20.0994499 ], [ 47.72592, -20.0998999 ], [ 47.726, -20.1004999 ], [ 47.72549, -20.1008799 ], [ 47.72519, -20.1012099 ], [ 47.72509, -20.1015599 ], [ 47.72405, -20.1019199 ], [ 47.72366, -20.1023899 ], [ 47.72339, -20.1027899 ], [ 47.7234, -20.1032699 ], [ 47.72323, -20.1038599 ], [ 47.72313, -20.1043599 ], [ 47.72302, -20.1049399 ], [ 47.72275, -20.1052699 ], [ 47.72321, -20.1056199 ], [ 47.72329, -20.1062699 ], [ 47.72287, -20.1066499 ], [ 47.72273, -20.1071399 ], [ 47.72295, -20.1076099 ], [ 47.72244, -20.1081299 ], [ 47.72249, -20.1086899 ], [ 47.72222, -20.1089199 ], [ 47.72165, -20.1096199 ], [ 47.72131, -20.1100299 ], [ 47.72076, -20.1101999 ], [ 47.72039, -20.1108699 ], [ 47.72006, -20.1111899 ], [ 47.71958, -20.1112899 ], [ 47.71944, -20.1117399 ], [ 47.7192, -20.1121499 ], [ 47.71896, -20.1125499 ], [ 47.71889, -20.1130799 ], [ 47.71877, -20.1135299 ], [ 47.71874, -20.1139699 ], [ 47.7186, -20.1145899 ], [ 47.71862, -20.1150299 ], [ 47.71878, -20.1153599 ], [ 47.71841, -20.1157299 ], [ 47.71794, -20.1161099 ], [ 47.71783, -20.1166799 ], [ 47.71766, -20.1171199 ], [ 47.71749, -20.1175999 ], [ 47.7174, -20.1179299 ], [ 47.71721, -20.1183899 ], [ 47.71692, -20.1187599 ], [ 47.71663, -20.1192399 ], [ 47.71653, -20.1196999 ], [ 47.71655, -20.1197499 ], [ 47.7167, -20.1201899 ], [ 47.71676, -20.1206899 ], [ 47.71693, -20.1211199 ], [ 47.71714, -20.1215199 ], [ 47.71741, -20.1218599 ], [ 47.71759, -20.1222399 ], [ 47.71768, -20.1226099 ], [ 47.7178, -20.1231199 ], [ 47.71822, -20.1231899 ], [ 47.71861, -20.1234999 ], [ 47.71886, -20.1238999 ], [ 47.71934, -20.1242599 ], [ 47.71925, -20.1247699 ], [ 47.71928, -20.1252299 ], [ 47.7196, -20.1256899 ], [ 47.71999, -20.1259999 ], [ 47.72004, -20.1267299 ], [ 47.72001, -20.1269599 ], [ 47.72031, -20.1273799 ], [ 47.72027, -20.1278599 ], [ 47.72038, -20.1282699 ], [ 47.72048, -20.1286799 ], [ 47.72037, -20.1292399 ], [ 47.72087, -20.1294499 ], [ 47.72118, -20.1297999 ], [ 47.72136, -20.1300499 ], [ 47.72155, -20.1299899 ], [ 47.72175, -20.1303899 ], [ 47.72207, -20.1307199 ], [ 47.72205, -20.1311499 ], [ 47.72193, -20.1315499 ], [ 47.72239, -20.1318599 ], [ 47.72289, -20.1320299 ], [ 47.72313, -20.1324099 ], [ 47.72321, -20.1328399 ], [ 47.72361, -20.1331499 ], [ 47.7237, -20.1331499 ], [ 47.7239, -20.1331999 ], [ 47.72436, -20.1329499 ], [ 47.72456, -20.1326799 ], [ 47.72471, -20.1323399 ], [ 47.72483, -20.1322599 ], [ 47.72515, -20.1320799 ], [ 47.72544, -20.1320199 ], [ 47.72582, -20.1321699 ], [ 47.72621, -20.1321599 ], [ 47.72621, -20.1327099 ], [ 47.72636, -20.1330999 ], [ 47.72685, -20.1331799 ], [ 47.72734, -20.1331899 ], [ 47.72766, -20.1333699 ], [ 47.7281, -20.1335899 ], [ 47.72851, -20.1337399 ], [ 47.72895, -20.1340099 ], [ 47.72904, -20.1344699 ], [ 47.72919, -20.1349699 ], [ 47.72958, -20.1353199 ], [ 47.72986, -20.1357399 ], [ 47.73019, -20.1362199 ], [ 47.73027, -20.1367099 ], [ 47.73053, -20.1371199 ], [ 47.73084, -20.1375799 ], [ 47.73123, -20.1379799 ], [ 47.73169, -20.1383099 ], [ 47.73198, -20.1386999 ], [ 47.73201, -20.1392799 ], [ 47.73174, -20.1396799 ], [ 47.73178, -20.1402599 ], [ 47.73214, -20.1406199 ], [ 47.73258, -20.1409899 ], [ 47.73306, -20.1413599 ], [ 47.73357, -20.1415599 ], [ 47.73383, -20.1419199 ], [ 47.73426, -20.1422599 ], [ 47.73465, -20.1425499 ], [ 47.73509, -20.1421999 ], [ 47.73534, -20.1417699 ], [ 47.73572, -20.1421699 ], [ 47.73592, -20.1427099 ], [ 47.73612, -20.1432399 ], [ 47.73636, -20.1436299 ], [ 47.73689, -20.1434699 ], [ 47.73736, -20.1435599 ], [ 47.7377, -20.1431799 ], [ 47.73775, -20.1426199 ], [ 47.73782, -20.1424099 ], [ 47.73821, -20.1420899 ], [ 47.73873, -20.1421699 ], [ 47.73907, -20.1421699 ], [ 47.73946, -20.1424999 ], [ 47.73988, -20.1423399 ], [ 47.74022, -20.1421499 ], [ 47.74063, -20.1424299 ], [ 47.7409, -20.1428599 ], [ 47.74167, -20.1427599 ], [ 47.74185, -20.1428999 ], [ 47.74219, -20.1432199 ], [ 47.7426, -20.1435099 ], [ 47.74311, -20.1437399 ], [ 47.7436, -20.1439199 ], [ 47.74407, -20.1437999 ], [ 47.74442, -20.1437499 ], [ 47.74486, -20.1437199 ], [ 47.7453, -20.1438499 ], [ 47.74565, -20.1440899 ], [ 47.74591, -20.1445399 ], [ 47.74639, -20.1448699 ], [ 47.74661, -20.1452699 ], [ 47.74662, -20.1453199 ], [ 47.74709, -20.1453099 ], [ 47.74755, -20.1450799 ], [ 47.7479, -20.1446799 ], [ 47.74793, -20.1443199 ], [ 47.74797, -20.1439299 ], [ 47.74841, -20.1437299 ], [ 47.74855, -20.1436699 ], [ 47.7488, -20.1432599 ], [ 47.74874, -20.1428799 ], [ 47.74873, -20.1424299 ], [ 47.74867, -20.1419899 ], [ 47.7486, -20.1417499 ], [ 47.74881, -20.1414099 ], [ 47.74907, -20.1409799 ], [ 47.74921, -20.1405099 ], [ 47.74971, -20.1402799 ], [ 47.75023, -20.1402499 ], [ 47.75067, -20.1400999 ], [ 47.75112, -20.1398599 ], [ 47.75154, -20.1395699 ], [ 47.75203, -20.1393899 ], [ 47.75251, -20.1393199 ], [ 47.75299, -20.1395199 ], [ 47.75351, -20.1392499 ], [ 47.75388, -20.1389399 ], [ 47.75423, -20.1386299 ], [ 47.75456, -20.1383599 ], [ 47.75498, -20.1381299 ], [ 47.75551, -20.1379499 ], [ 47.75601, -20.1376999 ], [ 47.75639, -20.1374599 ], [ 47.75681, -20.1372099 ], [ 47.75714, -20.1368999 ], [ 47.75739, -20.1365299 ], [ 47.75766, -20.1361099 ], [ 47.75771, -20.1357499 ], [ 47.7577, -20.1353099 ], [ 47.75782, -20.1348799 ], [ 47.75799, -20.1344099 ], [ 47.75807, -20.1339799 ], [ 47.75814, -20.1335999 ], [ 47.75806, -20.1331599 ], [ 47.75775, -20.1328899 ], [ 47.75748, -20.1324899 ], [ 47.75732, -20.1322899 ], [ 47.75612, -20.1333899 ], [ 47.75636, -20.1329199 ], [ 47.7567, -20.1325099 ], [ 47.75679, -20.1321299 ], [ 47.75691, -20.1320099 ], [ 47.75718, -20.1316699 ], [ 47.75746, -20.1318099 ], [ 47.75752, -20.1315499 ], [ 47.75794, -20.1313299 ], [ 47.75799, -20.1312299 ], [ 47.75832, -20.1311499 ], [ 47.75852, -20.1307699 ], [ 47.75888, -20.1306099 ], [ 47.75906, -20.1302899 ], [ 47.75909, -20.1297799 ], [ 47.75919, -20.1293199 ], [ 47.7592, -20.1289299 ], [ 47.7589, -20.1285499 ], [ 47.75856, -20.1282799 ], [ 47.75831, -20.1278899 ], [ 47.75845, -20.1275099 ], [ 47.75876, -20.1272999 ], [ 47.75894, -20.1268999 ], [ 47.7594, -20.1266899 ], [ 47.7597, -20.1265499 ], [ 47.75986, -20.1263799 ], [ 47.76033, -20.1262099 ], [ 47.76098, -20.1259799 ], [ 47.76125, -20.1256699 ], [ 47.7615, -20.1255199 ], [ 47.76217, -20.1255399 ], [ 47.76201, -20.1252199 ], [ 47.76178, -20.1249299 ], [ 47.76126, -20.1247099 ], [ 47.76064, -20.1244999 ], [ 47.7603, -20.1242099 ], [ 47.75985, -20.1240699 ], [ 47.75951, -20.1237799 ], [ 47.75962, -20.1235099 ], [ 47.7596, -20.1232999 ], [ 47.75953, -20.1228399 ], [ 47.75936, -20.1225199 ], [ 47.75892, -20.1221799 ], [ 47.75873, -20.1216399 ], [ 47.75883, -20.1212099 ], [ 47.75876, -20.1205099 ], [ 47.75867, -20.1199799 ], [ 47.75855, -20.1192299 ], [ 47.75841, -20.1186399 ], [ 47.75857, -20.1182299 ], [ 47.7588, -20.1177599 ], [ 47.759, -20.1172499 ], [ 47.75923, -20.1167699 ], [ 47.75923, -20.1167599 ], [ 47.75961, -20.1163099 ], [ 47.75988, -20.1159099 ], [ 47.76023, -20.1155799 ], [ 47.76035, -20.1150199 ], [ 47.7608, -20.1147499 ], [ 47.76111, -20.1143499 ], [ 47.76137, -20.1138199 ], [ 47.76171, -20.1134899 ], [ 47.7618, -20.1130299 ], [ 47.76176, -20.1124499 ], [ 47.76171, -20.1118199 ], [ 47.7618, -20.1113099 ], [ 47.76214, -20.1109799 ], [ 47.76238, -20.1105099 ], [ 47.76273, -20.1102099 ], [ 47.76284, -20.1096899 ], [ 47.76338, -20.1093999 ], [ 47.76402, -20.1094999 ], [ 47.76463, -20.1095399 ], [ 47.76507, -20.1098799 ], [ 47.76545, -20.1094299 ], [ 47.76557, -20.1089199 ], [ 47.76594, -20.1084799 ], [ 47.76616, -20.1080199 ], [ 47.76633, -20.1075999 ], [ 47.76659, -20.1072199 ], [ 47.76681, -20.1067599 ], [ 47.7671, -20.1062099 ], [ 47.767, -20.1060799 ], [ 47.76712, -20.1056199 ], [ 47.76708, -20.1050899 ], [ 47.76698, -20.1046599 ], [ 47.7665, -20.1044799 ], [ 47.76614, -20.1042099 ], [ 47.76583, -20.1037299 ], [ 47.76556, -20.1032799 ], [ 47.76542, -20.1027599 ], [ 47.76517, -20.1023399 ], [ 47.76513, -20.1017999 ], [ 47.76508, -20.1013399 ], [ 47.76494, -20.1008599 ], [ 47.76492, -20.1004499 ], [ 47.76471, -20.1002999 ], [ 47.76461, -20.0997699 ], [ 47.7646, -20.0993699 ], [ 47.76448, -20.0988199 ], [ 47.76425, -20.0984199 ], [ 47.76434, -20.0978899 ], [ 47.76429, -20.0972299 ], [ 47.76439, -20.0965899 ], [ 47.76451, -20.0961199 ], [ 47.76473, -20.0956499 ], [ 47.76503, -20.0951399 ], [ 47.76533, -20.0947899 ], [ 47.76525, -20.0941899 ], [ 47.76527, -20.0936499 ], [ 47.76524, -20.0930399 ], [ 47.7654, -20.0924199 ], [ 47.76525, -20.0918499 ], [ 47.76519, -20.0917599 ], [ 47.76541, -20.0912099 ], [ 47.76517, -20.0908299 ], [ 47.76507, -20.0902799 ], [ 47.76513, -20.0896999 ], [ 47.76524, -20.0891399 ], [ 47.76518, -20.0886199 ], [ 47.76505, -20.0879399 ], [ 47.76511, -20.0875299 ], [ 47.7651, -20.0872399 ], [ 47.765, -20.0866699 ], [ 47.76481, -20.0863399 ], [ 47.76464, -20.0858899 ], [ 47.76473, -20.0854099 ], [ 47.76497, -20.0850499 ], [ 47.76497, -20.0845399 ], [ 47.76493, -20.0840999 ], [ 47.76494, -20.0836799 ], [ 47.76518, -20.0830999 ], [ 47.76518, -20.0830899 ], [ 47.76525, -20.0826799 ], [ 47.76536, -20.0820399 ], [ 47.76515, -20.0815399 ], [ 47.76498, -20.0810399 ], [ 47.76476, -20.0808899 ], [ 47.7645, -20.0802999 ], [ 47.76466, -20.0798099 ], [ 47.76469, -20.0793199 ], [ 47.76441, -20.0786699 ], [ 47.76428, -20.0781299 ], [ 47.76423, -20.0778799 ], [ 47.76376, -20.0778099 ], [ 47.76332, -20.0776399 ], [ 47.76282, -20.0779399 ], [ 47.76225, -20.0781099 ], [ 47.76153, -20.0781099 ], [ 47.76078, -20.0782499 ], [ 47.75985, -20.0787199 ], [ 47.75889, -20.0789499 ], [ 47.758, -20.0795199 ], [ 47.75714, -20.0797899 ], [ 47.75625, -20.0800599 ], [ 47.75532, -20.0801899 ], [ 47.75399, -20.0799799 ], [ 47.75377, -20.0799899 ], [ 47.75342, -20.0795799 ], [ 47.75292, -20.0797099 ], [ 47.75245, -20.0801099 ], [ 47.75211, -20.0805399 ], [ 47.75155, -20.0806399 ], [ 47.75119, -20.0809499 ], [ 47.75088, -20.0815499 ], [ 47.75039, -20.0818299 ], [ 47.74987, -20.0819599 ], [ 47.74945, -20.0817999 ], [ 47.74918, -20.0813999 ], [ 47.7487, -20.0810199 ], [ 47.74849, -20.0805699 ], [ 47.74857, -20.0800999 ], [ 47.74807, -20.0798699 ], [ 47.74763, -20.0795099 ], [ 47.74761, -20.0794999 ], [ 47.74726, -20.0790699 ], [ 47.74701, -20.0785799 ], [ 47.74707, -20.0781099 ] ] ], [ [ [ 47.69835, -20.0416999 ], [ 47.69827, -20.0416199 ], [ 47.69792, -20.0418999 ], [ 47.69682, -20.0411299 ], [ 47.69535, -20.0409499 ], [ 47.69503, -20.0409599 ], [ 47.69497, -20.0386399 ], [ 47.69596, -20.0385499 ], [ 47.69406, -20.0371199 ], [ 47.69404, -20.0370199 ], [ 47.69391, -20.0369399 ], [ 47.69188, -20.0388919 ], [ 47.69102, -20.0398599 ], [ 47.69091, -20.0399199 ], [ 47.68965, -20.0406199 ], [ 47.68916, -20.0405159 ], [ 47.68903, -20.0406199 ], [ 47.68896, -20.0406999 ], [ 47.68867, -20.0409599 ], [ 47.68856, -20.0411099 ], [ 47.68822, -20.0411669 ], [ 47.68774, -20.0417799 ], [ 47.68254, -20.0426299 ], [ 47.6848, -20.0512699 ], [ 47.68563, -20.0533749 ], [ 47.68671, -20.0583899 ], [ 47.6869, -20.0600899 ], [ 47.68669, -20.0767399 ], [ 47.69151, -20.0766699 ], [ 47.70058, -20.0867599 ], [ 47.70121, -20.0866999 ], [ 47.70203, -20.0862599 ], [ 47.70251, -20.0863399 ], [ 47.70267, -20.0864199 ], [ 47.70274, -20.0841199 ], [ 47.70258, -20.0837199 ], [ 47.70247, -20.0835899 ], [ 47.70412, -20.0778099 ], [ 47.70519, -20.0806899 ], [ 47.70783, -20.0866899 ], [ 47.71056, -20.0917799 ], [ 47.71168, -20.0921599 ], [ 47.7119, -20.0922599 ], [ 47.71192, -20.0922899 ], [ 47.71903, -20.0933399 ], [ 47.72052, -20.0929799 ], [ 47.72126, -20.0926199 ], [ 47.72432, -20.0949699 ], [ 47.72435, -20.0950599 ], [ 47.7267, -20.0927399 ], [ 47.72684, -20.0921199 ], [ 47.72682, -20.0914799 ], [ 47.72794, -20.0888199 ], [ 47.7278, -20.0886499 ], [ 47.72759, -20.0877099 ], [ 47.72777, -20.0861299 ], [ 47.72788, -20.0858299 ], [ 47.72871, -20.0843899 ], [ 47.73056, -20.0827499 ], [ 47.73154, -20.0819799 ], [ 47.73186, -20.0816199 ], [ 47.73229, -20.0807099 ], [ 47.73331, -20.0796699 ], [ 47.73352, -20.0791499 ], [ 47.73333, -20.0789499 ], [ 47.73389, -20.0774299 ], [ 47.73557, -20.0745599 ], [ 47.73579, -20.0744149 ], [ 47.73606, -20.0735999 ], [ 47.73357, -20.0745199 ], [ 47.7282, -20.0776799 ], [ 47.72698, -20.0782699 ], [ 47.7237, -20.0784899 ], [ 47.72386, -20.0739099 ], [ 47.7237, -20.0725399 ], [ 47.72374, -20.0723999 ], [ 47.7238, -20.0722099 ], [ 47.71893, -20.0683499 ], [ 47.71798, -20.0677099 ], [ 47.71596, -20.0672699 ], [ 47.71215, -20.0631399 ], [ 47.71213, -20.0630399 ], [ 47.71141, -20.0611999 ], [ 47.71092, -20.0595899 ], [ 47.71052, -20.0580799 ], [ 47.71147, -20.0564799 ], [ 47.70739, -20.0524899 ], [ 47.70737, -20.0524299 ], [ 47.70738, -20.0523299 ], [ 47.69835, -20.0416999 ] ] ], [ [ [ 47.84931, -20.4552599 ], [ 47.84953, -20.4551299 ], [ 47.84975, -20.4550599 ], [ 47.84998, -20.4550599 ], [ 47.85007, -20.4549999 ], [ 47.84997, -20.4548599 ], [ 47.84968, -20.4544699 ], [ 47.84935, -20.4542299 ], [ 47.84889, -20.4539999 ], [ 47.8487, -20.4538699 ], [ 47.84844, -20.4535499 ], [ 47.84818, -20.4535099 ], [ 47.84771, -20.4534199 ], [ 47.84746, -20.4535399 ], [ 47.847, -20.4536899 ], [ 47.84706, -20.4538099 ], [ 47.84724, -20.4544599 ], [ 47.84721, -20.4547199 ], [ 47.84712, -20.4551299 ], [ 47.84717, -20.4554499 ], [ 47.84714, -20.4556999 ], [ 47.84718, -20.4557899 ], [ 47.84693, -20.4558999 ], [ 47.84646, -20.4559099 ], [ 47.84628, -20.4558499 ], [ 47.84607, -20.4557299 ], [ 47.84544, -20.4555199 ], [ 47.84516, -20.4553699 ], [ 47.84498, -20.4553299 ], [ 47.84469, -20.4554499 ], [ 47.84461, -20.4556299 ], [ 47.84429, -20.4561199 ], [ 47.84422, -20.4563099 ], [ 47.84398, -20.4563699 ], [ 47.84382, -20.4567199 ], [ 47.84363, -20.4569999 ], [ 47.84345, -20.4571999 ], [ 47.84329, -20.4572599 ], [ 47.8431, -20.4576399 ], [ 47.84315, -20.4577399 ], [ 47.8435, -20.4580199 ], [ 47.84349, -20.4582599 ], [ 47.84363, -20.4585399 ], [ 47.84393, -20.4589699 ], [ 47.84386, -20.4593599 ], [ 47.84376, -20.4596299 ], [ 47.84355, -20.4599999 ], [ 47.84333, -20.4601099 ], [ 47.84332, -20.4602599 ], [ 47.84337, -20.4604999 ], [ 47.84323, -20.4609099 ], [ 47.84312, -20.4613999 ], [ 47.84273, -20.4616099 ], [ 47.84251, -20.4618699 ], [ 47.84236, -20.4622299 ], [ 47.842, -20.4624299 ], [ 47.84176, -20.4627699 ], [ 47.84148, -20.4628999 ], [ 47.84122, -20.4627399 ], [ 47.84103, -20.4630199 ], [ 47.84091, -20.4632799 ], [ 47.84085, -20.4631999 ], [ 47.84086, -20.4630699 ], [ 47.8407, -20.4629599 ], [ 47.84047, -20.4630399 ], [ 47.84016, -20.4634899 ], [ 47.83985, -20.4634899 ], [ 47.83975, -20.4637099 ], [ 47.83949, -20.4638199 ], [ 47.83955, -20.4641299 ], [ 47.83945, -20.4642299 ], [ 47.83906, -20.4642499 ], [ 47.83872, -20.4647899 ], [ 47.8386, -20.4648599 ], [ 47.83831, -20.4653899 ], [ 47.8381, -20.4657199 ], [ 47.83765, -20.4661999 ], [ 47.83742, -20.4666499 ], [ 47.83719, -20.4667599 ], [ 47.83647, -20.4668899 ], [ 47.83622, -20.4673099 ], [ 47.83599, -20.4674099 ], [ 47.83614, -20.4680699 ], [ 47.83652, -20.4685299 ], [ 47.83659, -20.4688599 ], [ 47.83635, -20.4694499 ], [ 47.83629, -20.4694899 ], [ 47.83599, -20.4696999 ], [ 47.83582, -20.4700799 ], [ 47.83565, -20.4703699 ], [ 47.83554, -20.4705999 ], [ 47.83531, -20.4708099 ], [ 47.83512, -20.4712399 ], [ 47.83487, -20.4714099 ], [ 47.83464, -20.4717999 ], [ 47.83449, -20.4720899 ], [ 47.83424, -20.4726099 ], [ 47.83406, -20.4728699 ], [ 47.83393, -20.4733299 ], [ 47.83357, -20.4735799 ], [ 47.83326, -20.4737599 ], [ 47.83324, -20.4741299 ], [ 47.83322, -20.4747799 ], [ 47.83297, -20.4750699 ], [ 47.83276, -20.4755099 ], [ 47.83233, -20.4763199 ], [ 47.83226, -20.4764699 ], [ 47.83205, -20.4768599 ], [ 47.8322, -20.4770199 ], [ 47.83194, -20.4774599 ], [ 47.83185, -20.4779999 ], [ 47.8319, -20.4782899 ], [ 47.83181, -20.4786699 ], [ 47.83164, -20.4790399 ], [ 47.83082, -20.4789199 ], [ 47.83053, -20.4785999 ], [ 47.83019, -20.4786299 ], [ 47.82954, -20.4787499 ], [ 47.82934, -20.4784699 ], [ 47.8291, -20.4781599 ], [ 47.82926, -20.4776799 ], [ 47.8293, -20.4774699 ], [ 47.82908, -20.4772799 ], [ 47.82868, -20.4769499 ], [ 47.82831, -20.4768099 ], [ 47.82805, -20.4764699 ], [ 47.82792, -20.4761199 ], [ 47.82768, -20.4758399 ], [ 47.82726, -20.4760299 ], [ 47.82706, -20.4760999 ], [ 47.82676, -20.4763799 ], [ 47.82644, -20.4767999 ], [ 47.82616, -20.4770599 ], [ 47.82605, -20.4774699 ], [ 47.82586, -20.4775399 ], [ 47.82572, -20.4777099 ], [ 47.82548, -20.4777899 ], [ 47.82513, -20.4780599 ], [ 47.82486, -20.4780199 ], [ 47.82447, -20.4778999 ], [ 47.82435, -20.4779299 ], [ 47.82371, -20.4779899 ], [ 47.82357, -20.4779599 ], [ 47.8234, -20.4778399 ], [ 47.8231, -20.4776599 ], [ 47.82293, -20.4775099 ], [ 47.82253, -20.4773199 ], [ 47.82239, -20.4772699 ], [ 47.82217, -20.4772899 ], [ 47.82204, -20.4775399 ], [ 47.82192, -20.4779499 ], [ 47.82165, -20.4783399 ], [ 47.8216, -20.4785199 ], [ 47.82143, -20.4788299 ], [ 47.82109, -20.4790799 ], [ 47.82043, -20.4793099 ], [ 47.81999, -20.4791699 ], [ 47.81933, -20.4790199 ], [ 47.81904, -20.4789799 ], [ 47.8187, -20.4789899 ], [ 47.81843, -20.4789199 ], [ 47.81831, -20.4789199 ], [ 47.81823, -20.4790199 ], [ 47.81815, -20.4793399 ], [ 47.81804, -20.4796699 ], [ 47.81804, -20.4798999 ], [ 47.81792, -20.4802299 ], [ 47.81783, -20.4808199 ], [ 47.81789, -20.4812399 ], [ 47.81801, -20.4815999 ], [ 47.81809, -20.4817499 ], [ 47.8185, -20.4821599 ], [ 47.81878, -20.4834099 ], [ 47.81849, -20.4836099 ], [ 47.81825, -20.4840499 ], [ 47.8179, -20.4847199 ], [ 47.81763, -20.4847999 ], [ 47.81706, -20.4849199 ], [ 47.81686, -20.4849099 ], [ 47.81658, -20.4850599 ], [ 47.81627, -20.4853399 ], [ 47.81567, -20.4858299 ], [ 47.81539, -20.4864499 ], [ 47.81525, -20.4865999 ], [ 47.81514, -20.4869599 ], [ 47.81496, -20.4871099 ], [ 47.81475, -20.4874699 ], [ 47.81434, -20.4882199 ], [ 47.814, -20.4888799 ], [ 47.81368, -20.4892299 ], [ 47.81353, -20.4894299 ], [ 47.81355, -20.4898199 ], [ 47.81369, -20.4900399 ], [ 47.81405, -20.4901199 ], [ 47.8143, -20.4902299 ], [ 47.8145, -20.4904999 ], [ 47.81481, -20.4913299 ], [ 47.81448, -20.4916999 ], [ 47.81422, -20.4918199 ], [ 47.8131, -20.4920699 ], [ 47.81265, -20.4918899 ], [ 47.81226, -20.4920799 ], [ 47.8119, -20.4919799 ], [ 47.81164, -20.4926399 ], [ 47.81127, -20.4929799 ], [ 47.81125, -20.4935899 ], [ 47.81107, -20.4938499 ], [ 47.81087, -20.4943199 ], [ 47.81107, -20.4945299 ], [ 47.81121, -20.4947799 ], [ 47.81125, -20.4957599 ], [ 47.81221, -20.4962199 ], [ 47.81223, -20.4963899 ], [ 47.81216, -20.4966599 ], [ 47.81166, -20.4971499 ], [ 47.81135, -20.4976899 ], [ 47.81176, -20.4977699 ], [ 47.81191, -20.4976599 ], [ 47.81233, -20.4976899 ], [ 47.81275, -20.4977899 ], [ 47.81299, -20.4975599 ], [ 47.81356, -20.4977099 ], [ 47.81468, -20.4982099 ], [ 47.81517, -20.4984499 ], [ 47.81582, -20.4991399 ], [ 47.81578, -20.4997499 ], [ 47.81585, -20.4995999 ], [ 47.81616, -20.4991199 ], [ 47.81656, -20.4990599 ], [ 47.8169, -20.4991699 ], [ 47.81692, -20.4991899 ], [ 47.81769, -20.4994999 ], [ 47.81809, -20.4997699 ], [ 47.81836, -20.5001199 ], [ 47.81895, -20.5003699 ], [ 47.81943, -20.5004899 ], [ 47.81959, -20.5004599 ], [ 47.82025, -20.5004199 ], [ 47.82031, -20.5005099 ], [ 47.82031, -20.5006699 ], [ 47.82015, -20.5010299 ], [ 47.81997, -20.5015599 ], [ 47.82003, -20.5018699 ], [ 47.82003, -20.5022899 ], [ 47.81978, -20.5025499 ], [ 47.81969, -20.5029999 ], [ 47.81941, -20.5032199 ], [ 47.81929, -20.5034699 ], [ 47.81962, -20.5042199 ], [ 47.81958, -20.5052499 ], [ 47.81961, -20.5055699 ], [ 47.81974, -20.5056799 ], [ 47.82042, -20.5059999 ], [ 47.82165, -20.5058799 ], [ 47.82223, -20.5050699 ], [ 47.82278, -20.5049599 ], [ 47.82313, -20.5048399 ], [ 47.82408, -20.5046699 ], [ 47.82447, -20.5047199 ], [ 47.82493, -20.5048499 ], [ 47.8253, -20.5053399 ], [ 47.82562, -20.5058999 ], [ 47.82623, -20.5059599 ], [ 47.82636, -20.5053299 ], [ 47.8265, -20.5049299 ], [ 47.82668, -20.5043699 ], [ 47.82745, -20.5030899 ], [ 47.82771, -20.5022899 ], [ 47.82782, -20.5018999 ], [ 47.82786, -20.5016499 ], [ 47.82841, -20.5016299 ], [ 47.82959, -20.5019999 ], [ 47.83047, -20.5023099 ], [ 47.83177, -20.5029099 ], [ 47.83308, -20.5034499 ], [ 47.83358, -20.5038499 ], [ 47.83403, -20.5038699 ], [ 47.83627, -20.5044699 ], [ 47.83681, -20.5037999 ], [ 47.83742, -20.5019799 ], [ 47.83781, -20.5010299 ], [ 47.83847, -20.5009299 ], [ 47.83857, -20.5003499 ], [ 47.83994, -20.4995399 ], [ 47.84092, -20.4991799 ], [ 47.84223, -20.4987399 ], [ 47.84276, -20.4984999 ], [ 47.84332, -20.4979499 ], [ 47.84332, -20.4976099 ], [ 47.8437, -20.4975199 ], [ 47.84405, -20.4976399 ], [ 47.84538, -20.4975299 ], [ 47.8457, -20.4976999 ], [ 47.8468, -20.4977999 ], [ 47.84774, -20.4970199 ], [ 47.84791, -20.4966799 ], [ 47.84804, -20.4963399 ], [ 47.84809, -20.4959599 ], [ 47.84832, -20.4956499 ], [ 47.84871, -20.4956099 ], [ 47.84894, -20.4955899 ], [ 47.84933, -20.4946899 ], [ 47.84878, -20.4943399 ], [ 47.84882, -20.4941999 ], [ 47.84809, -20.4938599 ], [ 47.84771, -20.4937799 ], [ 47.84833, -20.4926099 ], [ 47.84894, -20.4913199 ], [ 47.84931, -20.4899099 ], [ 47.84868, -20.4896599 ], [ 47.84841, -20.4888299 ], [ 47.84684, -20.4877399 ], [ 47.84696, -20.4868099 ], [ 47.84599, -20.4863999 ], [ 47.84619, -20.4854899 ], [ 47.84636, -20.4836199 ], [ 47.84691, -20.4831099 ], [ 47.84754, -20.4825799 ], [ 47.84797, -20.4817999 ], [ 47.84889, -20.4797799 ], [ 47.84956, -20.4785999 ], [ 47.84909, -20.4778999 ], [ 47.84854, -20.4773299 ], [ 47.84775, -20.4762399 ], [ 47.84789, -20.4758599 ], [ 47.84805, -20.4756599 ], [ 47.84841, -20.4754899 ], [ 47.84868, -20.4754099 ], [ 47.84877, -20.4749099 ], [ 47.84895, -20.4745799 ], [ 47.84905, -20.4743499 ], [ 47.84922, -20.4742499 ], [ 47.84953, -20.4740199 ], [ 47.84965, -20.4736299 ], [ 47.84983, -20.4733799 ], [ 47.8501, -20.4728999 ], [ 47.85034, -20.4725499 ], [ 47.85049, -20.4723399 ], [ 47.85071, -20.4720399 ], [ 47.85074, -20.4719799 ], [ 47.85083, -20.4717199 ], [ 47.85105, -20.4713999 ], [ 47.85127, -20.4712699 ], [ 47.85146, -20.4712999 ], [ 47.85109, -20.4710799 ], [ 47.85086, -20.4709099 ], [ 47.85085, -20.4706999 ], [ 47.851, -20.4704499 ], [ 47.85123, -20.4700599 ], [ 47.85142, -20.4700199 ], [ 47.85156, -20.4698199 ], [ 47.85169, -20.4693899 ], [ 47.85186, -20.4693099 ], [ 47.85194, -20.4692299 ], [ 47.85215, -20.4692299 ], [ 47.85231, -20.4691799 ], [ 47.85264, -20.4690899 ], [ 47.8531, -20.4689099 ], [ 47.8537, -20.4685499 ], [ 47.85379, -20.4684199 ], [ 47.85389, -20.4680799 ], [ 47.8539, -20.4680599 ], [ 47.85394, -20.4677299 ], [ 47.854, -20.4674799 ], [ 47.85384, -20.4670799 ], [ 47.8538, -20.4669599 ], [ 47.85377, -20.4667699 ], [ 47.8538, -20.4665999 ], [ 47.85369, -20.4663599 ], [ 47.85342, -20.4661799 ], [ 47.85319, -20.4659299 ], [ 47.85317, -20.4655199 ], [ 47.85308, -20.4652599 ], [ 47.85294, -20.4649599 ], [ 47.85272, -20.4644599 ], [ 47.85253, -20.4644199 ], [ 47.85211, -20.4643199 ], [ 47.85175, -20.4640799 ], [ 47.85157, -20.4634799 ], [ 47.85141, -20.4633199 ], [ 47.8513, -20.4632299 ], [ 47.85096, -20.4631499 ], [ 47.85085, -20.4628599 ], [ 47.85085, -20.4625999 ], [ 47.85092, -20.4623199 ], [ 47.85121, -20.4621199 ], [ 47.85168, -20.4620299 ], [ 47.85188, -20.4617399 ], [ 47.85194, -20.4615199 ], [ 47.85185, -20.4611099 ], [ 47.85179, -20.4608999 ], [ 47.85162, -20.4609399 ], [ 47.85168, -20.4610299 ], [ 47.85149, -20.4611399 ], [ 47.85141, -20.4611199 ], [ 47.85135, -20.4608799 ], [ 47.85118, -20.4607099 ], [ 47.85092, -20.4606199 ], [ 47.85033, -20.4603299 ], [ 47.85005, -20.4601899 ], [ 47.84992, -20.4601299 ], [ 47.84953, -20.4598999 ], [ 47.8493, -20.4597299 ], [ 47.84928, -20.4595999 ], [ 47.84909, -20.4591999 ], [ 47.84907, -20.4589999 ], [ 47.84919, -20.4587499 ], [ 47.8492, -20.4584299 ], [ 47.84927, -20.4581299 ], [ 47.84937, -20.4579199 ], [ 47.84953, -20.4578299 ], [ 47.84979, -20.4576399 ], [ 47.84985, -20.4573999 ], [ 47.84992, -20.4569299 ], [ 47.85009, -20.4568199 ], [ 47.8499, -20.4565099 ], [ 47.84984, -20.4564699 ], [ 47.84974, -20.4563499 ], [ 47.8495, -20.4561999 ], [ 47.84934, -20.4561199 ], [ 47.84909, -20.4558399 ], [ 47.84914, -20.4553999 ], [ 47.84931, -20.4552599 ] ] ], [ [ [ 47.80598, -20.4506499 ], [ 47.80566, -20.4507399 ], [ 47.80533, -20.4505599 ], [ 47.80496, -20.4504399 ], [ 47.80465, -20.4503099 ], [ 47.80448, -20.4499299 ], [ 47.80436, -20.4495799 ], [ 47.80432, -20.4492399 ], [ 47.80412, -20.4489999 ], [ 47.80371, -20.4485699 ], [ 47.8034, -20.4484399 ], [ 47.80303, -20.4484299 ], [ 47.80278, -20.4484799 ], [ 47.80265, -20.4485199 ], [ 47.80223, -20.4487899 ], [ 47.80167, -20.4494499 ], [ 47.80138, -20.4497199 ], [ 47.80121, -20.4495899 ], [ 47.80072, -20.4498899 ], [ 47.7999, -20.4500899 ], [ 47.79949, -20.4499799 ], [ 47.79872, -20.4496699 ], [ 47.79851, -20.4495399 ], [ 47.7982, -20.4500099 ], [ 47.79714, -20.4497999 ], [ 47.79785, -20.4508599 ], [ 47.79804, -20.4513799 ], [ 47.79763, -20.4522999 ], [ 47.79753, -20.4531099 ], [ 47.79733, -20.4532699 ], [ 47.79697, -20.4533199 ], [ 47.79604, -20.4534799 ], [ 47.79586, -20.4537099 ], [ 47.79531, -20.4543699 ], [ 47.79539, -20.4546599 ], [ 47.79557, -20.4552899 ], [ 47.79579, -20.4560199 ], [ 47.79592, -20.4567499 ], [ 47.79602, -20.4570699 ], [ 47.79605, -20.4575399 ], [ 47.79563, -20.4580399 ], [ 47.79555, -20.4584099 ], [ 47.79686, -20.4596499 ], [ 47.79695, -20.4600499 ], [ 47.79612, -20.4607199 ], [ 47.79557, -20.4610599 ], [ 47.79521, -20.4619499 ], [ 47.79484, -20.4627099 ], [ 47.79512, -20.4630199 ], [ 47.79578, -20.4633399 ], [ 47.79654, -20.4643999 ], [ 47.79703, -20.4647299 ], [ 47.79743, -20.4653299 ], [ 47.79756, -20.4657199 ], [ 47.7972, -20.4660899 ], [ 47.79707, -20.4667399 ], [ 47.79737, -20.4671499 ], [ 47.7977, -20.4676299 ], [ 47.79798, -20.4684399 ], [ 47.79819, -20.4688199 ], [ 47.79843, -20.4692899 ], [ 47.79867, -20.4695299 ], [ 47.79888, -20.4699399 ], [ 47.79901, -20.4702299 ], [ 47.79927, -20.4706399 ], [ 47.79952, -20.4711399 ], [ 47.79932, -20.4715199 ], [ 47.79912, -20.4720999 ], [ 47.79893, -20.4727399 ], [ 47.79926, -20.4730399 ], [ 47.79973, -20.4731699 ], [ 47.80063, -20.4739499 ], [ 47.80138, -20.4740399 ], [ 47.80228, -20.4743699 ], [ 47.80305, -20.4745099 ], [ 47.80384, -20.4744099 ], [ 47.80435, -20.4747299 ], [ 47.80498, -20.4752799 ], [ 47.80556, -20.4756099 ], [ 47.80586, -20.4758599 ], [ 47.80615, -20.4758699 ], [ 47.8066, -20.4761899 ], [ 47.80706, -20.4762199 ], [ 47.8071, -20.4763099 ], [ 47.80703, -20.4757999 ], [ 47.80754, -20.4747699 ], [ 47.80847, -20.4735299 ], [ 47.80843, -20.4730399 ], [ 47.80837, -20.4726299 ], [ 47.80867, -20.4724799 ], [ 47.80899, -20.4722199 ], [ 47.80933, -20.4718499 ], [ 47.80946, -20.4713099 ], [ 47.80965, -20.4709399 ], [ 47.80983, -20.4706799 ], [ 47.81006, -20.4709099 ], [ 47.81046, -20.4708799 ], [ 47.81085, -20.4706099 ], [ 47.81102, -20.4700999 ], [ 47.81137, -20.4694799 ], [ 47.81214, -20.4681399 ], [ 47.81236, -20.4677599 ], [ 47.81213, -20.4677399 ], [ 47.8119, -20.4675799 ], [ 47.81201, -20.4671899 ], [ 47.81186, -20.4665599 ], [ 47.81188, -20.4663599 ], [ 47.81206, -20.4657599 ], [ 47.81229, -20.4655799 ], [ 47.81218, -20.4653299 ], [ 47.81221, -20.4649599 ], [ 47.8123, -20.4647999 ], [ 47.81264, -20.4647299 ], [ 47.81306, -20.4644999 ], [ 47.81308, -20.4640899 ], [ 47.81294, -20.4634699 ], [ 47.81278, -20.4632499 ], [ 47.81252, -20.4626699 ], [ 47.81231, -20.4623899 ], [ 47.81224, -20.4620399 ], [ 47.81225, -20.4617299 ], [ 47.81228, -20.4612499 ], [ 47.81248, -20.4609699 ], [ 47.81232, -20.4607099 ], [ 47.81227, -20.4600899 ], [ 47.81227, -20.4593999 ], [ 47.81213, -20.4592399 ], [ 47.81271, -20.4586699 ], [ 47.81292, -20.4581599 ], [ 47.81325, -20.4577199 ], [ 47.81337, -20.4576099 ], [ 47.81362, -20.4575199 ], [ 47.8141, -20.4572199 ], [ 47.81425, -20.4569499 ], [ 47.81441, -20.4567299 ], [ 47.81453, -20.4564199 ], [ 47.81466, -20.4560499 ], [ 47.81499, -20.4555399 ], [ 47.81549, -20.4550499 ], [ 47.81572, -20.4549699 ], [ 47.81562, -20.4548799 ], [ 47.81543, -20.4545699 ], [ 47.81513, -20.4542899 ], [ 47.81466, -20.4538099 ], [ 47.81417, -20.4531299 ], [ 47.81345, -20.4525699 ], [ 47.81322, -20.4523199 ], [ 47.81232, -20.4517299 ], [ 47.8119, -20.4516599 ], [ 47.81139, -20.4516799 ], [ 47.81072, -20.4515199 ], [ 47.81038, -20.4511799 ], [ 47.81031, -20.4509199 ], [ 47.81018, -20.4507299 ], [ 47.80997, -20.4504699 ], [ 47.80977, -20.4501799 ], [ 47.80952, -20.4499399 ], [ 47.8093, -20.4496999 ], [ 47.809, -20.4494599 ], [ 47.80827, -20.4493399 ], [ 47.8075, -20.4492799 ], [ 47.80725, -20.4494599 ], [ 47.8071, -20.4499599 ], [ 47.8066, -20.4508199 ], [ 47.80598, -20.4506499 ] ] ], [ [ [ 47.75891, -20.1792499 ], [ 47.75878, -20.1791699 ], [ 47.75873, -20.1790999 ], [ 47.75868, -20.1790599 ], [ 47.7586, -20.1789799 ], [ 47.75861, -20.1791099 ], [ 47.75804, -20.1789199 ], [ 47.75777, -20.1792199 ], [ 47.75775, -20.1797699 ], [ 47.75759, -20.1798899 ], [ 47.75743, -20.1803999 ], [ 47.75662, -20.1808299 ], [ 47.75607, -20.1810099 ], [ 47.75594, -20.1808999 ], [ 47.75475, -20.1813199 ], [ 47.754463, -20.1813399 ], [ 47.75406, -20.1814999 ], [ 47.75363, -20.1816599 ], [ 47.75271, -20.1815299 ], [ 47.75198, -20.1814899 ], [ 47.75158, -20.1816299 ], [ 47.75037, -20.1815499 ], [ 47.74992, -20.1807699 ], [ 47.74952, -20.1805199 ], [ 47.74906, -20.1803199 ], [ 47.74866, -20.1799799 ], [ 47.7481, -20.1795599 ], [ 47.74757, -20.1790699 ], [ 47.74683, -20.1793499 ], [ 47.74604, -20.1797399 ], [ 47.74527, -20.1799799 ], [ 47.74503, -20.1800399 ], [ 47.74479, -20.1800599 ], [ 47.7444, -20.1801399 ], [ 47.74408, -20.1802399 ], [ 47.7436, -20.1804499 ], [ 47.74355, -20.1807399 ], [ 47.74383, -20.1810199 ], [ 47.74381, -20.1811599 ], [ 47.74375, -20.1813999 ], [ 47.74338, -20.1817699 ], [ 47.74334, -20.1821299 ], [ 47.74298, -20.1824299 ], [ 47.74254, -20.1836699 ], [ 47.74237, -20.1838799 ], [ 47.74226, -20.1841199 ], [ 47.74124, -20.1830899 ], [ 47.73965, -20.1837199 ], [ 47.73955, -20.1839599 ], [ 47.73824, -20.1851799 ], [ 47.73769, -20.1857799 ], [ 47.73766, -20.1862599 ], [ 47.73758, -20.1867099 ], [ 47.7375, -20.1882399 ], [ 47.73701, -20.1901499 ], [ 47.73663, -20.1904699 ], [ 47.73657, -20.1912299 ], [ 47.73654, -20.1918999 ], [ 47.73616, -20.1925499 ], [ 47.73574, -20.1939399 ], [ 47.73592, -20.1942999 ], [ 47.7363, -20.1949999 ], [ 47.73642, -20.1960699 ], [ 47.73632, -20.1963899 ], [ 47.73689, -20.1971799 ], [ 47.73616, -20.1976399 ], [ 47.73634, -20.1984499 ], [ 47.73578, -20.1989899 ], [ 47.73491, -20.2004299 ], [ 47.73471, -20.2007699 ], [ 47.73468, -20.2008399 ], [ 47.73399, -20.2015199 ], [ 47.73351, -20.2011099 ], [ 47.73236, -20.2007399 ], [ 47.73067, -20.2011499 ], [ 47.73026, -20.2015699 ], [ 47.72987, -20.2020499 ], [ 47.72912, -20.2020299 ], [ 47.72901, -20.2021999 ], [ 47.72905, -20.2024399 ], [ 47.72919, -20.2028799 ], [ 47.72901, -20.2032999 ], [ 47.72935, -20.2046299 ], [ 47.72954, -20.2048299 ], [ 47.72902, -20.2060499 ], [ 47.72913, -20.2065499 ], [ 47.72888, -20.2070799 ], [ 47.72879, -20.2074299 ], [ 47.72903, -20.2081799 ], [ 47.72896, -20.2085699 ], [ 47.72955, -20.2095199 ], [ 47.72971, -20.2101499 ], [ 47.72973, -20.2115299 ], [ 47.72941, -20.2122099 ], [ 47.72927, -20.2137499 ], [ 47.72984, -20.2143999 ], [ 47.73003, -20.2151099 ], [ 47.72918, -20.2163999 ], [ 47.72877, -20.2165999 ], [ 47.72837, -20.2175199 ], [ 47.72713, -20.2178199 ], [ 47.72624, -20.2194499 ], [ 47.72581, -20.2210399 ], [ 47.72607, -20.2218299 ], [ 47.72607, -20.2221299 ], [ 47.72582, -20.2226799 ], [ 47.72629, -20.2232899 ], [ 47.72594, -20.2236999 ], [ 47.72482, -20.2243799 ], [ 47.72468, -20.2253299 ], [ 47.7244, -20.2259099 ], [ 47.72462, -20.2262099 ], [ 47.72462, -20.2267399 ], [ 47.72439, -20.2275899 ], [ 47.72472, -20.2284099 ], [ 47.7239, -20.2293199 ], [ 47.72333, -20.2295899 ], [ 47.72344, -20.2305399 ], [ 47.72283, -20.2309999 ], [ 47.72255, -20.2318999 ], [ 47.72264, -20.2326099 ], [ 47.72249, -20.2328899 ], [ 47.7219, -20.2329099 ], [ 47.72183, -20.2330299 ], [ 47.72147, -20.2330899 ], [ 47.72187, -20.2331399 ], [ 47.72097, -20.2334499 ], [ 47.72024, -20.2335999 ], [ 47.71945, -20.2347199 ], [ 47.71936, -20.2350899 ], [ 47.7192, -20.2353299 ], [ 47.71858, -20.2355199 ], [ 47.7174, -20.2365999 ], [ 47.71767, -20.2368299 ], [ 47.71718, -20.2368599 ], [ 47.71737, -20.2375699 ], [ 47.71696, -20.2379999 ], [ 47.71668, -20.2387999 ], [ 47.71696, -20.2392099 ], [ 47.71658, -20.2395799 ], [ 47.71648, -20.2405499 ], [ 47.71652, -20.2417499 ], [ 47.71789, -20.2419099 ], [ 47.71876, -20.2419199 ], [ 47.71904, -20.2425399 ], [ 47.71936, -20.2429399 ], [ 47.7197, -20.2432699 ], [ 47.71983, -20.2440199 ], [ 47.7198, -20.2441099 ], [ 47.71991, -20.2441699 ], [ 47.72005, -20.2442599 ], [ 47.72013, -20.2442699 ], [ 47.72019, -20.2443699 ], [ 47.72021, -20.2444999 ], [ 47.72025, -20.2445799 ], [ 47.72026, -20.2446199 ], [ 47.72029, -20.2446899 ], [ 47.72038, -20.2447899 ], [ 47.72052, -20.2449099 ], [ 47.72057, -20.2449799 ], [ 47.72067, -20.2450699 ], [ 47.72077, -20.2450999 ], [ 47.72093, -20.2452199 ], [ 47.72104, -20.2452799 ], [ 47.72114, -20.2453299 ], [ 47.72129, -20.2454099 ], [ 47.72143, -20.2454199 ], [ 47.72146, -20.2454899 ], [ 47.72151, -20.2455999 ], [ 47.72154, -20.2456799 ], [ 47.72162, -20.2457599 ], [ 47.72168, -20.2458399 ], [ 47.72164, -20.2459699 ], [ 47.72166, -20.2461199 ], [ 47.72174, -20.2462599 ], [ 47.7218, -20.2463399 ], [ 47.72185, -20.2464599 ], [ 47.72196, -20.2465099 ], [ 47.72207, -20.2465799 ], [ 47.72217, -20.2466299 ], [ 47.72228, -20.2466599 ], [ 47.72238, -20.2466999 ], [ 47.72248, -20.2467199 ], [ 47.72255, -20.2467699 ], [ 47.72266, -20.2468299 ], [ 47.72272, -20.2468699 ], [ 47.72285, -20.2469399 ], [ 47.72289, -20.2470199 ], [ 47.72298, -20.2470999 ], [ 47.72302, -20.2472199 ], [ 47.72306, -20.2472999 ], [ 47.72303, -20.2473699 ], [ 47.72299, -20.2474099 ], [ 47.72301, -20.2474799 ], [ 47.72304, -20.2475499 ], [ 47.72309, -20.2475899 ], [ 47.72315, -20.2476499 ], [ 47.72324, -20.2476199 ], [ 47.7234, -20.2476499 ], [ 47.72355, -20.2477499 ], [ 47.7236, -20.2478799 ], [ 47.72374, -20.2479199 ], [ 47.72385, -20.2479799 ], [ 47.72393, -20.2480399 ], [ 47.72399, -20.2481099 ], [ 47.72406, -20.2482099 ], [ 47.72412, -20.2482599 ], [ 47.72416, -20.2483899 ], [ 47.72419, -20.2485499 ], [ 47.72418, -20.2486599 ], [ 47.72416, -20.2487999 ], [ 47.72416, -20.2488799 ], [ 47.7242, -20.2490099 ], [ 47.72427, -20.2490999 ], [ 47.72432, -20.2491499 ], [ 47.72448, -20.2491799 ], [ 47.72453, -20.2491299 ], [ 47.72469, -20.2491799 ], [ 47.72482, -20.2492399 ], [ 47.72496, -20.2492499 ], [ 47.72504, -20.2492999 ], [ 47.72511, -20.2492799 ], [ 47.7252, -20.2493099 ], [ 47.72532, -20.2492999 ], [ 47.7255, -20.2493199 ], [ 47.72561, -20.2492999 ], [ 47.72568, -20.2493799 ], [ 47.72572, -20.2494999 ], [ 47.72579, -20.2495599 ], [ 47.72588, -20.2495899 ], [ 47.72595, -20.2496099 ], [ 47.72605, -20.2496199 ], [ 47.72613, -20.2496699 ], [ 47.72623, -20.2497499 ], [ 47.72635, -20.2498099 ], [ 47.72649, -20.2499099 ], [ 47.72662, -20.2499199 ], [ 47.72678, -20.2499199 ], [ 47.72687, -20.2500099 ], [ 47.72695, -20.2500899 ], [ 47.72701, -20.2501699 ], [ 47.72713, -20.2501999 ], [ 47.72721, -20.2501999 ], [ 47.72726, -20.2502299 ], [ 47.72734, -20.2502399 ], [ 47.72741, -20.2502599 ], [ 47.72759, -20.2503799 ], [ 47.72766, -20.2504699 ], [ 47.72769, -20.2505399 ], [ 47.72779, -20.2506099 ], [ 47.72786, -20.2506599 ], [ 47.72796, -20.2506999 ], [ 47.7281, -20.2506899 ], [ 47.72822, -20.2506899 ], [ 47.72835, -20.2506799 ], [ 47.72844, -20.2506999 ], [ 47.72851, -20.2507199 ], [ 47.72866, -20.2507499 ], [ 47.72879, -20.2507299 ], [ 47.72888, -20.2507199 ], [ 47.72897, -20.2506799 ], [ 47.72907, -20.2506399 ], [ 47.72914, -20.2505899 ], [ 47.72924, -20.2505299 ], [ 47.72935, -20.2505099 ], [ 47.72947, -20.2504999 ], [ 47.72955, -20.2504999 ], [ 47.72959, -20.2504999 ], [ 47.72972, -20.2505099 ], [ 47.7298, -20.2505299 ], [ 47.72989, -20.2505499 ], [ 47.73003, -20.2506099 ], [ 47.73012, -20.2506399 ], [ 47.73024, -20.2506699 ], [ 47.73029, -20.2506999 ], [ 47.73038, -20.2507899 ], [ 47.73043, -20.2508899 ], [ 47.73056, -20.2509399 ], [ 47.7306, -20.2510299 ], [ 47.73063, -20.2511299 ], [ 47.73066, -20.2512099 ], [ 47.73067, -20.2512399 ], [ 47.73072, -20.2513799 ], [ 47.73078, -20.2514599 ], [ 47.73079, -20.2515199 ], [ 47.73091, -20.2515699 ], [ 47.73094, -20.2515899 ], [ 47.73102, -20.2516399 ], [ 47.73111, -20.2516599 ], [ 47.7312, -20.2517199 ], [ 47.73134, -20.2518199 ], [ 47.73144, -20.2518899 ], [ 47.73147, -20.2519399 ], [ 47.7315, -20.2520199 ], [ 47.73157, -20.2520899 ], [ 47.73165, -20.2521399 ], [ 47.73173, -20.2521599 ], [ 47.73193, -20.2522099 ], [ 47.73202, -20.2522699 ], [ 47.73208, -20.2523199 ], [ 47.73217, -20.2523699 ], [ 47.73231, -20.2523899 ], [ 47.73244, -20.2524099 ], [ 47.7326, -20.2524499 ], [ 47.73266, -20.2524499 ], [ 47.73277, -20.2524499 ], [ 47.73291, -20.2524199 ], [ 47.73299, -20.2524399 ], [ 47.73318, -20.2524199 ], [ 47.73328, -20.2524299 ], [ 47.73341, -20.2524599 ], [ 47.73351, -20.2525199 ], [ 47.73362, -20.2525299 ], [ 47.73373, -20.2525499 ], [ 47.73391, -20.2525899 ], [ 47.734, -20.2526499 ], [ 47.7341, -20.2527399 ], [ 47.7342, -20.2527499 ], [ 47.73429, -20.2527599 ], [ 47.73449, -20.2528599 ], [ 47.73455, -20.2529299 ], [ 47.73471, -20.2529399 ], [ 47.73478, -20.2529399 ], [ 47.73486, -20.2529199 ], [ 47.73491, -20.2529299 ], [ 47.73491, -20.2528899 ], [ 47.73494, -20.2528799 ], [ 47.73507, -20.2528399 ], [ 47.73513, -20.2528399 ], [ 47.73524, -20.2528599 ], [ 47.73531, -20.2528699 ], [ 47.73535, -20.2528199 ], [ 47.73541, -20.2527399 ], [ 47.73551, -20.2526599 ], [ 47.73559, -20.2526099 ], [ 47.73569, -20.2524999 ], [ 47.73577, -20.2524899 ], [ 47.73589, -20.2524799 ], [ 47.73595, -20.2524899 ], [ 47.73606, -20.2524999 ], [ 47.73631, -20.2525399 ], [ 47.73643, -20.2525599 ], [ 47.73652, -20.2525899 ], [ 47.73667, -20.2527199 ], [ 47.73672, -20.2527699 ], [ 47.73682, -20.2528399 ], [ 47.73692, -20.2529199 ], [ 47.73701, -20.2529199 ], [ 47.73708, -20.2529499 ], [ 47.73719, -20.2529699 ], [ 47.73729, -20.2530199 ], [ 47.73737, -20.2530699 ], [ 47.73741, -20.2531699 ], [ 47.73743, -20.2532499 ], [ 47.73741, -20.2533399 ], [ 47.73749, -20.2534499 ], [ 47.73754, -20.2535599 ], [ 47.73762, -20.2536499 ], [ 47.73772, -20.2537299 ], [ 47.73778, -20.2538199 ], [ 47.73785, -20.2538999 ], [ 47.73789, -20.2539599 ], [ 47.73805, -20.2540699 ], [ 47.73813, -20.2540799 ], [ 47.73819, -20.2540899 ], [ 47.7383, -20.2541299 ], [ 47.73843, -20.2542099 ], [ 47.7385, -20.2542499 ], [ 47.73859, -20.2542999 ], [ 47.73868, -20.2542799 ], [ 47.73879, -20.2543499 ], [ 47.73887, -20.2543899 ], [ 47.73896, -20.2544199 ], [ 47.739, -20.2544199 ], [ 47.73909, -20.2544699 ], [ 47.73916, -20.2545099 ], [ 47.73927, -20.2545599 ], [ 47.73935, -20.2545799 ], [ 47.73945, -20.2546099 ], [ 47.73947, -20.2546199 ], [ 47.7395, -20.2546499 ], [ 47.73958, -20.2546899 ], [ 47.73965, -20.2547199 ], [ 47.73971, -20.2547499 ], [ 47.7398, -20.2547799 ], [ 47.73988, -20.2547899 ], [ 47.74, -20.2547799 ], [ 47.74008, -20.2547399 ], [ 47.7402, -20.2546299 ], [ 47.74026, -20.2545599 ], [ 47.7403, -20.2544899 ], [ 47.74035, -20.2543899 ], [ 47.74038, -20.2542999 ], [ 47.74044, -20.2542499 ], [ 47.74052, -20.2541999 ], [ 47.74058, -20.2541999 ], [ 47.7406, -20.2541899 ], [ 47.74065, -20.2541799 ], [ 47.74079, -20.2541999 ], [ 47.74091, -20.2541899 ], [ 47.74104, -20.2541699 ], [ 47.74113, -20.2541199 ], [ 47.74117, -20.2541099 ], [ 47.74123, -20.2540699 ], [ 47.7413, -20.2540599 ], [ 47.74135, -20.2540799 ], [ 47.74155, -20.2540499 ], [ 47.74163, -20.2540999 ], [ 47.74167, -20.2541599 ], [ 47.7417, -20.2542299 ], [ 47.74172, -20.2542799 ], [ 47.74176, -20.2543699 ], [ 47.74176, -20.2544499 ], [ 47.74179, -20.2545299 ], [ 47.74187, -20.2546299 ], [ 47.74189, -20.2546799 ], [ 47.74194, -20.2547099 ], [ 47.74208, -20.2547599 ], [ 47.74215, -20.2547499 ], [ 47.74216, -20.2547599 ], [ 47.74232, -20.2547399 ], [ 47.74243, -20.2547299 ], [ 47.74247, -20.2546999 ], [ 47.74257, -20.2546699 ], [ 47.74264, -20.2546499 ], [ 47.74269, -20.2546199 ], [ 47.7428, -20.2545999 ], [ 47.74292, -20.2545699 ], [ 47.74299, -20.2545299 ], [ 47.74305, -20.2544999 ], [ 47.74313, -20.2544899 ], [ 47.74324, -20.2544799 ], [ 47.74333, -20.2544899 ], [ 47.74339, -20.2545199 ], [ 47.74349, -20.2546099 ], [ 47.74358, -20.2546299 ], [ 47.74364, -20.2546899 ], [ 47.74368, -20.2547499 ], [ 47.74382, -20.2547299 ], [ 47.74389, -20.2546899 ], [ 47.74402, -20.2545899 ], [ 47.74412, -20.2545399 ], [ 47.74421, -20.2545199 ], [ 47.74434, -20.2544399 ], [ 47.74438, -20.2543899 ], [ 47.74452, -20.2542999 ], [ 47.74458, -20.2542699 ], [ 47.74466, -20.2543099 ], [ 47.74477, -20.2543299 ], [ 47.74486, -20.2543299 ], [ 47.74495, -20.2543399 ], [ 47.74507, -20.2543499 ], [ 47.74516, -20.2543299 ], [ 47.74529, -20.2543199 ], [ 47.74538, -20.2542999 ], [ 47.74548, -20.2542999 ], [ 47.74553, -20.2542899 ], [ 47.7456, -20.2542899 ], [ 47.74574, -20.2542899 ], [ 47.74586, -20.2543399 ], [ 47.74608, -20.2543899 ], [ 47.74613, -20.2544099 ], [ 47.7462, -20.2544099 ], [ 47.7463, -20.2543899 ], [ 47.74637, -20.2543899 ], [ 47.74649, -20.2544199 ], [ 47.74656, -20.2544599 ], [ 47.74676, -20.2545299 ], [ 47.74688, -20.2544499 ], [ 47.74698, -20.2543999 ], [ 47.74703, -20.2543699 ], [ 47.74709, -20.2543199 ], [ 47.74717, -20.2542999 ], [ 47.74725, -20.2543099 ], [ 47.74731, -20.2542099 ], [ 47.74849, -20.2526499 ], [ 47.74863, -20.2523399 ], [ 47.74884, -20.2521899 ], [ 47.74921, -20.2518299 ], [ 47.74999, -20.2508399 ], [ 47.75078, -20.2499899 ], [ 47.75127, -20.2489599 ], [ 47.75161, -20.2485099 ], [ 47.75222, -20.2476899 ], [ 47.75341, -20.2469099 ], [ 47.75423, -20.2458399 ], [ 47.75459, -20.2447599 ], [ 47.75546, -20.2436499 ], [ 47.75597, -20.2427799 ], [ 47.75662, -20.2417599 ], [ 47.7567, -20.2404199 ], [ 47.75698, -20.2399299 ], [ 47.75714, -20.2395899 ], [ 47.75721, -20.2395399 ], [ 47.7578, -20.2389099 ], [ 47.75851, -20.2382699 ], [ 47.75927, -20.2374099 ], [ 47.75956, -20.2363099 ], [ 47.76029, -20.2362199 ], [ 47.76097, -20.2362899 ], [ 47.76212, -20.2364899 ], [ 47.76188, -20.2359099 ], [ 47.76157, -20.2346699 ], [ 47.76197, -20.2337399 ], [ 47.76175, -20.2328699 ], [ 47.76219, -20.2315499 ], [ 47.76215, -20.2307499 ], [ 47.76125, -20.2299899 ], [ 47.76069, -20.2289199 ], [ 47.76044, -20.2278199 ], [ 47.758146, -20.2270199 ], [ 47.75854, -20.2260699 ], [ 47.75792, -20.2255399 ], [ 47.75783, -20.2255299 ], [ 47.75767, -20.2253899 ], [ 47.75724, -20.2244099 ], [ 47.75714, -20.2231199 ], [ 47.75728, -20.2211599 ], [ 47.75644, -20.2211299 ], [ 47.75566, -20.2206099 ], [ 47.75507, -20.2205399 ], [ 47.75447, -20.2201999 ], [ 47.75344, -20.2193799 ], [ 47.75182, -20.2194499 ], [ 47.75168, -20.2184999 ], [ 47.75234, -20.2172199 ], [ 47.75327, -20.2160599 ], [ 47.75449, -20.2158999 ], [ 47.75477, -20.2148299 ], [ 47.75519, -20.2148799 ], [ 47.75586, -20.2147499 ], [ 47.75681, -20.2146699 ], [ 47.75806, -20.2146699 ], [ 47.75915, -20.2149599 ], [ 47.76068, -20.2147399 ], [ 47.76176, -20.2144399 ], [ 47.76318, -20.2141799 ], [ 47.7632, -20.2142299 ], [ 47.7645, -20.2143899 ], [ 47.76544, -20.2144899 ], [ 47.76655, -20.2151999 ], [ 47.7677, -20.2151999 ], [ 47.76796, -20.2141499 ], [ 47.76896, -20.2133599 ], [ 47.7701, -20.2133999 ], [ 47.77102, -20.2140999 ], [ 47.77222, -20.2147599 ], [ 47.77335, -20.2141099 ], [ 47.77365, -20.2132399 ], [ 47.77463, -20.2122399 ], [ 47.77533, -20.2111299 ], [ 47.77625, -20.2105499 ], [ 47.77615, -20.2097099 ], [ 47.77579, -20.2086899 ], [ 47.77547, -20.2075399 ], [ 47.77548, -20.2065499 ], [ 47.77544, -20.2051399 ], [ 47.77583, -20.2041499 ], [ 47.77557, -20.2031499 ], [ 47.77533, -20.2020399 ], [ 47.77533, -20.2011199 ], [ 47.77502, -20.2002799 ], [ 47.77565, -20.2000299 ], [ 47.77613, -20.1987199 ], [ 47.7762, -20.1977999 ], [ 47.77646, -20.1967499 ], [ 47.77615, -20.1961899 ], [ 47.77683, -20.1956899 ], [ 47.777, -20.1952999 ], [ 47.77706, -20.1952799 ], [ 47.77711, -20.1952499 ], [ 47.77716, -20.1951899 ], [ 47.77718, -20.1951499 ], [ 47.77729, -20.1949899 ], [ 47.77725, -20.1948999 ], [ 47.77723, -20.1948533 ], [ 47.77722, -20.1948299 ], [ 47.77723, -20.1948332 ], [ 47.77725, -20.1948399 ], [ 47.77723, -20.1948199 ], [ 47.77723, -20.1945499 ], [ 47.77727, -20.1945299 ], [ 47.7773, -20.1944899 ], [ 47.7773, -20.1944799 ], [ 47.77726, -20.1943099 ], [ 47.77726, -20.1941699 ], [ 47.77723, -20.1940299 ], [ 47.77719, -20.1938999 ], [ 47.77701, -20.1937899 ], [ 47.77704, -20.1937999 ], [ 47.77705, -20.1936899 ], [ 47.77701, -20.1936699 ], [ 47.77686, -20.1935699 ], [ 47.77685, -20.1935299 ], [ 47.77676, -20.1934899 ], [ 47.7766, -20.1934199 ], [ 47.77659, -20.1933999 ], [ 47.77654, -20.1933899 ], [ 47.7765, -20.1933399 ], [ 47.77645, -20.1933099 ], [ 47.77643, -20.1932599 ], [ 47.7764, -20.1932299 ], [ 47.77643, -20.1930799 ], [ 47.77637, -20.1929399 ], [ 47.77634, -20.1928699 ], [ 47.77634, -20.1928599 ], [ 47.77633, -20.1928399 ], [ 47.77632, -20.1926599 ], [ 47.77636, -20.1926599 ], [ 47.77645, -20.1925599 ], [ 47.77642, -20.1925099 ], [ 47.77632, -20.1924199 ], [ 47.77627, -20.1923799 ], [ 47.7762, -20.1923499 ], [ 47.77612, -20.1922899 ], [ 47.77607, -20.1922399 ], [ 47.77599, -20.1922199 ], [ 47.77589, -20.1921499 ], [ 47.77583, -20.1920999 ], [ 47.77567, -20.1920299 ], [ 47.77567, -20.1919599 ], [ 47.77566, -20.1919199 ], [ 47.77563, -20.1918599 ], [ 47.7756, -20.1918299 ], [ 47.77549, -20.1916999 ], [ 47.77548, -20.1916399 ], [ 47.77549, -20.1915699 ], [ 47.77544, -20.1914599 ], [ 47.77544, -20.1913499 ], [ 47.77543, -20.1912899 ], [ 47.77538, -20.1911999 ], [ 47.77537, -20.1911199 ], [ 47.77538, -20.1909399 ], [ 47.77537, -20.1908799 ], [ 47.77538, -20.1908499 ], [ 47.77538, -20.1907399 ], [ 47.77538, -20.1906499 ], [ 47.77531, -20.1905299 ], [ 47.77534, -20.1904199 ], [ 47.77532, -20.1903599 ], [ 47.77533, -20.1902899 ], [ 47.77534, -20.1902499 ], [ 47.77533, -20.1901899 ], [ 47.77531, -20.1901099 ], [ 47.77529, -20.1900699 ], [ 47.77525, -20.1900099 ], [ 47.7752, -20.1898299 ], [ 47.77516, -20.1896999 ], [ 47.77519, -20.1896199 ], [ 47.7752, -20.1895199 ], [ 47.7752, -20.1894499 ], [ 47.77519, -20.1893799 ], [ 47.77516, -20.1893499 ], [ 47.77509, -20.1892499 ], [ 47.77501, -20.1891499 ], [ 47.77498, -20.1890499 ], [ 47.77496, -20.1889499 ], [ 47.77492, -20.1888099 ], [ 47.7749, -20.1887099 ], [ 47.77494, -20.1886399 ], [ 47.77498, -20.1885999 ], [ 47.77491, -20.1883999 ], [ 47.7749, -20.1883899 ], [ 47.77484, -20.1883499 ], [ 47.77477, -20.1883299 ], [ 47.77461, -20.1882399 ], [ 47.7746, -20.1882499 ], [ 47.77455, -20.1882399 ], [ 47.7745, -20.1882499 ], [ 47.77441, -20.1881899 ], [ 47.77426, -20.1881099 ], [ 47.77417, -20.1879699 ], [ 47.7742, -20.1879299 ], [ 47.77417, -20.1878799 ], [ 47.77405, -20.1877899 ], [ 47.77395, -20.1877199 ], [ 47.77389, -20.1877099 ], [ 47.77386, -20.1876999 ], [ 47.77382, -20.1876999 ], [ 47.77371, -20.1876899 ], [ 47.77363, -20.1876599 ], [ 47.77355, -20.1876099 ], [ 47.77348, -20.1875899 ], [ 47.77338, -20.1875899 ], [ 47.77335, -20.1875599 ], [ 47.7733, -20.1875299 ], [ 47.77325, -20.1875199 ], [ 47.7732, -20.1874799 ], [ 47.77311, -20.1874599 ], [ 47.77308, -20.1874599 ], [ 47.77302, -20.1874499 ], [ 47.77298, -20.1874299 ], [ 47.77279, -20.1874199 ], [ 47.77271, -20.1874199 ], [ 47.77265, -20.1874499 ], [ 47.77253, -20.1874799 ], [ 47.77245, -20.1875099 ], [ 47.7724, -20.1875199 ], [ 47.77234, -20.1875399 ], [ 47.7723, -20.1874999 ], [ 47.77226, -20.1874999 ], [ 47.77227, -20.1874699 ], [ 47.77211, -20.1874299 ], [ 47.77197, -20.1872899 ], [ 47.77194, -20.1872399 ], [ 47.77178, -20.1872599 ], [ 47.77169, -20.1872399 ], [ 47.77164, -20.1872599 ], [ 47.77155, -20.1872399 ], [ 47.77147, -20.1872299 ], [ 47.7714, -20.1872299 ], [ 47.77127, -20.1872599 ], [ 47.77119, -20.1872899 ], [ 47.77108, -20.1873099 ], [ 47.77102, -20.1873199 ], [ 47.77093, -20.1873399 ], [ 47.77088, -20.1873599 ], [ 47.7708, -20.1873899 ], [ 47.77071, -20.1874099 ], [ 47.77049, -20.1874299 ], [ 47.77043, -20.1874599 ], [ 47.77026, -20.1875499 ], [ 47.77022, -20.1873299 ], [ 47.7702, -20.1872399 ], [ 47.77011, -20.1871699 ], [ 47.77002, -20.1871999 ], [ 47.76968, -20.1872299 ], [ 47.76972, -20.1871299 ], [ 47.76973, -20.1870899 ], [ 47.76963, -20.1870199 ], [ 47.7696, -20.1869999 ], [ 47.76956, -20.1869599 ], [ 47.76944, -20.1868099 ], [ 47.76939, -20.1868199 ], [ 47.76929, -20.1868399 ], [ 47.76918, -20.1868099 ], [ 47.76912, -20.1867499 ], [ 47.76911, -20.1867199 ], [ 47.76905, -20.1866599 ], [ 47.76901, -20.1866099 ], [ 47.76896, -20.1865699 ], [ 47.76886, -20.1864699 ], [ 47.76874, -20.1863099 ], [ 47.76871, -20.1862599 ], [ 47.76869, -20.1861599 ], [ 47.76865, -20.1861199 ], [ 47.76865, -20.1860799 ], [ 47.76858, -20.1860199 ], [ 47.76854, -20.1859999 ], [ 47.76851, -20.1858499 ], [ 47.76844, -20.1858099 ], [ 47.7685, -20.1856099 ], [ 47.76842, -20.1856599 ], [ 47.7684, -20.1856199 ], [ 47.76836, -20.1855799 ], [ 47.76828, -20.1855599 ], [ 47.76834, -20.1854699 ], [ 47.76826, -20.1854699 ], [ 47.76825, -20.1854399 ], [ 47.76823, -20.1852999 ], [ 47.7681, -20.1852099 ], [ 47.76813, -20.1851599 ], [ 47.76777, -20.1851699 ], [ 47.76788, -20.1850899 ], [ 47.76803, -20.1848999 ], [ 47.76793, -20.1848199 ], [ 47.76787, -20.1847799 ], [ 47.76786, -20.1847399 ], [ 47.76786, -20.1847199 ], [ 47.76785, -20.1846799 ], [ 47.76775, -20.1845499 ], [ 47.76771, -20.1844699 ], [ 47.76771, -20.1844099 ], [ 47.76773, -20.1843399 ], [ 47.76768, -20.1842799 ], [ 47.76761, -20.1842299 ], [ 47.76758, -20.1841899 ], [ 47.76744, -20.1841299 ], [ 47.76722, -20.1838699 ], [ 47.76722, -20.1839199 ], [ 47.76718, -20.1838799 ], [ 47.76702, -20.1837999 ], [ 47.76688, -20.1837899 ], [ 47.76678, -20.1837899 ], [ 47.76674, -20.1837199 ], [ 47.76671, -20.1836399 ], [ 47.76669, -20.1835399 ], [ 47.76664, -20.1834799 ], [ 47.76657, -20.1833599 ], [ 47.76651, -20.1832899 ], [ 47.76648, -20.1831299 ], [ 47.76647, -20.1830299 ], [ 47.76645, -20.1829099 ], [ 47.76637, -20.1827999 ], [ 47.76635, -20.1827199 ], [ 47.76632, -20.1826699 ], [ 47.76631, -20.1826399 ], [ 47.76628, -20.1825799 ], [ 47.76626, -20.1825599 ], [ 47.76617, -20.1824599 ], [ 47.76611, -20.1824099 ], [ 47.76607, -20.1823099 ], [ 47.76605, -20.1822299 ], [ 47.76602, -20.1821499 ], [ 47.76599, -20.1820899 ], [ 47.76585, -20.1820499 ], [ 47.76579, -20.1819399 ], [ 47.76582, -20.1818999 ], [ 47.76578, -20.1818699 ], [ 47.7657, -20.1818599 ], [ 47.76561, -20.1818499 ], [ 47.76549, -20.1818099 ], [ 47.7654, -20.1817599 ], [ 47.76533, -20.1816699 ], [ 47.76527, -20.1815999 ], [ 47.76524, -20.1815699 ], [ 47.76518, -20.1815499 ], [ 47.76515, -20.1815099 ], [ 47.76511, -20.1814399 ], [ 47.76503, -20.1813799 ], [ 47.76493, -20.1813299 ], [ 47.76485, -20.1812999 ], [ 47.7648, -20.1812799 ], [ 47.76475, -20.1812699 ], [ 47.76461, -20.1812699 ], [ 47.76459, -20.1812599 ], [ 47.76442, -20.1812099 ], [ 47.76433, -20.1811999 ], [ 47.76429, -20.1812199 ], [ 47.76431, -20.1812599 ], [ 47.76429, -20.1812699 ], [ 47.76395, -20.1813599 ], [ 47.7639, -20.1813299 ], [ 47.7638, -20.1813199 ], [ 47.76376, -20.1813599 ], [ 47.76368, -20.1813399 ], [ 47.76358, -20.1813499 ], [ 47.76348, -20.1813399 ], [ 47.76337, -20.1813299 ], [ 47.76333, -20.1813499 ], [ 47.76324, -20.1812799 ], [ 47.76317, -20.1812199 ], [ 47.76314, -20.1812199 ], [ 47.7631, -20.1811999 ], [ 47.76301, -20.1811399 ], [ 47.76261, -20.1810799 ], [ 47.76243, -20.1812299 ], [ 47.76234, -20.1811199 ], [ 47.7627, -20.1809799 ], [ 47.7627, -20.1809399 ], [ 47.76264, -20.1809399 ], [ 47.76259, -20.1809499 ], [ 47.76249, -20.1809599 ], [ 47.76241, -20.1809799 ], [ 47.76226, -20.1810099 ], [ 47.76218, -20.1809799 ], [ 47.76205, -20.1809899 ], [ 47.76198, -20.1810899 ], [ 47.76183, -20.1810499 ], [ 47.76173, -20.1810299 ], [ 47.76162, -20.1810099 ], [ 47.76147, -20.1809299 ], [ 47.76142, -20.1809499 ], [ 47.76135, -20.1809199 ], [ 47.76118, -20.1807799 ], [ 47.76114, -20.1807599 ], [ 47.76108, -20.1806499 ], [ 47.76103, -20.1805699 ], [ 47.76097, -20.1804999 ], [ 47.76092, -20.1804599 ], [ 47.76084, -20.1804199 ], [ 47.76063, -20.1803299 ], [ 47.76057, -20.1802599 ], [ 47.76055, -20.1801999 ], [ 47.76049, -20.1800999 ], [ 47.76039, -20.1800399 ], [ 47.76034, -20.1799499 ], [ 47.76025, -20.1798599 ], [ 47.76014, -20.1797999 ], [ 47.76001, -20.1797199 ], [ 47.75993, -20.1796799 ], [ 47.7598, -20.1796699 ], [ 47.75969, -20.1796199 ], [ 47.75963, -20.1795699 ], [ 47.75949, -20.1794799 ], [ 47.75943, -20.1794499 ], [ 47.75938, -20.1794399 ], [ 47.75925, -20.1793799 ], [ 47.75911, -20.1793399 ], [ 47.75904, -20.1793299 ], [ 47.75891, -20.1792499 ] ] ], [ [ [ 47.8719, -19.9226399 ], [ 47.87058, -19.9228699 ], [ 47.87022, -19.9220299 ], [ 47.86913, -19.9221599 ], [ 47.86852, -19.9216099 ], [ 47.86796, -19.9211399 ], [ 47.86754, -19.9209599 ], [ 47.86645, -19.9207499 ], [ 47.86499, -19.9208499 ], [ 47.8648, -19.9214899 ], [ 47.86535, -19.9221799 ], [ 47.86525, -19.9226399 ], [ 47.86608, -19.9231099 ], [ 47.86682, -19.9231799 ], [ 47.86681, -19.9241399 ], [ 47.86748, -19.9243199 ], [ 47.86758, -19.9253499 ], [ 47.86693, -19.9263799 ], [ 47.86772, -19.9264699 ], [ 47.86777, -19.9274299 ], [ 47.86748, -19.9282999 ], [ 47.86717, -19.9291299 ], [ 47.86756, -19.9301799 ], [ 47.86747, -19.9310899 ], [ 47.86789, -19.9317299 ], [ 47.86775, -19.9325499 ], [ 47.86739, -19.9333799 ], [ 47.86777, -19.9342299 ], [ 47.86725, -19.9348099 ], [ 47.86736, -19.9355499 ], [ 47.8677, -19.9362899 ], [ 47.86795, -19.9370899 ], [ 47.86763, -19.9372999 ], [ 47.86763, -19.9380599 ], [ 47.86789, -19.9389999 ], [ 47.86807, -19.9398999 ], [ 47.86777, -19.9408299 ], [ 47.86779, -19.9417099 ], [ 47.86812, -19.9425599 ], [ 47.86796, -19.9431799 ], [ 47.86831, -19.9441499 ], [ 47.86865, -19.9450399 ], [ 47.86857, -19.9461799 ], [ 47.86878, -19.9477099 ], [ 47.86984, -19.9489799 ], [ 47.86979, -19.9495699 ], [ 47.86923, -19.9501499 ], [ 47.86935, -19.9505199 ], [ 47.86933, -19.9513099 ], [ 47.86981, -19.9517399 ], [ 47.8696, -19.9526499 ], [ 47.86979, -19.9526099 ], [ 47.86998, -19.9525099 ], [ 47.8702, -19.9527699 ], [ 47.8704, -19.9530399 ], [ 47.87081, -19.9532099 ], [ 47.87087, -19.9534899 ], [ 47.87088, -19.9539799 ], [ 47.87166, -19.9538399 ], [ 47.87209, -19.9533799 ], [ 47.87221, -19.9526699 ], [ 47.87255, -19.9533399 ], [ 47.87288, -19.9535299 ], [ 47.87329, -19.9535099 ], [ 47.87346, -19.9534399 ], [ 47.87368, -19.9534199 ], [ 47.87364, -19.9531099 ], [ 47.87394, -19.9532199 ], [ 47.8739, -19.9527399 ], [ 47.87404, -19.9529099 ], [ 47.87417, -19.9530599 ], [ 47.87434, -19.9530699 ], [ 47.87459, -19.9532599 ], [ 47.87465, -19.9530099 ], [ 47.87464, -19.9528099 ], [ 47.87477, -19.9526099 ], [ 47.87483, -19.9524299 ], [ 47.875, -19.9521599 ], [ 47.8754, -19.9521999 ], [ 47.87546, -19.9519599 ], [ 47.87544, -19.9517299 ], [ 47.87559, -19.9514699 ], [ 47.87622, -19.9515599 ], [ 47.87578, -19.9511999 ], [ 47.87533, -19.9509899 ], [ 47.87479, -19.9506499 ], [ 47.87563, -19.9507299 ], [ 47.87524, -19.9500999 ], [ 47.8755, -19.9497099 ], [ 47.87581, -19.9494899 ], [ 47.87607, -19.9493899 ], [ 47.87623, -19.9491399 ], [ 47.87648, -19.9493499 ], [ 47.87684, -19.9496699 ], [ 47.87686, -19.9499699 ], [ 47.87715, -19.9501599 ], [ 47.87736, -19.9504499 ], [ 47.8776, -19.9511499 ], [ 47.87813, -19.9511199 ], [ 47.87833, -19.9506499 ], [ 47.87832, -19.9504299 ], [ 47.87833, -19.9502099 ], [ 47.87847, -19.9498299 ], [ 47.87872, -19.9493299 ], [ 47.87855, -19.9491799 ], [ 47.87857, -19.9488799 ], [ 47.87872, -19.9483099 ], [ 47.87892, -19.9484999 ], [ 47.87914, -19.9485799 ], [ 47.87928, -19.9487899 ], [ 47.87969, -19.9492699 ], [ 47.87985, -19.9490399 ], [ 47.87979, -19.9486199 ], [ 47.87975, -19.9483699 ], [ 47.87993, -19.9481699 ], [ 47.88011, -19.9479699 ], [ 47.88009, -19.9476599 ], [ 47.87974, -19.9471699 ], [ 47.87962, -19.9466299 ], [ 47.87974, -19.9465699 ], [ 47.87977, -19.9462899 ], [ 47.8798, -19.9458499 ], [ 47.88038, -19.9454299 ], [ 47.88047, -19.9447299 ], [ 47.88094, -19.9441799 ], [ 47.88097, -19.9437599 ], [ 47.88134, -19.9433599 ], [ 47.88155, -19.9428699 ], [ 47.88144, -19.9425599 ], [ 47.88164, -19.9419899 ], [ 47.88168, -19.9413899 ], [ 47.8818, -19.9408499 ], [ 47.88143, -19.9403999 ], [ 47.88066, -19.9402299 ], [ 47.88047, -19.9397499 ], [ 47.88005, -19.9394499 ], [ 47.87962, -19.9395999 ], [ 47.87962, -19.9389799 ], [ 47.87936, -19.9386899 ], [ 47.87935, -19.9381099 ], [ 47.87917, -19.9370699 ], [ 47.87846, -19.9367399 ], [ 47.87827, -19.9358199 ], [ 47.87772, -19.9350099 ], [ 47.87683, -19.9352099 ], [ 47.87618, -19.9339299 ], [ 47.87634, -19.9326599 ], [ 47.87717, -19.9318099 ], [ 47.87706, -19.9313099 ], [ 47.87794, -19.9312199 ], [ 47.87812, -19.9306599 ], [ 47.87877, -19.9300499 ], [ 47.87963, -19.9297899 ], [ 47.87951, -19.9292399 ], [ 47.88034, -19.9286699 ], [ 47.88025, -19.9281399 ], [ 47.88098, -19.9271999 ], [ 47.88073, -19.9265599 ], [ 47.88091, -19.9258999 ], [ 47.88023, -19.9252399 ], [ 47.87958, -19.9240499 ], [ 47.87872, -19.9243499 ], [ 47.87791, -19.9242299 ], [ 47.87708, -19.9234499 ], [ 47.87645, -19.9236399 ], [ 47.87519, -19.9238799 ], [ 47.87415, -19.9230799 ], [ 47.87313, -19.9233899 ], [ 47.8719, -19.9226399 ] ] ], [ [ [ 47.85196, -19.8877999 ], [ 47.85046, -19.8879299 ], [ 47.85111, -19.8874599 ], [ 47.85098, -19.8863899 ], [ 47.85008, -19.8862099 ], [ 47.84932, -19.8863299 ], [ 47.84932, -19.8852399 ], [ 47.84847, -19.8844599 ], [ 47.8479, -19.8857799 ], [ 47.84738, -19.8859099 ], [ 47.84709, -19.8852199 ], [ 47.84626, -19.8850399 ], [ 47.84545, -19.8852199 ], [ 47.8442, -19.8846599 ], [ 47.84334, -19.8852899 ], [ 47.84235, -19.8849499 ], [ 47.84157, -19.8854899 ], [ 47.84062, -19.8847999 ], [ 47.83978, -19.8847399 ], [ 47.83843, -19.8857699 ], [ 47.83754, -19.8855099 ], [ 47.83673, -19.8858899 ], [ 47.83593, -19.8864299 ], [ 47.8353, -19.8864699 ], [ 47.83474, -19.8868499 ], [ 47.83405, -19.8866499 ], [ 47.83324, -19.8863199 ], [ 47.83254, -19.8867599 ], [ 47.83208, -19.8873199 ], [ 47.83203, -19.8882599 ], [ 47.83132, -19.8889099 ], [ 47.83073, -19.8899199 ], [ 47.83112, -19.8908199 ], [ 47.83047, -19.8915999 ], [ 47.83072, -19.8926299 ], [ 47.8304, -19.8936399 ], [ 47.83053, -19.8943299 ], [ 47.82981, -19.8949999 ], [ 47.83006, -19.8958899 ], [ 47.82931, -19.8964299 ], [ 47.82926, -19.8982899 ], [ 47.8296, -19.8990999 ], [ 47.82914, -19.8996099 ], [ 47.82954, -19.9003099 ], [ 47.83023, -19.9013499 ], [ 47.8303, -19.9022299 ], [ 47.83113, -19.9031199 ], [ 47.83099, -19.9041099 ], [ 47.83142, -19.9049599 ], [ 47.83232, -19.9056999 ], [ 47.83206, -19.9066799 ], [ 47.83304, -19.9074399 ], [ 47.83282, -19.9081799 ], [ 47.83334, -19.9090799 ], [ 47.83411, -19.9100499 ], [ 47.83363, -19.9104299 ], [ 47.83384, -19.9115199 ], [ 47.83441, -19.9117699 ], [ 47.83466, -19.9122799 ], [ 47.83417, -19.9131499 ], [ 47.8347, -19.9141099 ], [ 47.83358, -19.9144599 ], [ 47.83418, -19.9156299 ], [ 47.83445, -19.9162199 ], [ 47.83545, -19.9164999 ], [ 47.83412, -19.9172099 ], [ 47.8341, -19.9180299 ], [ 47.83519, -19.9184899 ], [ 47.83528, -19.9191499 ], [ 47.83649, -19.9197299 ], [ 47.83597, -19.9203599 ], [ 47.83668, -19.9212399 ], [ 47.83666, -19.9217699 ], [ 47.83741, -19.9226999 ], [ 47.83858, -19.9225299 ], [ 47.83954, -19.9234899 ], [ 47.84067, -19.9232399 ], [ 47.84157, -19.9248299 ], [ 47.84312, -19.9248299 ], [ 47.8441, -19.9242199 ], [ 47.84431, -19.9256199 ], [ 47.84511, -19.9258399 ], [ 47.84604, -19.9257799 ], [ 47.84656, -19.9258599 ], [ 47.84732, -19.9251399 ], [ 47.84801, -19.9254799 ], [ 47.8488, -19.9251699 ], [ 47.84962, -19.9246399 ], [ 47.84992, -19.9253899 ], [ 47.85091, -19.9255499 ], [ 47.85136, -19.9244499 ], [ 47.85246, -19.9242199 ], [ 47.85291, -19.9256599 ], [ 47.85379, -19.9250599 ], [ 47.85479, -19.9248099 ], [ 47.8553, -19.9239899 ], [ 47.85598, -19.9245399 ], [ 47.85689, -19.9243299 ], [ 47.8578, -19.9243599 ], [ 47.85849, -19.9234699 ], [ 47.85795, -19.9229699 ], [ 47.85854, -19.9224399 ], [ 47.85866, -19.9220399 ], [ 47.85873, -19.9215899 ], [ 47.85843, -19.9209899 ], [ 47.85901, -19.9202699 ], [ 47.85968, -19.9201999 ], [ 47.86028, -19.9203499 ], [ 47.86053, -19.9193299 ], [ 47.86116, -19.9189299 ], [ 47.8615, -19.9182199 ], [ 47.8611, -19.9177099 ], [ 47.86044, -19.9172999 ], [ 47.8611, -19.9166799 ], [ 47.86051, -19.9163599 ], [ 47.86011, -19.9151999 ], [ 47.86075, -19.9147099 ], [ 47.86036, -19.9139699 ], [ 47.86082, -19.9130499 ], [ 47.86052, -19.9124399 ], [ 47.85982, -19.9115799 ], [ 47.86003, -19.9108099 ], [ 47.85944, -19.9101199 ], [ 47.85968, -19.9096199 ], [ 47.85968, -19.9087299 ], [ 47.85894, -19.9084199 ], [ 47.85932, -19.9077999 ], [ 47.8598, -19.9069599 ], [ 47.85965, -19.9063399 ], [ 47.85951, -19.9055799 ], [ 47.85932, -19.9048499 ], [ 47.85975, -19.9040099 ], [ 47.85973, -19.9034699 ], [ 47.85944, -19.9030699 ], [ 47.86001, -19.9025299 ], [ 47.85987, -19.9020199 ], [ 47.85947, -19.9016299 ], [ 47.8593, -19.9008099 ], [ 47.85999, -19.9006999 ], [ 47.85982, -19.9001399 ], [ 47.85963, -19.8995799 ], [ 47.8595, -19.8991399 ], [ 47.85977, -19.8984599 ], [ 47.85923, -19.8979899 ], [ 47.85863, -19.8978999 ], [ 47.85873, -19.8974099 ], [ 47.85814, -19.8969599 ], [ 47.85747, -19.8969199 ], [ 47.85789, -19.8964999 ], [ 47.85861, -19.8958599 ], [ 47.85804, -19.8953499 ], [ 47.8575, -19.8948099 ], [ 47.85749, -19.8945099 ], [ 47.85678, -19.8946099 ], [ 47.85642, -19.8936999 ], [ 47.85701, -19.8934599 ], [ 47.85625, -19.8928999 ], [ 47.85573, -19.8925899 ], [ 47.85589, -19.8921399 ], [ 47.85514, -19.8916599 ], [ 47.85423, -19.8910899 ], [ 47.8548, -19.8905299 ], [ 47.85426, -19.8899699 ], [ 47.85424, -19.8894699 ], [ 47.85433, -19.8886899 ], [ 47.85385, -19.8883799 ], [ 47.85305, -19.8882699 ], [ 47.853, -19.8876399 ], [ 47.85196, -19.8877999 ] ] ], [ [ [ 47.89981, -19.8636999 ], [ 47.9022, -19.8601099 ], [ 47.90108, -19.8571299 ], [ 47.90076, -19.8547199 ], [ 47.89938, -19.8524499 ], [ 47.89838, -19.8499999 ], [ 47.89647, -19.8473999 ], [ 47.8964, -19.8476399 ], [ 47.89623, -19.8480399 ], [ 47.89623, -19.8480799 ], [ 47.89585, -19.8482799 ], [ 47.89565, -19.8482699 ], [ 47.89564, -19.8482699 ], [ 47.89507, -19.8483599 ], [ 47.89491, -19.8482999 ], [ 47.8947, -19.8483499 ], [ 47.89429, -19.8485799 ], [ 47.89407, -19.8489199 ], [ 47.89409, -19.8490599 ], [ 47.89393, -19.8492299 ], [ 47.89368, -19.8494099 ], [ 47.89365, -19.8496999 ], [ 47.89328, -19.8498499 ], [ 47.89298, -19.8500499 ], [ 47.89246, -19.8501799 ], [ 47.89, -19.8507199 ], [ 47.88987, -19.8514299 ], [ 47.89035, -19.8531299 ], [ 47.89323, -19.8558299 ], [ 47.89413, -19.8562599 ], [ 47.89499, -19.8568999 ], [ 47.89359, -19.8574099 ], [ 47.89347, -19.8578299 ], [ 47.8936, -19.8585299 ], [ 47.89318, -19.8586899 ], [ 47.89314, -19.8574999 ], [ 47.89289, -19.8573799 ], [ 47.89196, -19.8576099 ], [ 47.89162, -19.8581199 ], [ 47.89178, -19.8584199 ], [ 47.8917, -19.8589499 ], [ 47.89133, -19.8593399 ], [ 47.8923, -19.8601199 ], [ 47.89176, -19.8603999 ], [ 47.89149, -19.8606799 ], [ 47.8912, -19.8600399 ], [ 47.8907, -19.8601699 ], [ 47.89066, -19.8606799 ], [ 47.88985, -19.8606699 ], [ 47.88966, -19.8610099 ], [ 47.88911, -19.8607399 ], [ 47.88914, -19.8610699 ], [ 47.88918, -19.8615999 ], [ 47.8893, -19.8621199 ], [ 47.88975, -19.8636199 ], [ 47.88865, -19.8639699 ], [ 47.88887, -19.8642699 ], [ 47.88951, -19.8659899 ], [ 47.88874, -19.8664099 ], [ 47.88813, -19.8663599 ], [ 47.88801, -19.8671999 ], [ 47.8876, -19.8675799 ], [ 47.88941, -19.8696799 ], [ 47.88885, -19.8700399 ], [ 47.88793, -19.8700399 ], [ 47.8878, -19.8702099 ], [ 47.88758, -19.8705299 ], [ 47.88754, -19.8708599 ], [ 47.88745, -19.8711799 ], [ 47.88756, -19.8715999 ], [ 47.88748, -19.8723499 ], [ 47.88767, -19.8728899 ], [ 47.88786, -19.8729799 ], [ 47.88782, -19.8732499 ], [ 47.88774, -19.8734699 ], [ 47.88756, -19.8738699 ], [ 47.88734, -19.8743299 ], [ 47.88723, -19.8746899 ], [ 47.88695, -19.8753799 ], [ 47.88678, -19.8760599 ], [ 47.88648, -19.8769799 ], [ 47.88554, -19.8783399 ], [ 47.88609, -19.8789799 ], [ 47.8855, -19.8801399 ], [ 47.88518, -19.8806999 ], [ 47.88473, -19.8820399 ], [ 47.88438, -19.8825799 ], [ 47.88393, -19.8831399 ], [ 47.88422, -19.8839499 ], [ 47.88339, -19.8850899 ], [ 47.88292, -19.8858599 ], [ 47.88289, -19.8859199 ], [ 47.88204, -19.8873699 ], [ 47.88151, -19.8879899 ], [ 47.88041, -19.8893599 ], [ 47.88027, -19.8907199 ], [ 47.88069, -19.8909399 ], [ 47.88117, -19.8912499 ], [ 47.88159, -19.8914599 ], [ 47.88185, -19.8916099 ], [ 47.88217, -19.8919199 ], [ 47.88286, -19.8919399 ], [ 47.88338, -19.8919699 ], [ 47.88375, -19.8919499 ], [ 47.88416, -19.8919999 ], [ 47.88465, -19.8920099 ], [ 47.8854, -19.8918699 ], [ 47.8861, -19.8917899 ], [ 47.88642, -19.8918999 ], [ 47.88755, -19.8919999 ], [ 47.88821, -19.8920299 ], [ 47.8888, -19.8921699 ], [ 47.88918, -19.8921699 ], [ 47.88986, -19.8920899 ], [ 47.89035, -19.8921899 ], [ 47.8906, -19.8923499 ], [ 47.89108, -19.8926299 ], [ 47.89146, -19.8928899 ], [ 47.89173, -19.8932399 ], [ 47.892321, -19.8931999 ], [ 47.89279, -19.8933399 ], [ 47.89325, -19.8939499 ], [ 47.89372, -19.8944099 ], [ 47.89421, -19.8945099 ], [ 47.89499, -19.8948799 ], [ 47.89542, -19.8952099 ], [ 47.89586, -19.8953099 ], [ 47.89619, -19.8953099 ], [ 47.89679, -19.8955599 ], [ 47.89752, -19.8954799 ], [ 47.89798, -19.8959499 ], [ 47.89831, -19.8968999 ], [ 47.89854, -19.8973299 ], [ 47.89867, -19.8975499 ], [ 47.89895, -19.8983099 ], [ 47.89915, -19.8988799 ], [ 47.89997, -19.8992199 ], [ 47.90023, -19.8992699 ], [ 47.90187, -19.8992099 ], [ 47.9025, -19.8989899 ], [ 47.90318, -19.8989999 ], [ 47.9038, -19.8986299 ], [ 47.90466, -19.8982699 ], [ 47.90549, -19.8983399 ], [ 47.90586, -19.8982799 ], [ 47.90641, -19.8982099 ], [ 47.90641, -19.8975399 ], [ 47.90645, -19.8969699 ], [ 47.90677, -19.8965999 ], [ 47.90693, -19.8950999 ], [ 47.90597, -19.8939299 ], [ 47.90438, -19.8924299 ], [ 47.90339, -19.8903599 ], [ 47.90085, -19.8876699 ], [ 47.89917, -19.8842199 ], [ 47.8979, -19.8809299 ], [ 47.89695, -19.8776399 ], [ 47.89695, -19.8749499 ], [ 47.89727, -19.8719599 ], [ 47.89886, -19.8681999 ], [ 47.89981, -19.8636999 ] ] ] ] } }
]
}
