{
"type": "FeatureCollection",
"name": "MDG-5041-2015-boundary_modification-001",
"crs": { "type": "name", "properties": { "name": "urn:ogc:def:crs:OGC:1.3:CRS84" } },
"features": [
{ "type": "Feature", "properties": { }, "geometry": { "type": "Polygon", "coordinates": [ [ [ 45.1338423, -25.5553468 ], [ 45.1339472, -25.5559126 ], [ 45.1341208, -25.5564495 ], [ 45.1340756, -25.5574661 ], [ 45.1338055, -25.5581953 ], [ 45.1338124, -25.5589216 ], [ 45.1340087, -25.5594695 ], [ 45.134131, -25.5598574 ], [ 45.1340524, -25.560244 ], [ 45.1335974, -25.5606279 ], [ 45.133584600000013, -25.5610218 ], [ 45.1334842, -25.5616614 ], [ 45.1330262, -25.5631142 ], [ 45.1323669, -25.5643495 ], [ 45.1320901, -25.5649026 ], [ 45.1319608, -25.5656608 ], [ 45.1316917, -25.56643 ], [ 45.1314706, -25.5679004 ], [ 45.1308355, -25.5696944 ], [ 45.1304783, -25.5703751 ], [ 45.1301758, -25.5709373 ], [ 45.1299728, -25.57216 ], [ 45.130125, -25.5731666 ], [ 45.1303434, -25.5744956 ], [ 45.1303504, -25.5766589 ], [ 45.130613, -25.5782774 ], [ 45.130935, -25.5802055 ], [ 45.131278, -25.5813209 ], [ 45.1324651, -25.5826334 ], [ 45.1332604, -25.5829635 ], [ 45.1341118, -25.5835059 ], [ 45.1345643, -25.5843423 ], [ 45.1349773, -25.5848197 ], [ 45.1350659, -25.585899 ], [ 45.1351574, -25.5866798 ], [ 45.1358524, -25.5878235 ], [ 45.1365288, -25.5884736 ], [ 45.1371042, -25.588728 ], [ 45.137503, -25.5890723 ], [ 45.1376609, -25.5898833 ], [ 45.1381659, -25.5916713 ], [ 45.138502, -25.5927452 ], [ 45.1386913, -25.5939668 ], [ 45.139, -25.5947655 ], [ 45.139098, -25.5953736 ], [ 45.1393681, -25.5960421 ], [ 45.139855, -25.5964343 ], [ 45.1412314, -25.5966937 ], [ 45.1420847, -25.5972273 ], [ 45.1432554, -25.5980889 ], [ 45.1441567, -25.5985747 ], [ 45.14489, -25.5988019 ], [ 45.1458807, -25.5989793 ], [ 45.1468144, -25.5987219 ], [ 45.1478437, -25.5987517 ], [ 45.1493527, -25.5999988 ], [ 45.1502047, -25.600699 ], [ 45.1513359, -25.6009844 ], [ 45.1525172, -25.6014159 ], [ 45.1532197, -25.6018257 ], [ 45.1540202, -25.6023914 ], [ 45.1545988, -25.6028119 ], [ 45.1556839, -25.6033025 ], [ 45.1565026, -25.6034246 ], [ 45.1575316, -25.6033732 ], [ 45.1583653, -25.6036265 ], [ 45.1594652, -25.6039441 ], [ 45.1599009, -25.6044569 ], [ 45.1610553, -25.6045557 ], [ 45.1613599, -25.604958 ], [ 45.161870900000011, -25.6053549 ], [ 45.1619735, -25.6059053 ], [ 45.1625004, -25.6059543 ], [ 45.1638321, -25.6058721 ], [ 45.1656133, -25.6060888 ], [ 45.1674686, -25.6064655 ], [ 45.1685005, -25.6061763 ], [ 45.1691833, -25.6055888 ], [ 45.1702399, -25.6053453 ], [ 45.1717446, -25.6056057 ], [ 45.1733495, -25.6058895 ], [ 45.1740277, -25.6058712 ], [ 45.174958, -25.6057179 ], [ 45.1766915, -25.6057426 ], [ 45.1777162, -25.606237 ], [ 45.1783194, -25.6061726 ], [ 45.179102199999988, -25.6056313 ], [ 45.1800083, -25.6055454 ], [ 45.1808862, -25.6055063 ], [ 45.1822407, -25.6056973 ], [ 45.182816500000015, -25.6059288 ], [ 45.1838435, -25.6062542 ], [ 45.185000599999988, -25.6060113 ], [ 45.1860068, -25.6057902 ], [ 45.1875633, -25.6058458 ], [ 45.1888173, -25.6060589 ], [ 45.1896965, -25.606019 ], [ 45.1903923, -25.6056336 ], [ 45.1918498, -25.6009593 ], [ 45.1930564, -25.5981104 ], [ 45.1962583, -25.5857949 ], [ 45.196145, -25.5847864 ], [ 45.194905, -25.5849384 ], [ 45.1927162, -25.5859227 ], [ 45.1887765, -25.5863007 ], [ 45.188046, -25.5849638 ], [ 45.1847438, -25.5850914 ], [ 45.1797942, -25.5845189 ], [ 45.1754283, -25.583665 ], [ 45.1754922, -25.5831486 ], [ 45.1751475, -25.581962 ], [ 45.174461500000014, -25.5816671 ], [ 45.174185699999988, -25.5798628 ], [ 45.174059, -25.5789507 ], [ 45.174848, -25.5779616 ], [ 45.1751447, -25.5771411 ], [ 45.174175700000013, -25.5758517 ], [ 45.172275, -25.5750734 ], [ 45.1704747, -25.5738796 ], [ 45.168116, -25.5729172 ], [ 45.1662624, -25.5720819 ], [ 45.1637129, -25.5715367 ], [ 45.1623168, -25.5711115 ], [ 45.160831800000011, -25.5705543 ], [ 45.1593687, -25.5701061 ], [ 45.1578377, -25.5699983 ], [ 45.1570125, -25.5690177 ], [ 45.1567953, -25.567639 ], [ 45.1565126, -25.5660526 ], [ 45.1564134, -25.5650403 ], [ 45.1560213, -25.5636847 ], [ 45.1556413, -25.5624999 ], [ 45.155414, -25.5611629 ], [ 45.1549664, -25.560518 ], [ 45.1545185, -25.5598987 ], [ 45.1538599, -25.5587619 ], [ 45.15317910000001, -25.5575273 ], [ 45.1528212, -25.5562924 ], [ 45.1525585, -25.5553205 ], [ 45.1521252, -25.5548754 ], [ 45.1515459, -25.5544844 ], [ 45.1508572, -25.5543307 ], [ 45.1501124, -25.5542834 ], [ 45.149156700000013, -25.5544189 ], [ 45.1482214, -25.5545666 ], [ 45.1470894, -25.5550052 ], [ 45.145893, -25.5554495 ], [ 45.1452215, -25.5561726 ], [ 45.1449268, -25.5567298 ], [ 45.1446879, -25.5571228 ], [ 45.143995800000013, -25.5575128 ], [ 45.1435078, -25.5573286 ], [ 45.1426776, -25.5568789 ], [ 45.1418843, -25.5563473 ], [ 45.1413073, -25.5559651 ], [ 45.1382883, -25.552089 ], [ 45.1361075, -25.5522732 ], [ 45.1338145, -25.5525024 ], [ 45.1335228, -25.5549443 ], [ 45.1338423, -25.5553468 ] ] ] } }
]
}
