{
"type": "FeatureCollection",
"name": "MDG-2310-NODATE-secondary_zoning-001",
"crs": { "type": "name", "properties": { "name": "urn:ogc:def:crs:OGC:1.3:CRS84" } },
"features": [
{ "type": "Feature", "properties": { }, "geometry": { "type": "Polygon", "coordinates": [ [ [ 49.224151799999987, -17.9261814 ], [ 49.2315817, -17.916568 ], [ 49.2472709, -17.9070881 ], [ 49.2474715, -17.9013628 ], [ 49.2401592, -17.8951973 ], [ 49.2269357, -17.8839528 ], [ 49.2171074, -17.8755577 ], [ 49.2171009, -17.8755589 ], [ 49.2103514, -17.8780507 ], [ 49.198898700000015, -17.8796404 ], [ 49.1985261, -17.8850553 ], [ 49.1979761, -17.8933344 ], [ 49.197039400000016, -17.9062651 ], [ 49.1960756, -17.9206202 ], [ 49.1952754, -17.9317123 ], [ 49.2036701, -17.9301288 ], [ 49.220186700000014, -17.9269714 ], [ 49.224151799999987, -17.9261814 ] ] ] } }
]
}
