{
"type": "FeatureCollection",
"name": "MDG-354013-1997-boundary_modification-001",
"crs": { "type": "name", "properties": { "name": "urn:ogc:def:crs:OGC:1.3:CRS84" } },
"features": [
{ "type": "Feature", "properties": { }, "geometry": { "type": "Polygon", "coordinates": [ [ [ 48.8226253, -17.6707169 ], [ 48.8212425, -17.669885 ], [ 48.8217435, -17.6675879 ], [ 48.821755, -17.6650846 ], [ 48.823032399999988, -17.6620527 ], [ 48.8233001, -17.6614172 ], [ 48.8235974, -17.6611129 ], [ 48.8244665, -17.6592394 ], [ 48.8244117, -17.658434 ], [ 48.8241145, -17.6560192 ], [ 48.824049199999983, -17.6544077 ], [ 48.8248914, -17.6514814 ], [ 48.826464099999988, -17.6495844 ], [ 48.8266748, -17.6487757 ], [ 48.8275961, -17.6475212 ], [ 48.8283316, -17.646889 ], [ 48.8287181, -17.6459933 ], [ 48.8286035, -17.6440006 ], [ 48.8238349, -17.6414276 ], [ 48.8225602, -17.6420793 ], [ 48.820764, -17.6434586 ], [ 48.819888500000012, -17.6441904 ], [ 48.8171432, -17.6449787 ], [ 48.8151605, -17.6447138 ], [ 48.8135787, -17.6438811 ], [ 48.8125893, -17.6437012 ], [ 48.8125779, -17.6417999 ], [ 48.8117715, -17.6393253 ], [ 48.8110658, -17.6395034 ], [ 48.809339799999989, -17.6394817 ], [ 48.8085926, -17.6398725 ], [ 48.8071026, -17.6409934 ], [ 48.8060054, -17.6416853 ], [ 48.8056072, -17.6416901 ], [ 48.80414, -17.641156 ], [ 48.8020229, -17.6411706 ], [ 48.8017486, -17.6410149 ], [ 48.8010808, -17.6400911 ], [ 48.800626, -17.6397554 ], [ 48.7997434, -17.6399356 ], [ 48.7992036, -17.6392632 ], [ 48.7988824, -17.6383761 ], [ 48.7990483, -17.6376456 ], [ 48.798908, -17.6369332 ], [ 48.7985463, -17.6363435 ], [ 48.7984938, -17.6357077 ], [ 48.7986325, -17.6348531 ], [ 48.7988182, -17.6337095 ], [ 48.7989349, -17.632181 ], [ 48.799671599999989, -17.6309842 ], [ 48.8011063, -17.6290155 ], [ 48.8015748, -17.6276097 ], [ 48.8020373, -17.6257374 ], [ 48.801752, -17.6242134 ], [ 48.8005383, -17.6227429 ], [ 48.8006142, -17.6217661 ], [ 48.8015588, -17.6196477 ], [ 48.8018204, -17.6192485 ], [ 48.8026478, -17.6182204 ], [ 48.8028985, -17.6174929 ], [ 48.8035542, -17.61647 ], [ 48.8036737, -17.6154503 ], [ 48.8030406, -17.6143972 ], [ 48.8016734, -17.6134793 ], [ 48.8021341, -17.6131874 ], [ 48.8025949, -17.6128955 ], [ 48.8030868, -17.6124442 ], [ 48.8033784, -17.6118997 ], [ 48.803602, -17.6112288 ], [ 48.804125, -17.610618 ], [ 48.8051452, -17.6099694 ], [ 48.8056412, -17.6098362 ], [ 48.8065374, -17.6098573 ], [ 48.8068557, -17.6103693 ], [ 48.8073801, -17.6108655 ], [ 48.8080071, -17.6106035 ], [ 48.8088296, -17.6100527 ], [ 48.8092505, -17.6092521 ], [ 48.809485500000015, -17.6084519 ], [ 48.8098909, -17.6074625 ], [ 48.8105847, -17.6072315 ], [ 48.8108784, -17.6068461 ], [ 48.8108054, -17.6063379 ], [ 48.81089870000001, -17.6058594 ], [ 48.811619799999988, -17.6055524 ], [ 48.8119201, -17.6053063 ], [ 48.8122117, -17.6047618 ], [ 48.81265410000001, -17.6037315 ], [ 48.8128587, -17.6034812 ], [ 48.8141024, -17.6031094 ], [ 48.8145113, -17.6029841 ], [ 48.8151588, -17.6023741 ], [ 48.8159619, -17.6022667 ], [ 48.8170816, -17.6016169 ], [ 48.8170596, -17.6012035 ], [ 48.8174658, -17.6001627 ], [ 48.8189978, -17.5996241 ], [ 48.8197563, -17.5993573 ], [ 48.820076, -17.5984307 ], [ 48.8197624, -17.5974486 ], [ 48.8196609, -17.597131 ], [ 48.8198517, -17.5964923 ], [ 48.8203443, -17.5961046 ], [ 48.8208063, -17.5959081 ], [ 48.8215626, -17.5953899 ], [ 48.8221515, -17.5947464 ], [ 48.822336799999988, -17.5936941 ], [ 48.8222937, -17.5929309 ], [ 48.822382, -17.5920707 ], [ 48.8225997, -17.5909543 ], [ 48.8230222, -17.590281 ], [ 48.8231428, -17.5893568 ], [ 48.8232898, -17.5879953 ], [ 48.8233543, -17.5877632 ], [ 48.8239157, -17.5875655 ], [ 48.8239725, -17.5868329 ], [ 48.8227057, -17.5863708 ], [ 48.8215036, -17.5857807 ], [ 48.821176099999981, -17.5853491 ], [ 48.8207908, -17.5845482 ], [ 48.81994, -17.5832559 ], [ 48.8194005, -17.5822419 ], [ 48.818431, -17.5816808 ], [ 48.8185185, -17.5807569 ], [ 48.8184062, -17.5797718 ], [ 48.8183908, -17.5785946 ], [ 48.8185173, -17.5781158 ], [ 48.817844400000013, -17.5773919 ], [ 48.817035, -17.5763834 ], [ 48.8163343, -17.5760735 ], [ 48.8153237, -17.575582 ], [ 48.8145613, -17.5749492 ], [ 48.8146505, -17.5741526 ], [ 48.814998, -17.5728119 ], [ 48.8154471, -17.5716292 ], [ 48.8150792, -17.5705802 ], [ 48.814758, -17.5696645 ], [ 48.8144454, -17.5690862 ], [ 48.8140084, -17.5681461 ], [ 48.8139698, -17.5670756 ], [ 48.813428, -17.5668801 ], [ 48.8129894, -17.5663126 ], [ 48.8126436, -17.5652348 ], [ 48.812736500000014, -17.5647246 ], [ 48.8127942, -17.5640556 ], [ 48.8128312, -17.5630722 ], [ 48.8127084, -17.562561 ], [ 48.8133059, -17.5625857 ], [ 48.8138685, -17.5624835 ], [ 48.8141969, -17.562225 ], [ 48.8146145, -17.56117 ], [ 48.8146211, -17.5602026 ], [ 48.8148944, -17.5597346 ], [ 48.8153902, -17.5596014 ], [ 48.8160901, -17.5598476 ], [ 48.8166597, -17.5602863 ], [ 48.8171597, -17.5604713 ], [ 48.8176228, -17.5603703 ], [ 48.8186038, -17.5592766 ], [ 48.819537499999988, -17.5596473 ], [ 48.820399, -17.5595733 ], [ 48.8215193, -17.559673 ], [ 48.8218953, -17.5598418 ], [ 48.8226905, -17.5597686 ], [ 48.8230807, -17.5591593 ], [ 48.8234086, -17.558869 ], [ 48.8233029, -17.5583929 ], [ 48.8230595, -17.5575367 ], [ 48.8227408, -17.5570249 ], [ 48.8228833, -17.5567433 ], [ 48.8227399, -17.5559176 ], [ 48.8222542, -17.5552222 ], [ 48.8222942, -17.5548092 ], [ 48.8221839, -17.5539832 ], [ 48.8215056, -17.5531965 ], [ 48.8213323, -17.5522751 ], [ 48.820614700000014, -17.5506608 ], [ 48.8204365, -17.5497083 ], [ 48.8200924, -17.5487577 ], [ 48.8194191, -17.5480021 ], [ 48.8186169, -17.5475344 ], [ 48.8178865, -17.5474795 ], [ 48.8173218, -17.5474226 ], [ 48.8159832, -17.5465158 ], [ 48.8151002, -17.5462081 ], [ 48.8122584, -17.5368229 ], [ 48.8116732, -17.5351752 ], [ 48.8115224, -17.5337768 ], [ 48.8118064, -17.5326597 ], [ 48.8122563, -17.5315405 ], [ 48.8130784, -17.5309898 ], [ 48.8149343, -17.5308721 ], [ 48.8139634, -17.5301837 ], [ 48.8131858, -17.5290474 ], [ 48.8113058, -17.528207 ], [ 48.80967, -17.5264799 ], [ 48.810556700000014, -17.5258011 ], [ 48.8109071, -17.5246832 ], [ 48.8111293, -17.5239168 ], [ 48.8112467, -17.522738 ], [ 48.8109977, -17.5214363 ], [ 48.8112473, -17.5202241 ], [ 48.8115711, -17.5196156 ], [ 48.8123266, -17.5192125 ], [ 48.8130568, -17.5190887 ], [ 48.8135513, -17.5188601 ], [ 48.8140326, -17.5176133 ], [ 48.813136, -17.5175285 ], [ 48.8122163, -17.5169349 ], [ 48.8123843, -17.5145463 ], [ 48.8126684, -17.5134291 ], [ 48.8127116, -17.5116466 ], [ 48.8124638, -17.5104403 ], [ 48.8119905, -17.5097459 ], [ 48.8117452, -17.5087305 ], [ 48.8118672, -17.5079017 ], [ 48.812088100000011, -17.5070399 ], [ 48.812249, -17.5066561 ], [ 48.8116647, -17.505072 ], [ 48.8113286, -17.5047259 ], [ 48.8102772, -17.5029246 ], [ 48.8066749, -17.5000399 ], [ 48.8048089, -17.4984422 ], [ 48.8031077, -17.4971446 ], [ 48.8021583, -17.4985734 ], [ 48.8018622, -17.4993101 ], [ 48.80067360000001, -17.5005362 ], [ 48.7994974, -17.5020452 ], [ 48.7988999, -17.5026691 ], [ 48.7951931, -17.4996336 ], [ 48.7907565, -17.4952867 ], [ 48.787998, -17.4946838 ], [ 48.7865122, -17.494017 ], [ 48.7858238, -17.4919721 ], [ 48.7863647, -17.4904504 ], [ 48.7869797, -17.489201 ], [ 48.7832256, -17.4899497 ], [ 48.7817555, -17.4905047 ], [ 48.7810896, -17.4902193 ], [ 48.780481599999987, -17.4904708 ], [ 48.7798151, -17.4901365 ], [ 48.7790834, -17.490143 ], [ 48.7776182, -17.4896246 ], [ 48.776943, -17.488606 ], [ 48.7762232, -17.4880768 ], [ 48.7758642, -17.4878855 ], [ 48.7742412, -17.4884422 ], [ 48.7739358, -17.4876107 ], [ 48.7732568, -17.4871339 ], [ 48.7725412, -17.4869468 ], [ 48.7712742, -17.4874505 ], [ 48.7706059, -17.4869695 ], [ 48.7701848, -17.485899 ], [ 48.7700699, -17.4848738 ], [ 48.770142, -17.4843911 ], [ 48.7698488, -17.4835078 ], [ 48.769019, -17.4823443 ], [ 48.767986199999989, -17.4812321 ], [ 48.76757, -17.4805526 ], [ 48.7670583, -17.4803631 ], [ 48.766549, -17.480369 ], [ 48.7655965, -17.4803066 ], [ 48.7646566, -17.4797557 ], [ 48.7639933, -17.4796657 ], [ 48.7630809, -17.4800185 ], [ 48.7628337, -17.480608 ], [ 48.7621828, -17.4814954 ], [ 48.760821299999989, -17.4825867 ], [ 48.7591759, -17.4853921 ], [ 48.7575523, -17.4858999 ], [ 48.756951, -17.486689 ], [ 48.7556883, -17.4875347 ], [ 48.7541236, -17.4886771 ], [ 48.7535584, -17.4882927 ], [ 48.7528448, -17.4882521 ], [ 48.7520845, -17.4885542 ], [ 48.7516295, -17.4886966 ], [ 48.7510665, -17.4886149 ], [ 48.7505498, -17.4880343 ], [ 48.7494575, -17.4862384 ], [ 48.7487886, -17.4857084 ], [ 48.7480743, -17.485619 ], [ 48.747572399999989, -17.4862114 ], [ 48.7470848, -17.4862016 ], [ 48.7461936, -17.4859341 ], [ 48.7449259, -17.4863887 ], [ 48.7432053, -17.4872885 ], [ 48.7387638, -17.4844936 ], [ 48.7141289, -17.4904834 ], [ 48.7142438, -17.4917232 ], [ 48.7141901, -17.4927421 ], [ 48.7143918, -17.4933993 ], [ 48.7142395, -17.4940463 ], [ 48.7144167, -17.4949671 ], [ 48.7148604, -17.4959804 ], [ 48.7157806, -17.4967288 ], [ 48.7159924, -17.4973782 ], [ 48.7155979, -17.4984255 ], [ 48.7141782, -17.4989631 ], [ 48.7122757, -17.5014835 ], [ 48.7126929, -17.5030381 ], [ 48.7120959, -17.5034579 ], [ 48.71204, -17.503873 ], [ 48.7123338, -17.5045395 ], [ 48.7124095, -17.5055872 ], [ 48.7130244, -17.5064124 ], [ 48.7130573, -17.5070118 ], [ 48.712530300000012, -17.5073042 ], [ 48.7121217, -17.5077863 ], [ 48.7118091, -17.5093173 ], [ 48.7120878, -17.5103961 ], [ 48.7124289, -17.511156 ], [ 48.7126007, -17.5116314 ], [ 48.7125817, -17.5127772 ], [ 48.712224100000014, -17.5133541 ], [ 48.7123709, -17.5144981 ], [ 48.7128719, -17.5147787 ], [ 48.7130748, -17.5150946 ], [ 48.7138435, -17.5155632 ], [ 48.7143508, -17.516353 ], [ 48.714699199999984, -17.5167428 ], [ 48.7148901, -17.5170469 ], [ 48.7161499, -17.5170006 ], [ 48.7171029, -17.5168536 ], [ 48.717476, -17.5169536 ], [ 48.7184357, -17.5167835 ], [ 48.7190946, -17.5164259 ], [ 48.719855, -17.5162262 ], [ 48.7202423, -17.5162775 ], [ 48.7205537, -17.5164092 ], [ 48.721039800000014, -17.5168173 ], [ 48.7217006, -17.5166188 ], [ 48.7223643, -17.516643 ], [ 48.7224775, -17.5170689 ], [ 48.7228752, -17.5177191 ], [ 48.722796, -17.5181126 ], [ 48.7230525, -17.5186399 ], [ 48.7236183, -17.5187925 ], [ 48.723858, -17.5193944 ], [ 48.7242942, -17.5198031 ], [ 48.7249055, -17.5205241 ], [ 48.7249366, -17.5207822 ], [ 48.7248511, -17.521897 ], [ 48.7249925, -17.5225954 ], [ 48.7247299, -17.5228212 ], [ 48.7241989, -17.5227955 ], [ 48.7237761, -17.5234686 ], [ 48.7239167, -17.5241035 ], [ 48.723572, -17.5242336 ], [ 48.7234896, -17.5244266 ], [ 48.7227163, -17.5243651 ], [ 48.7224639, -17.5246293 ], [ 48.7218997, -17.524604 ], [ 48.7214824, -17.524386 ], [ 48.721121599999989, -17.5247084 ], [ 48.7210956, -17.5252815 ], [ 48.7209696, -17.5258239 ], [ 48.7203727, -17.5258308 ], [ 48.719735, -17.5252335 ], [ 48.7192696, -17.5251434 ], [ 48.7182155, -17.5260209 ], [ 48.7180935, -17.5265889 ], [ 48.717801, -17.5270696 ], [ 48.7172396, -17.5272669 ], [ 48.7167035, -17.5272376 ], [ 48.7163743, -17.527669 ], [ 48.7161862, -17.5279155 ], [ 48.7157243, -17.5281117 ], [ 48.7156138, -17.5284489 ], [ 48.7160434, -17.5290383 ], [ 48.7160792, -17.530227 ], [ 48.7161871, -17.5306522 ], [ 48.7161074, -17.5311611 ], [ 48.7157966, -17.5324777 ], [ 48.7145274, -17.533553 ], [ 48.7143179, -17.5344888 ], [ 48.7134777, -17.5349632 ], [ 48.7133125, -17.5354338 ], [ 48.7137199, -17.5361929 ], [ 48.7146555, -17.5367338 ], [ 48.715194, -17.5373641 ], [ 48.7169871, -17.5375132 ], [ 48.7174357, -17.5380172 ], [ 48.7183707, -17.5385157 ], [ 48.7188245, -17.5394439 ], [ 48.7206988, -17.5407802 ], [ 48.7223082, -17.5421619 ], [ 48.7225431, -17.5432624 ], [ 48.7234398, -17.544228 ], [ 48.7244797, -17.5460405 ], [ 48.7243608, -17.547145 ], [ 48.7246786, -17.5479054 ], [ 48.7250528, -17.5494283 ], [ 48.7256653, -17.550232 ], [ 48.7258706, -17.5511585 ], [ 48.7260976, -17.5516226 ], [ 48.7265531, -17.5526781 ], [ 48.7264705, -17.5531458 ], [ 48.7262776, -17.5549299 ], [ 48.7263181, -17.5558398 ], [ 48.7261618, -17.5567559 ], [ 48.726173, -17.5576468 ], [ 48.7266632, -17.5579382 ], [ 48.726718, -17.5587862 ], [ 48.727164, -17.559078 ], [ 48.7249127, -17.5594434 ], [ 48.7219963, -17.5603713 ], [ 48.7196327, -17.5617009 ], [ 48.7162862, -17.5639752 ], [ 48.7137125, -17.5641038 ], [ 48.712916899999989, -17.5646628 ], [ 48.7121599, -17.565258 ], [ 48.7116036, -17.5666209 ], [ 48.7111154, -17.567323 ], [ 48.7100168, -17.5681055 ], [ 48.7092566, -17.5684441 ], [ 48.7082111, -17.5687209 ], [ 48.707431799999988, -17.5692349 ], [ 48.7070173, -17.5697162 ], [ 48.7056493, -17.5703551 ], [ 48.7052722, -17.5707627 ], [ 48.7047726, -17.5705484 ], [ 48.703395, -17.5704175 ], [ 48.7026859, -17.5700728 ], [ 48.7016603, -17.5692275 ], [ 48.7007445, -17.5693479 ], [ 48.7004093, -17.5690747 ], [ 48.699319, -17.5685966 ], [ 48.6993355, -17.5697672 ], [ 48.6986585, -17.5706548 ], [ 48.6974038, -17.5711824 ], [ 48.6962204, -17.5713058 ], [ 48.6957608, -17.5716789 ], [ 48.6953501, -17.5720123 ], [ 48.6946626, -17.5720568 ], [ 48.6940962, -17.5726131 ], [ 48.6943326, -17.5742319 ], [ 48.6946957, -17.5747327 ], [ 48.6948322, -17.5756899 ], [ 48.6954922, -17.5768794 ], [ 48.6954095, -17.5773471 ], [ 48.6952099, -17.579089 ], [ 48.6913523, -17.5855398 ], [ 48.6809453, -17.6064171 ], [ 48.6746353, -17.6130436 ], [ 48.6746771, -17.6137432 ], [ 48.6744175, -17.6142235 ], [ 48.673791799999989, -17.6146124 ], [ 48.6728038, -17.6152282 ], [ 48.6720106, -17.6154917 ], [ 48.6715037, -17.6147584 ], [ 48.6710725, -17.6147704 ], [ 48.6701845, -17.6154168 ], [ 48.670122799999987, -17.6157994 ], [ 48.6702676, -17.6167843 ], [ 48.6705065, -17.6173226 ], [ 48.6704743, -17.6177693 ], [ 48.6706548, -17.6185938 ], [ 48.670892499999987, -17.6190366 ], [ 48.6607089, -17.623479 ], [ 48.6575658, -17.6215413 ], [ 48.656546, -17.6209163 ], [ 48.6538061, -17.6193876 ], [ 48.6535688, -17.6189766 ], [ 48.6535537, -17.6177356 ], [ 48.6533484, -17.6172288 ], [ 48.6520277, -17.6165682 ], [ 48.6516731, -17.6159109 ], [ 48.6517009, -17.6154651 ], [ 48.6510018, -17.615282 ], [ 48.6499053, -17.6151669 ], [ 48.649813, -17.6157726 ], [ 48.6494562, -17.6164449 ], [ 48.6495019, -17.6177469 ], [ 48.649582, -17.6186074 ], [ 48.6492868, -17.6188971 ], [ 48.6489567, -17.6193729 ], [ 48.6487772, -17.6206531 ], [ 48.649039099999989, -17.6212515 ], [ 48.6489354, -17.6227516 ], [ 48.6490816, -17.6238638 ], [ 48.6494012, -17.6255787 ], [ 48.6501327, -17.6256978 ], [ 48.6513489, -17.6260979 ], [ 48.6519228, -17.6296238 ], [ 48.6518384, -17.6336026 ], [ 48.6519118, -17.6350707 ], [ 48.6521607, -17.6355402 ], [ 48.6529422, -17.6360481 ], [ 48.6533681, -17.6365768 ], [ 48.6544058, -17.6372971 ], [ 48.6551893, -17.637573 ], [ 48.6556398, -17.6377925 ], [ 48.6558127, -17.6383633 ], [ 48.6562143, -17.6394047 ], [ 48.656767099999989, -17.6404211 ], [ 48.6570083, -17.6411503 ], [ 48.6570848, -17.6419769 ], [ 48.6573636, -17.6425445 ], [ 48.657666, -17.6433705 ], [ 48.6577318, -17.6460429 ], [ 48.6586518, -17.6466598 ], [ 48.6595054, -17.6472323 ], [ 48.6607716, -17.6476317 ], [ 48.661666, -17.6474944 ], [ 48.6617941, -17.6471111 ], [ 48.6628276, -17.6474813 ], [ 48.6637263, -17.647694 ], [ 48.6642113, -17.6479689 ], [ 48.664727, -17.6480964 ], [ 48.6647753, -17.649337 ], [ 48.6642833, -17.6525247 ], [ 48.6646886, -17.653093 ], [ 48.6648008, -17.6535042 ], [ 48.664744, -17.6549062 ], [ 48.665413900000011, -17.6554079 ], [ 48.6666587, -17.6567622 ], [ 48.6668896, -17.657311 ], [ 48.6672326, -17.6575513 ], [ 48.6678429, -17.6585946 ], [ 48.6681661, -17.6605957 ], [ 48.6686718, -17.6612265 ], [ 48.6688818, -17.661815 ], [ 48.6694527, -17.6626497 ], [ 48.6689623, -17.6632598 ], [ 48.668247199999989, -17.6654935 ], [ 48.6682317, -17.6659411 ], [ 48.6684687, -17.6663203 ], [ 48.6691376, -17.6667265 ], [ 48.6699127, -17.6676724 ], [ 48.6700943, -17.6689432 ], [ 48.6702031, -17.6701152 ], [ 48.6710283, -17.6720195 ], [ 48.6711415, -17.6728764 ], [ 48.6714473, -17.6737013 ], [ 48.6714255, -17.6746244 ], [ 48.6711508, -17.6752321 ], [ 48.671125, -17.675837 ], [ 48.6712539, -17.6763462 ], [ 48.6712703, -17.6768537 ], [ 48.6709759, -17.6772071 ], [ 48.6701508, -17.6775983 ], [ 48.6697908, -17.678016 ], [ 48.6695276, -17.6782099 ], [ 48.669269799999988, -17.6788493 ], [ 48.6691777, -17.6794549 ], [ 48.669416299999988, -17.6799614 ], [ 48.6698185, -17.6802751 ], [ 48.670161, -17.6811304 ], [ 48.6697767, -17.6822803 ], [ 48.669341399999986, -17.6829231 ], [ 48.6693574, -17.6832716 ], [ 48.6689946, -17.6834666 ], [ 48.6680984, -17.6834767 ], [ 48.6678478, -17.683561 ], [ 48.667442, -17.6840887 ], [ 48.6676505, -17.6848501 ], [ 48.668139, -17.6867858 ], [ 48.668576, -17.6872263 ], [ 48.6694105, -17.6875988 ], [ 48.6697468, -17.687945 ], [ 48.6696937, -17.6890276 ], [ 48.6698443, -17.6907581 ], [ 48.6707368, -17.6928663 ], [ 48.6710265, -17.6931168 ], [ 48.6712098, -17.6935292 ], [ 48.6719081, -17.6939687 ], [ 48.6720486, -17.6942516 ], [ 48.6726237, -17.6947083 ], [ 48.6733518, -17.694937 ], [ 48.6735241, -17.6954442 ], [ 48.6736122, -17.6958568 ], [ 48.6732486, -17.6959882 ], [ 48.672917, -17.6960238 ], [ 48.672623, -17.696409 ], [ 48.6724352, -17.697334 ], [ 48.6720802, -17.6981654 ], [ 48.6708841, -17.6981002 ], [ 48.670456, -17.6983747 ], [ 48.6705282, -17.6988512 ], [ 48.6707977, -17.6991663 ], [ 48.670813, -17.7004072 ], [ 48.6705837, -17.7006644 ], [ 48.6697866, -17.7006416 ], [ 48.6683917, -17.7005937 ], [ 48.6679644, -17.7009486 ], [ 48.6679359, -17.7013307 ], [ 48.6680671, -17.7025402 ], [ 48.6675255, -17.7030538 ], [ 48.6674977, -17.7034996 ], [ 48.6673993, -17.706301 ], [ 48.6670768, -17.7070684 ], [ 48.6663191, -17.7075543 ], [ 48.6665214, -17.7078066 ], [ 48.667254500000013, -17.7080211 ], [ 48.668182, -17.7078515 ], [ 48.6691436, -17.7077451 ], [ 48.6688585, -17.7088621 ], [ 48.6691319, -17.7094955 ], [ 48.6701852, -17.7100988 ], [ 48.6715594, -17.710253 ], [ 48.6722729, -17.7106692 ], [ 48.6725458, -17.7112601 ], [ 48.6725682, -17.7130843 ], [ 48.6719085, -17.7134312 ], [ 48.6713346, -17.713565 ], [ 48.671471, -17.7138605 ], [ 48.6720585, -17.7148297 ], [ 48.6734854, -17.7156621 ], [ 48.6774564, -17.7181629 ], [ 48.6794719, -17.7200493 ], [ 48.6789928, -17.7206912 ], [ 48.6786091, -17.7218836 ], [ 48.6781706, -17.722228 ], [ 48.6774934, -17.7223844 ], [ 48.6766255, -17.7225849 ], [ 48.6754751, -17.7226404 ], [ 48.6743695, -17.7227378 ], [ 48.6737962, -17.722914 ], [ 48.6726229, -17.7247093 ], [ 48.6720496, -17.7248855 ], [ 48.6711194, -17.7248536 ], [ 48.6708179, -17.7255359 ], [ 48.6716168, -17.7256965 ], [ 48.6719343, -17.726069 ], [ 48.6718502, -17.7266698 ], [ 48.6715414, -17.7267581 ], [ 48.6712622, -17.7272134 ], [ 48.6710859, -17.7279552 ], [ 48.6709857, -17.7283767 ], [ 48.671693, -17.7282839 ], [ 48.6720429, -17.7279405 ], [ 48.6725705, -17.7276375 ], [ 48.673147, -17.7277158 ], [ 48.6735449, -17.7276689 ], [ 48.6737741, -17.7283027 ], [ 48.6740934, -17.7290628 ], [ 48.6741471, -17.7298259 ], [ 48.6735362, -17.7305542 ], [ 48.6733701, -17.731447 ], [ 48.6738305, -17.7316079 ], [ 48.674523699999988, -17.7316461 ], [ 48.6746945, -17.731135 ], [ 48.6749934, -17.7302406 ], [ 48.6748965, -17.7295629 ], [ 48.6755125, -17.7292589 ], [ 48.6760875, -17.7292099 ], [ 48.6770176, -17.7292418 ], [ 48.6775345, -17.7289031 ], [ 48.6780717, -17.728551 ], [ 48.6788664, -17.7283723 ], [ 48.6801085, -17.7285703 ], [ 48.681349, -17.7286411 ], [ 48.6821901, -17.7286315 ], [ 48.6828562, -17.7287936 ], [ 48.68379, -17.7291225 ], [ 48.6839328, -17.729927 ], [ 48.6837168, -17.7303537 ], [ 48.6833257, -17.7309522 ], [ 48.6832018, -17.7316749 ], [ 48.6832092, -17.7322688 ], [ 48.6838884, -17.7327615 ], [ 48.685586, -17.7329206 ], [ 48.6882115, -17.7339938 ], [ 48.6907427, -17.737794 ], [ 48.6937665, -17.741855 ], [ 48.6946514, -17.7428276 ], [ 48.6943843, -17.7433796 ], [ 48.6938732, -17.7443401 ], [ 48.6932279, -17.7460393 ], [ 48.6933269, -17.7464704 ], [ 48.6935329, -17.7468278 ], [ 48.693022, -17.7487308 ], [ 48.6936453, -17.7492785 ], [ 48.693642, -17.7505136 ], [ 48.6936682, -17.7523926 ], [ 48.6937292, -17.7530186 ], [ 48.693956500000013, -17.7532666 ], [ 48.6940715, -17.7534979 ], [ 48.6943358, -17.7537276 ], [ 48.694845, -17.7541156 ], [ 48.6952749, -17.7541285 ], [ 48.6956646, -17.7539272 ], [ 48.6959732, -17.7532077 ], [ 48.6961302, -17.7523109 ], [ 48.696328, -17.7515383 ], [ 48.6966531, -17.7508014 ], [ 48.697024399999989, -17.7506181 ], [ 48.697399, -17.7507033 ], [ 48.6977021, -17.7510399 ], [ 48.6978943, -17.7514673 ], [ 48.6980535, -17.7522531 ], [ 48.6981614, -17.7534153 ], [ 48.6983891, -17.7536991 ], [ 48.6989244, -17.7546774 ], [ 48.6990679, -17.7556961 ], [ 48.6993001, -17.7578413 ], [ 48.6992886, -17.7584142 ], [ 48.6993676, -17.7587534 ], [ 48.6997811, -17.7588869 ], [ 48.7005085, -17.7588656 ], [ 48.700935, -17.7586101 ], [ 48.7013065, -17.7584448 ], [ 48.701717399999986, -17.7584401 ], [ 48.7021029, -17.7584954 ], [ 48.7022958, -17.7583797 ], [ 48.7024229, -17.7580919 ], [ 48.702417399999987, -17.7576445 ], [ 48.702227, -17.7573603 ], [ 48.7022681, -17.7569123 ], [ 48.702453299999988, -17.7567614 ], [ 48.7033874, -17.7567921 ], [ 48.7037045, -17.7567526 ], [ 48.7040776, -17.7567125 ], [ 48.7045059, -17.7566002 ], [ 48.705192, -17.7561985 ], [ 48.7060476, -17.7559023 ], [ 48.7072979, -17.7557984 ], [ 48.7082534, -17.7560201 ], [ 48.7097399, -17.7563283 ], [ 48.7100979, -17.7563748 ], [ 48.7105652, -17.7564052 ], [ 48.7107794, -17.756349 ], [ 48.7109252, -17.756061 ], [ 48.7109221, -17.7558104 ], [ 48.7107459, -17.7551681 ], [ 48.7107983, -17.7548811 ], [ 48.7109459, -17.7547362 ], [ 48.7115753, -17.7546467 ], [ 48.7120666, -17.7547233 ], [ 48.7124413, -17.7548084 ], [ 48.7126854, -17.754913 ], [ 48.7132507, -17.7553003 ], [ 48.713946, -17.7556323 ], [ 48.7143405, -17.7558068 ], [ 48.714771, -17.7558734 ], [ 48.7151432, -17.7557617 ], [ 48.7152899, -17.7555452 ], [ 48.7155693, -17.7547365 ], [ 48.715935, -17.7541058 ], [ 48.7163409, -17.7537074 ], [ 48.7168617, -17.7535224 ], [ 48.7173133, -17.7535246 ], [ 48.7181536, -17.753758 ], [ 48.7186214, -17.7538242 ], [ 48.7188975, -17.7534988 ], [ 48.7190051, -17.7531396 ], [ 48.7190176, -17.7526562 ], [ 48.7191407, -17.7520462 ], [ 48.7192843, -17.7515791 ], [ 48.7194312, -17.7513806 ], [ 48.7201713, -17.7508171 ], [ 48.7207115, -17.7506412 ], [ 48.7218311, -17.750601 ], [ 48.7223185, -17.7507386 ], [ 48.7231572, -17.7505857 ], [ 48.7234893, -17.7502596 ], [ 48.7244717, -17.7496576 ], [ 48.7249701, -17.7491864 ], [ 48.7251911, -17.7489333 ], [ 48.7258583, -17.7485139 ], [ 48.7271031, -17.7479803 ], [ 48.7277842, -17.7471849 ], [ 48.7280427, -17.7469492 ], [ 48.728989299999981, -17.7464728 ], [ 48.7293223, -17.7462184 ], [ 48.7299792, -17.7464613 ], [ 48.730118499999989, -17.7471399 ], [ 48.7303098, -17.7478045 ], [ 48.730577899999986, -17.7480116 ], [ 48.7310473, -17.748203 ], [ 48.7318659, -17.7479429 ], [ 48.7320337, -17.7479231 ], [ 48.732589700000013, -17.7475765 ], [ 48.7328009, -17.7465538 ], [ 48.7330151, -17.7457638 ], [ 48.7330481, -17.7454233 ], [ 48.733175, -17.7451175 ], [ 48.7337085, -17.744467 ], [ 48.7339253, -17.7438917 ], [ 48.7340069, -17.74296 ], [ 48.7341823, -17.7426159 ], [ 48.7345226, -17.7423812 ], [ 48.734815699999984, -17.7419303 ], [ 48.7349588, -17.7414274 ], [ 48.7350071, -17.7408183 ], [ 48.7351668, -17.7401542 ], [ 48.7355738, -17.7398452 ], [ 48.7358171, -17.7398781 ], [ 48.7360264, -17.74018 ], [ 48.7362483, -17.7409722 ], [ 48.736337, -17.7411071 ], [ 48.7369346, -17.741834 ], [ 48.7375003, -17.742257 ], [ 48.7378381, -17.7423784 ], [ 48.7381731, -17.742285 ], [ 48.7384665, -17.741852 ], [ 48.7386307, -17.7415458 ], [ 48.7390724, -17.7412731 ], [ 48.7393185, -17.7412872 ], [ 48.739637, -17.7414274 ], [ 48.740583, -17.7423106 ], [ 48.7409019, -17.7424143 ], [ 48.7411843, -17.74259 ], [ 48.741374, -17.7428204 ], [ 48.7413794, -17.74325 ], [ 48.741148, -17.7441476 ], [ 48.7412824, -17.7444324 ], [ 48.7414279, -17.7446337 ], [ 48.7417181, -17.7449106 ], [ 48.7420941, -17.7451031 ], [ 48.7422768, -17.7452847 ], [ 48.7423968, -17.7454039 ], [ 48.7426709, -17.7456437 ], [ 48.7433944, -17.7458498 ], [ 48.7437499, -17.7460503 ], [ 48.7443109, -17.7460975 ], [ 48.745453, -17.7461637 ], [ 48.7457319, -17.7462062 ], [ 48.7463662, -17.7461451 ], [ 48.7467031, -17.7461948 ], [ 48.7472051, -17.74601 ], [ 48.7478528, -17.7455541 ], [ 48.7481045, -17.7454983 ], [ 48.7482129, -17.7452106 ], [ 48.7481901, -17.7448887 ], [ 48.7480578, -17.7447649 ], [ 48.7478111, -17.7444635 ], [ 48.7477667, -17.7439092 ], [ 48.7477815, -17.7436047 ], [ 48.7482907, -17.7425248 ], [ 48.7485315, -17.7423609 ], [ 48.7491778, -17.7425144 ], [ 48.7495443, -17.7425112 ], [ 48.7502447, -17.7426809 ], [ 48.75075, -17.742765 ], [ 48.7513119, -17.7428832 ], [ 48.7516465, -17.742754 ], [ 48.7516984, -17.7424312 ], [ 48.751785, -17.7418932 ], [ 48.7517232, -17.7414465 ], [ 48.7517207, -17.7408224 ], [ 48.751861200000015, -17.7405499 ], [ 48.7521375, -17.7402424 ], [ 48.7524508, -17.7399165 ], [ 48.7527705, -17.738624 ], [ 48.7530076, -17.7381738 ], [ 48.7537672, -17.7379977 ], [ 48.753993500000014, -17.7378579 ], [ 48.7546458, -17.737009 ], [ 48.7549785, -17.7367366 ], [ 48.7555718, -17.7364745 ], [ 48.755982599999989, -17.7363848 ], [ 48.7564013, -17.7362582 ], [ 48.7567458, -17.7361789 ], [ 48.75704469999998, -17.7360395 ], [ 48.757527, -17.7359192 ], [ 48.7581974, -17.7357681 ], [ 48.760215300000013, -17.735816 ], [ 48.7605683, -17.7356686 ], [ 48.7608805, -17.7352533 ], [ 48.7612824, -17.7345505 ], [ 48.7617116, -17.7339261 ], [ 48.7619993, -17.7336471 ], [ 48.7629616, -17.7329556 ], [ 48.7630282, -17.7325784 ], [ 48.7630661, -17.7323637 ], [ 48.7630649, -17.7312329 ], [ 48.7633629, -17.7307493 ], [ 48.763659700000012, -17.7305847 ], [ 48.7643117, -17.7304518 ], [ 48.7646656, -17.730376 ], [ 48.764910599999986, -17.7305521 ], [ 48.7650533, -17.7314812 ], [ 48.7651916, -17.7320702 ], [ 48.765201, -17.732804 ], [ 48.7651503, -17.7332162 ], [ 48.7648757, -17.733649 ], [ 48.7648641, -17.7341222 ], [ 48.765015800000015, -17.7343812 ], [ 48.7655972, -17.7345713 ], [ 48.766214, -17.7345998 ], [ 48.7669402, -17.7344302 ], [ 48.7677205, -17.7340988 ], [ 48.76796, -17.7338454 ], [ 48.7681986, -17.7335204 ], [ 48.768454099999985, -17.733052 ], [ 48.7687057, -17.7322794 ], [ 48.7689286, -17.7321872 ], [ 48.7694536, -17.7323421 ], [ 48.7696994, -17.7325719 ], [ 48.7698711, -17.7328563 ], [ 48.7705457, -17.7332086 ], [ 48.771209899999988, -17.7338298 ], [ 48.7717465, -17.7341765 ], [ 48.7722888, -17.7342238 ], [ 48.7724529, -17.7339176 ], [ 48.772429, -17.7335062 ], [ 48.7723854, -17.7330235 ], [ 48.7718902, -17.7322776 ], [ 48.7717648, -17.7318865 ], [ 48.7716571, -17.7301324 ], [ 48.7717245, -17.7295589 ], [ 48.7720399, -17.729394 ], [ 48.772698099999985, -17.7297443 ], [ 48.7733222, -17.7303454 ], [ 48.7737913, -17.7305551 ], [ 48.7739433, -17.730714 ], [ 48.7743027, -17.7310677 ], [ 48.7747912, -17.7312946 ], [ 48.7751479, -17.7314336 ], [ 48.776186400000014, -17.7315824 ], [ 48.777214199999989, -17.7316239 ], [ 48.7777362, -17.7315461 ], [ 48.7780896, -17.7314346 ], [ 48.7784144, -17.7305537 ], [ 48.7784951, -17.7295683 ], [ 48.7783533, -17.7287108 ], [ 48.7781405, -17.7281406 ], [ 48.7774786, -17.727504 ], [ 48.7768043, -17.7273509 ], [ 48.7752128, -17.7270476 ], [ 48.7749883, -17.7270144 ], [ 48.7736617, -17.7269764 ], [ 48.7731536, -17.7266781 ], [ 48.7731061, -17.7258911 ], [ 48.7732682, -17.7254239 ], [ 48.7737143, -17.7252575 ], [ 48.7745926, -17.7253008 ], [ 48.775157, -17.7256163 ], [ 48.7758883, -17.7258403 ], [ 48.7763374, -17.7259066 ], [ 48.776842099999982, -17.7259365 ], [ 48.7769698, -17.7257023 ], [ 48.7768072, -17.7246839 ], [ 48.7765986, -17.7244358 ], [ 48.7765859, -17.7234515 ], [ 48.7766811, -17.7221438 ], [ 48.7765474, -17.7209261 ], [ 48.7766074, -17.7207664 ], [ 48.7769997, -17.7207797 ], [ 48.7777861, -17.7209315 ], [ 48.7787594, -17.7210989 ], [ 48.7795272, -17.7211174 ], [ 48.7807423, -17.7213439 ], [ 48.7811155, -17.7213216 ], [ 48.781394, -17.721193 ], [ 48.7816944, -17.7213147 ], [ 48.7818272, -17.7214742 ], [ 48.7821502, -17.7219 ], [ 48.7823787, -17.7222374 ], [ 48.7826795, -17.7223949 ], [ 48.7831275, -17.7223717 ], [ 48.7837262, -17.722454 ], [ 48.7846013, -17.7222468 ], [ 48.7851979, -17.7221681 ], [ 48.7855317, -17.7219851 ], [ 48.7859232, -17.7219268 ], [ 48.7864241, -17.7216703 ], [ 48.7869718, -17.7214132 ], [ 48.7872526, -17.7214635 ], [ 48.7874601, -17.7216221 ], [ 48.787976499999985, -17.7217515 ], [ 48.7883052, -17.721988 ], [ 48.7884756, -17.7221649 ], [ 48.7887951, -17.7223222 ], [ 48.7892674, -17.7225038 ], [ 48.7895465, -17.7226534 ], [ 48.789920200000012, -17.7226668 ], [ 48.7904622, -17.7226962 ], [ 48.7907778, -17.7225492 ], [ 48.7910016, -17.7225287 ], [ 48.7916165, -17.7224139 ], [ 48.7921592, -17.722497 ], [ 48.7925134, -17.7227082 ], [ 48.7926523, -17.7230818 ], [ 48.7926948, -17.723475 ], [ 48.7928122, -17.7238853 ], [ 48.7931146, -17.7240918 ], [ 48.7934155, -17.7243256 ], [ 48.7939607, -17.7243309 ], [ 48.7942769, -17.7244943 ], [ 48.7946512, -17.7245201 ], [ 48.794951, -17.7246295 ], [ 48.7953062, -17.724661 ], [ 48.7958284, -17.7246011 ], [ 48.796256, -17.7244528 ], [ 48.796926, -17.7242658 ], [ 48.797559, -17.7242409 ], [ 48.7975793, -17.7242401 ], [ 48.7982166, -17.7244115 ], [ 48.798569500000013, -17.7247533 ], [ 48.7986908, -17.7249786 ], [ 48.798920100000011, -17.7250928 ], [ 48.7993017, -17.7259915 ], [ 48.7994777, -17.726598 ], [ 48.7994489, -17.7272606 ], [ 48.7992876, -17.7277816 ], [ 48.7991268, -17.7283384 ], [ 48.7989619, -17.7285909 ], [ 48.7989496, -17.7290743 ], [ 48.7990289, -17.7294314 ], [ 48.7993471, -17.7294813 ], [ 48.799776799999989, -17.729494 ], [ 48.8000408, -17.7296878 ], [ 48.800185199999987, -17.7299046 ], [ 48.8003464, -17.7302032 ], [ 48.8003743, -17.7309188 ], [ 48.8000996, -17.7313338 ], [ 48.7996007, -17.7317514 ], [ 48.7990874, -17.7317754 ], [ 48.7983594, -17.731802 ], [ 48.7977071, -17.7319172 ], [ 48.7973357, -17.7320827 ], [ 48.7969774, -17.7322937 ], [ 48.796578899999986, -17.7327719 ], [ 48.7964888, -17.7330236 ], [ 48.7963849, -17.7336513 ], [ 48.7962462, -17.7344763 ], [ 48.7962557, -17.73521 ], [ 48.7960592, -17.7358925 ], [ 48.7959543, -17.7364486 ], [ 48.7960035, -17.7373609 ], [ 48.7961604, -17.7379318 ], [ 48.7962414, -17.7384141 ], [ 48.796231500000012, -17.7390943 ], [ 48.7960662, -17.7393111 ], [ 48.7956789, -17.7396916 ], [ 48.7952695, -17.7398039 ], [ 48.7945542, -17.7393828 ], [ 48.7941005, -17.7389587 ], [ 48.7930645, -17.7382909 ], [ 48.7925759, -17.738064 ], [ 48.792053, -17.7380702 ], [ 48.7917584, -17.7383959 ], [ 48.7915413, -17.7389355 ], [ 48.7913753, -17.7390986 ], [ 48.7911929, -17.7394408 ], [ 48.7911584, -17.739656 ], [ 48.7912762, -17.7401021 ], [ 48.7920132, -17.7407555 ], [ 48.7923155, -17.7410746 ], [ 48.7924111, -17.7411983 ], [ 48.792566099999988, -17.741626 ], [ 48.7924225, -17.7420752 ], [ 48.7917539, -17.7423695 ], [ 48.791287, -17.7423751 ], [ 48.7909474, -17.7421107 ], [ 48.7904418, -17.7420093 ], [ 48.7899387, -17.7420173 ], [ 48.7896389, -17.7420367 ], [ 48.788309500000011, -17.7421172 ], [ 48.7881099, -17.7422339 ], [ 48.787912299999988, -17.7424844 ], [ 48.787741, -17.7425963 ], [ 48.787635, -17.7430629 ], [ 48.7874346, -17.7434591 ], [ 48.7873328, -17.7442478 ], [ 48.7873757, -17.7446769 ], [ 48.7876063, -17.7451753 ], [ 48.7878517, -17.745291 ], [ 48.7888424, -17.7454291 ], [ 48.7896093, -17.7455095 ], [ 48.7898015, -17.7457004 ], [ 48.789912, -17.7458101 ], [ 48.7905178, -17.7464294 ], [ 48.7912944, -17.7472614 ], [ 48.7915981, -17.7476336 ], [ 48.7920314, -17.7479148 ], [ 48.7927439, -17.7481211 ], [ 48.7934907, -17.7480943 ], [ 48.7938352, -17.7480186 ], [ 48.794147599999988, -17.7476211 ], [ 48.7944035, -17.7471885 ], [ 48.7946027, -17.7467029 ], [ 48.7956225, -17.744686 ], [ 48.7959519, -17.744163 ], [ 48.7968409, -17.7421478 ], [ 48.7973076, -17.7421243 ], [ 48.798003, -17.7424561 ], [ 48.7986845, -17.7424549 ], [ 48.7990525, -17.7427299 ], [ 48.7991354, -17.7433554 ], [ 48.7990511, -17.7440544 ], [ 48.7989633, -17.744485 ], [ 48.7988391, -17.7449877 ], [ 48.7988435, -17.7453277 ], [ 48.7990324, -17.7455421 ], [ 48.7995586, -17.7457308 ], [ 48.7998952, -17.7457626 ], [ 48.8004237, -17.7461858 ], [ 48.8010153, -17.7471453 ], [ 48.801217, -17.7482884 ], [ 48.8010458, -17.7494897 ], [ 48.800773799999988, -17.7501194 ], [ 48.8007101, -17.7509614 ], [ 48.8005089, -17.751286 ], [ 48.8000429, -17.7513631 ], [ 48.7995944, -17.7513506 ], [ 48.7988777, -17.7508222 ], [ 48.798429, -17.7507918 ], [ 48.7982077, -17.7510092 ], [ 48.797636, -17.7512245 ], [ 48.7973537, -17.7514132 ], [ 48.7969809, -17.7514713 ], [ 48.7964432, -17.751782 ], [ 48.796204, -17.7519816 ], [ 48.7962584, -17.7522107 ], [ 48.7964203, -17.752892 ], [ 48.7969577, -17.7539953 ], [ 48.797345400000012, -17.7550825 ], [ 48.7973305, -17.7553691 ], [ 48.7973454, -17.7565144 ], [ 48.7975179, -17.7568524 ], [ 48.7980079, -17.7571494 ], [ 48.798233, -17.7572555 ], [ 48.7986082, -17.7573763 ], [ 48.7988388, -17.7578748 ], [ 48.7990356, -17.758642 ], [ 48.7989674, -17.759144 ], [ 48.7991392, -17.7594283 ], [ 48.7992592, -17.7600355 ], [ 48.7992994, -17.7602498 ], [ 48.7995139, -17.7609273 ], [ 48.7999194, -17.7619606 ], [ 48.8004076, -17.7621517 ], [ 48.8007791, -17.7619861 ], [ 48.8010217, -17.7619653 ], [ 48.8011867, -17.7617307 ], [ 48.8015577, -17.7615293 ], [ 48.8021475, -17.761135 ], [ 48.8024855, -17.7610529 ], [ 48.8030682, -17.7613323 ], [ 48.803559, -17.7617202 ], [ 48.8040121, -17.7620906 ], [ 48.8043178, -17.762606 ], [ 48.8043586, -17.762874 ], [ 48.8044177, -17.763106 ], [ 48.8045526, -17.7634265 ], [ 48.8058024, -17.7647181 ], [ 48.8061069, -17.765144 ], [ 48.8063308, -17.7653076 ], [ 48.8066366, -17.7656567 ], [ 48.8069327, -17.7661543 ], [ 48.80785, -17.7663044 ], [ 48.8086385, -17.7665992 ], [ 48.8089541, -17.7664522 ], [ 48.809821700000015, -17.7656543 ], [ 48.810435, -17.7654142 ], [ 48.8116313, -17.7654715 ], [ 48.8123039, -17.7654813 ], [ 48.8131292, -17.7655725 ], [ 48.8136879, -17.7656078 ], [ 48.8143388, -17.7653852 ], [ 48.8148289, -17.7650034 ], [ 48.8153625, -17.7643884 ], [ 48.8155269, -17.7641001 ], [ 48.815710100000011, -17.7638294 ], [ 48.8160124, -17.7626623 ], [ 48.8162846, -17.7620505 ], [ 48.8165605, -17.761725 ], [ 48.8172637, -17.7612154 ], [ 48.8178226, -17.7611013 ], [ 48.8183089, -17.7611491 ], [ 48.818981, -17.7611231 ], [ 48.8210551, -17.7611697 ], [ 48.8212495, -17.761303 ], [ 48.821696, -17.7616094 ], [ 48.822532500000015, -17.7620947 ], [ 48.8228646, -17.7621961 ], [ 48.8234527, -17.7623757 ], [ 48.8240882, -17.7624038 ], [ 48.8242973, -17.7623126 ], [ 48.8245736, -17.7623801 ], [ 48.8251559, -17.7626236 ], [ 48.8258899, -17.7630443 ], [ 48.8267732, -17.7634453 ], [ 48.8281126, -17.7637333 ], [ 48.8290839, -17.7637216 ], [ 48.8303991, -17.7642963 ], [ 48.8306744, -17.7644074 ], [ 48.8310429, -17.7644973 ], [ 48.8313461, -17.7645712 ], [ 48.8319279, -17.7647789 ], [ 48.8326252, -17.765217 ], [ 48.8333188, -17.7654243 ], [ 48.8338049, -17.7654542 ], [ 48.834233, -17.7653416 ], [ 48.835195, -17.7646319 ], [ 48.8354735, -17.7645032 ], [ 48.835957, -17.7643363 ], [ 48.8365661, -17.7643485 ], [ 48.837024, -17.7645023 ], [ 48.8377836, -17.7654417 ], [ 48.8380298, -17.7656892 ], [ 48.8386444, -17.7662545 ], [ 48.839396, -17.7665854 ], [ 48.8410453, -17.7669949 ], [ 48.8414155, -17.7667399 ], [ 48.8415781, -17.7663262 ], [ 48.8414365, -17.7655046 ], [ 48.8412847, -17.7653275 ], [ 48.8406364, -17.7643331 ], [ 48.840557900000015, -17.7640476 ], [ 48.8406295, -17.7638141 ], [ 48.8412212, -17.7633594 ], [ 48.8422936, -17.7629388 ], [ 48.8426532, -17.7628766 ], [ 48.8438816, -17.7625395 ], [ 48.8446965, -17.7620105 ], [ 48.845333, -17.7614121 ], [ 48.8461617, -17.759111 ], [ 48.8464556, -17.7587316 ], [ 48.8471953, -17.7581677 ], [ 48.8487804, -17.7579694 ], [ 48.850638, -17.757893 ], [ 48.8510108, -17.7578348 ], [ 48.8528926, -17.7577861 ], [ 48.8531134, -17.7579165 ], [ 48.8532326, -17.758452 ], [ 48.8532215, -17.7590248 ], [ 48.8533362, -17.7592203 ], [ 48.8540308, -17.7594803 ], [ 48.8544419, -17.7594932 ], [ 48.8548686, -17.7592732 ], [ 48.8555776, -17.7592837 ], [ 48.855823799999982, -17.7594584 ], [ 48.856022599999989, -17.7598806 ], [ 48.8562052, -17.7600443 ], [ 48.8565452, -17.7603265 ], [ 48.8566038, -17.7605227 ], [ 48.856606, -17.7606838 ], [ 48.8568547, -17.7611282 ], [ 48.8568461, -17.76188 ], [ 48.857172, -17.7625024 ], [ 48.8578089, -17.7626378 ], [ 48.8582186, -17.7625433 ], [ 48.8586443, -17.7622517 ], [ 48.859032199999987, -17.7619248 ], [ 48.8597781, -17.7618262 ], [ 48.8603952, -17.7618723 ], [ 48.8609926, -17.7618471 ], [ 48.8613467, -17.761789 ], [ 48.8616429, -17.7615885 ], [ 48.8617138, -17.7613013 ], [ 48.8644416, -17.7613394 ], [ 48.8647567, -17.7611565 ], [ 48.8649217, -17.7609218 ], [ 48.8650462, -17.7604549 ], [ 48.8648886, -17.7598483 ], [ 48.8646281, -17.7592264 ], [ 48.8645927, -17.7586707 ], [ 48.864733, -17.7579888 ], [ 48.8651687, -17.7570528 ], [ 48.8657374, -17.7562762 ], [ 48.866029300000015, -17.7557535 ], [ 48.8661516, -17.7551256 ], [ 48.8660302, -17.7544291 ], [ 48.8658186, -17.7539663 ], [ 48.8653069, -17.7534178 ], [ 48.8645716, -17.7529077 ], [ 48.8641904, -17.7523397 ], [ 48.8639584, -17.7517519 ], [ 48.8639318, -17.7511616 ], [ 48.863754199999988, -17.7504478 ], [ 48.8635583, -17.7497701 ], [ 48.8635794, -17.7485528 ], [ 48.8636888, -17.7483545 ], [ 48.8641118, -17.7483612 ], [ 48.8644007, -17.7485069 ], [ 48.8647802, -17.7489497 ], [ 48.864804299999989, -17.749361 ], [ 48.8654235, -17.7509643 ], [ 48.866233, -17.7514376 ], [ 48.8671687, -17.7515693 ], [ 48.8677259, -17.7513297 ], [ 48.8680587, -17.7510751 ], [ 48.8681844, -17.7506977 ], [ 48.8684789, -17.7503719 ], [ 48.8686788, -17.7499578 ], [ 48.8689177, -17.7496685 ], [ 48.8694404, -17.7496441 ], [ 48.8702653, -17.7498666 ], [ 48.8712002, -17.7499446 ], [ 48.8716369, -17.7497782 ], [ 48.8719496, -17.7494164 ], [ 48.8722048, -17.7489479 ], [ 48.8728726, -17.7485996 ], [ 48.8734717, -17.7487898 ], [ 48.873759, -17.749233 ], [ 48.8739182, -17.7499648 ], [ 48.8744472, -17.7505319 ], [ 48.8746591, -17.7508864 ], [ 48.8751688, -17.7512918 ], [ 48.8756154, -17.751859 ], [ 48.8757847, -17.7519464 ], [ 48.875976, -17.7522841 ], [ 48.8768758, -17.7525236 ], [ 48.8774586, -17.7528028 ], [ 48.8784964, -17.7535775 ], [ 48.8786649, -17.7536112 ], [ 48.8789546, -17.7544524 ], [ 48.8792163, -17.7557163 ], [ 48.8798004, -17.757481 ], [ 48.8799925, -17.7578724 ], [ 48.8802777, -17.7582447 ], [ 48.8812527, -17.7585191 ], [ 48.8816827, -17.7585495 ], [ 48.882935, -17.7586056 ], [ 48.8839969, -17.7583956 ], [ 48.8849278, -17.7581693 ], [ 48.8853346, -17.75786 ], [ 48.8860902, -17.757797 ], [ 48.8868423, -17.7578472 ], [ 48.8874929, -17.7579228 ], [ 48.888276, -17.7578236 ], [ 48.8889777, -17.7574189 ], [ 48.889223, -17.7574002 ], [ 48.8894241, -17.7570755 ], [ 48.8900379, -17.7568889 ], [ 48.8903375, -17.7569389 ], [ 48.8905378, -17.7572466 ], [ 48.8906002, -17.7581765 ], [ 48.8905284, -17.7583922 ], [ 48.8897907, -17.7590934 ], [ 48.8890555, -17.7599855 ], [ 48.888672299999989, -17.7611119 ], [ 48.8888553, -17.7617539 ], [ 48.8893831, -17.7621053 ], [ 48.8899114, -17.7623958 ], [ 48.890189899999989, -17.7628351 ], [ 48.8909392, -17.7629929 ], [ 48.8915155, -17.7631395 ], [ 48.8918651, -17.7633154 ], [ 48.8917849, -17.7634784 ], [ 48.8924078, -17.7636375 ], [ 48.8939578, -17.7636607 ], [ 48.8949604, -17.7638258 ], [ 48.8959953, -17.7646088 ], [ 48.896518, -17.7648088 ], [ 48.897074, -17.7648946 ], [ 48.8985786, -17.7648335 ], [ 48.8999464, -17.764477 ], [ 48.8998288, -17.7648639 ], [ 48.89988, -17.7651065 ], [ 48.9001552, -17.7652024 ], [ 48.9004054, -17.7656234 ], [ 48.900398900000013, -17.7657342 ], [ 48.9006237, -17.7662248 ], [ 48.900783, -17.7664376 ], [ 48.9013283, -17.7665247 ], [ 48.901637500000014, -17.766592 ], [ 48.902783899999989, -17.7665916 ], [ 48.9034352, -17.7664045 ], [ 48.9037101, -17.7665353 ], [ 48.9043198, -17.7668946 ], [ 48.9048213, -17.7672139 ], [ 48.9050157, -17.7672439 ], [ 48.9054693, -17.7676319 ], [ 48.9061703, -17.768357 ], [ 48.9058959, -17.7692762 ], [ 48.9054184, -17.7693866 ], [ 48.9038962, -17.7694725 ], [ 48.9030559, -17.7701141 ], [ 48.9020372, -17.7707532 ], [ 48.9013845, -17.7708329 ], [ 48.9002309, -17.7711695 ], [ 48.8999354, -17.7714237 ], [ 48.8997023, -17.7721425 ], [ 48.8996129, -17.7738082 ], [ 48.8998448, -17.7745949 ], [ 48.9001361, -17.7749606 ], [ 48.9005511, -17.7759207 ], [ 48.900982, -17.7760523 ], [ 48.9023517, -17.7768575 ], [ 48.9037266, -17.7765489 ], [ 48.9041907, -17.7763283 ], [ 48.9045045, -17.7763703 ], [ 48.9059626, -17.7761272 ], [ 48.9064659, -17.7760493 ], [ 48.9078483, -17.77605 ], [ 48.908120399999987, -17.776136 ], [ 48.908982, -17.7763042 ], [ 48.9101073, -17.7766302 ], [ 48.9109296, -17.7766557 ], [ 48.9115855, -17.7768086 ], [ 48.9122778, -17.7768894 ], [ 48.912769800000014, -17.7767462 ], [ 48.9130849, -17.7771656 ], [ 48.9131213, -17.7773733 ], [ 48.9132753, -17.777648 ], [ 48.9133741, -17.7778242 ], [ 48.914022099999983, -17.7782426 ], [ 48.9142035, -17.7783687 ], [ 48.9144497, -17.7786161 ], [ 48.9145305, -17.7790626 ], [ 48.9147952, -17.7792919 ], [ 48.91520830000001, -17.7794478 ], [ 48.915747, -17.7792263 ], [ 48.916025, -17.7790617 ], [ 48.9164296, -17.7785913 ], [ 48.9168232, -17.7776446 ], [ 48.917064, -17.7771694 ], [ 48.9176873, -17.776847 ], [ 48.9182633, -17.7767606 ], [ 48.9186936, -17.7768089 ], [ 48.9190455, -17.7769923 ], [ 48.9190826, -17.7779316 ], [ 48.9193856, -17.778232 ], [ 48.9199449, -17.7781534 ], [ 48.920463, -17.777789 ], [ 48.9210189, -17.7774598 ], [ 48.9213452, -17.7770713 ], [ 48.9216837, -17.7768966 ], [ 48.9218683, -17.7767332 ], [ 48.9227113, -17.7762215 ], [ 48.9231637, -17.7758924 ], [ 48.9236004, -17.7756734 ], [ 48.9238398, -17.7754198 ], [ 48.9239762, -17.7752289 ], [ 48.924451, -17.7750363 ], [ 48.9246749, -17.7750155 ], [ 48.9259602, -17.7747488 ], [ 48.9267567, -17.7742555 ], [ 48.9270307, -17.7738046 ], [ 48.9272123, -17.7729917 ], [ 48.9273669, -17.77108 ], [ 48.9278082, -17.7696649 ], [ 48.9279044, -17.7694087 ], [ 48.9281251, -17.7691554 ], [ 48.9281167, -17.768547 ], [ 48.9283397, -17.7683844 ], [ 48.9284876, -17.7682766 ], [ 48.9287284, -17.7681992 ], [ 48.9293639, -17.768227 ], [ 48.9297769, -17.7684118 ], [ 48.9301717, -17.7685568 ], [ 48.9305644, -17.7685877 ], [ 48.931465800000012, -17.7689343 ], [ 48.931728, -17.7689846 ], [ 48.9321337, -17.7686037 ], [ 48.9322586, -17.7685907 ], [ 48.9325426, -17.7684553 ], [ 48.9322826, -17.7678723 ], [ 48.9322521, -17.7677073 ], [ 48.9322236, -17.7669918 ], [ 48.9321049, -17.76651 ], [ 48.9323226, -17.7660419 ], [ 48.9326883, -17.7654646 ], [ 48.9330292, -17.7652759 ], [ 48.933448399999989, -17.7650434 ], [ 48.933840599999982, -17.7650384 ], [ 48.9340836, -17.7650532 ], [ 48.9341522, -17.7645709 ], [ 48.934375, -17.7645126 ], [ 48.9344846, -17.7643323 ], [ 48.935172, -17.7640551 ], [ 48.9358787, -17.7638314 ], [ 48.936306, -17.7637849 ], [ 48.9368285, -17.7636225 ], [ 48.9369042, -17.7636932 ], [ 48.9378942, -17.7636985 ], [ 48.9383828, -17.7639071 ], [ 48.938903, -17.7637037 ], [ 48.9398831, -17.7637366 ], [ 48.940734, -17.7637342 ], [ 48.9416005, -17.76358 ], [ 48.9433752, -17.7635934 ], [ 48.9446545, -17.7635771 ], [ 48.9454276, -17.7634241 ], [ 48.9459219, -17.7627547 ], [ 48.947069, -17.7618999 ], [ 48.9474936, -17.7615366 ], [ 48.9477747, -17.7613628 ], [ 48.9493562, -17.761155 ], [ 48.9500636, -17.7609849 ], [ 48.9506371, -17.7605839 ], [ 48.9516202, -17.7601301 ], [ 48.9521781, -17.7599021 ], [ 48.9528616, -17.7593565 ], [ 48.9535317, -17.7591733 ], [ 48.9542038, -17.7591604 ], [ 48.9543941, -17.7594814 ], [ 48.9548287, -17.7597789 ], [ 48.9553077, -17.7599697 ], [ 48.9560386, -17.760084 ], [ 48.9570829, -17.7600186 ], [ 48.9573284, -17.7601849 ], [ 48.9575709, -17.7601914 ], [ 48.958500699999988, -17.7598932 ], [ 48.9587067, -17.7599263 ], [ 48.959747, -17.7595193 ], [ 48.9601701, -17.7590486 ], [ 48.9614891, -17.7585307 ], [ 48.9616537, -17.758278 ], [ 48.9619174, -17.7575285 ], [ 48.9622428, -17.7563197 ], [ 48.962955, -17.7551472 ], [ 48.9635715, -17.7537895 ], [ 48.9639906, -17.7530579 ], [ 48.9647871, -17.7522859 ], [ 48.9651429, -17.7518029 ], [ 48.9652729, -17.7512518 ], [ 48.9654744, -17.7509629 ], [ 48.9658269, -17.7507973 ], [ 48.9662194, -17.7508102 ], [ 48.9668528, -17.7506947 ], [ 48.9670707, -17.7504252 ], [ 48.9674426, -17.7501323 ], [ 48.9678227, -17.7494949 ], [ 48.9680004, -17.7486039 ], [ 48.9681186, -17.7477075 ], [ 48.9680188, -17.7472435 ], [ 48.9690979, -17.745601 ], [ 48.9698896, -17.7447855 ], [ 48.9713032, -17.7438472 ], [ 48.9716656, -17.7437844 ], [ 48.972152799999989, -17.7439987 ], [ 48.9728412, -17.7447557 ], [ 48.9734105, -17.7450983 ], [ 48.9739751, -17.7452129 ], [ 48.9747043, -17.7450181 ], [ 48.9751359, -17.7450126 ], [ 48.9757684, -17.7451318 ], [ 48.9761127, -17.7453826 ], [ 48.9777228, -17.7454602 ], [ 48.9787171, -17.7457823 ], [ 48.9795278, -17.7456562 ], [ 48.9804026, -17.745111 ], [ 48.9809119, -17.7449066 ], [ 48.9815422, -17.7448667 ], [ 48.9823996, -17.7444421 ], [ 48.9833277, -17.7442072 ], [ 48.9851594, -17.7447247 ], [ 48.9851953, -17.7449152 ], [ 48.985925599999987, -17.7449058 ], [ 48.9866197, -17.7446741 ], [ 48.9876784, -17.7444059 ], [ 48.9883249, -17.7432653 ], [ 48.9885498, -17.7426129 ], [ 48.9890939, -17.7419085 ], [ 48.9897389, -17.7415498 ], [ 48.9902252, -17.7414657 ], [ 48.9903405, -17.7409971 ], [ 48.9902917, -17.7404137 ], [ 48.990000800000011, -17.7399503 ], [ 48.989256, -17.7389867 ], [ 48.9887327, -17.738598 ], [ 48.9883488, -17.7380251 ], [ 48.9883217, -17.7369014 ], [ 48.987957, -17.7361615 ], [ 48.9877484, -17.7360492 ], [ 48.9875854, -17.7357381 ], [ 48.987495499999987, -17.7351163 ], [ 48.9879207, -17.7309594 ], [ 48.9912741, -17.7298057 ], [ 48.9932354, -17.727539 ], [ 48.9946049, -17.7254649 ], [ 48.9966369, -17.7221904 ], [ 48.9967406, -17.7209044 ], [ 49.0001752, -17.7196142 ], [ 49.0009513, -17.7199156 ], [ 49.0018464, -17.7200208 ], [ 49.0024911, -17.7197864 ], [ 49.0029413, -17.7198898 ], [ 49.0036762, -17.7201528 ], [ 49.004449, -17.7202207 ], [ 49.0057881, -17.7201255 ], [ 49.0060241, -17.7195774 ], [ 49.0058128, -17.7189962 ], [ 49.0056822, -17.718375 ], [ 49.0056602, -17.7168181 ], [ 49.0055894, -17.7146778 ], [ 49.004371, -17.7146936 ], [ 49.0039226, -17.7145826 ], [ 49.0034757, -17.7143172 ], [ 49.003024799999984, -17.7142828 ], [ 49.0023385, -17.7145935 ], [ 49.0017296, -17.714611 ], [ 48.9988972, -17.7139469 ], [ 48.9977507, -17.7132999 ], [ 48.9963304, -17.7133961 ], [ 48.995927, -17.713596 ], [ 48.9952407, -17.714376 ], [ 48.9943151, -17.7145122 ], [ 48.9938711, -17.7147126 ], [ 48.993563200000011, -17.7156492 ], [ 48.9934029, -17.7160812 ], [ 48.9930374, -17.7160859 ], [ 48.9925094, -17.7160927 ], [ 48.991937, -17.7158276 ], [ 48.9916106, -17.7153 ], [ 48.9909811, -17.7142827 ], [ 48.9903544, -17.713045 ], [ 48.9902217, -17.7122681 ], [ 48.9909546, -17.7109772 ], [ 48.9908891, -17.7106244 ], [ 48.9910736, -17.7092984 ], [ 48.9913448, -17.7084393 ], [ 48.9912813, -17.7067263 ], [ 48.990868, -17.7062255 ], [ 48.990432600000013, -17.7054826 ], [ 48.9904776, -17.7051779 ], [ 48.9905982, -17.7043603 ], [ 48.9915472, -17.7025184 ], [ 48.9911302, -17.7017451 ], [ 48.9899487, -17.7014878 ], [ 48.9897829, -17.7012564 ], [ 48.9902762, -17.7007166 ], [ 48.990503, -17.7004685 ], [ 48.9903735, -17.6999252 ], [ 48.9900106, -17.6985714 ], [ 48.9900627, -17.6976712 ], [ 48.9906369, -17.6973426 ], [ 48.9910864, -17.6968113 ], [ 48.9919927, -17.696274 ], [ 48.9927723, -17.695388 ], [ 48.993275300000015, -17.6943304 ], [ 48.9934515, -17.693861 ], [ 48.9928947, -17.693255 ], [ 48.9927683, -17.6929355 ], [ 48.99243, -17.6927062 ], [ 48.9921144, -17.691922 ], [ 48.9925075, -17.6917125 ], [ 48.9932085, -17.6920912 ], [ 48.9938005, -17.6926886 ], [ 48.9943528, -17.6929734 ], [ 48.9951472, -17.6931384 ], [ 48.995783, -17.6928674 ], [ 48.9960473, -17.6921632 ], [ 48.9964367, -17.6916911 ], [ 48.9969207, -17.6914512 ], [ 48.9973754, -17.6912994 ], [ 48.9967857, -17.6905186 ], [ 48.9964174, -17.690319 ], [ 48.9962001, -17.6900298 ], [ 48.9962557, -17.6896495 ], [ 48.9970393, -17.6890555 ], [ 48.997798599999989, -17.6888997 ], [ 48.9987432, -17.6889167 ], [ 48.999807, -17.6887569 ], [ 48.9999182, -17.6879964 ], [ 48.9995396, -17.6870669 ], [ 48.9992849, -17.6862819 ], [ 48.9988272, -17.6862294 ], [ 48.9982132, -17.6858869 ], [ 48.9985717, -17.6853859 ], [ 48.9991105, -17.6854618 ], [ 48.9996121, -17.6857229 ], [ 49.000222, -17.6857734 ], [ 49.0001841, -17.6852483 ], [ 49.0003595, -17.6847205 ], [ 49.000748800000011, -17.6842483 ], [ 49.0011661, -17.6836006 ], [ 49.001251300000014, -17.6831615 ], [ 49.0009979, -17.682464 ], [ 49.0003509, -17.6819468 ], [ 48.9998876, -17.6814856 ], [ 48.9994197, -17.6807033 ], [ 48.9987156, -17.6804496 ], [ 48.9989467, -17.6799912 ], [ 48.9991897, -17.6795092 ], [ 48.9991551, -17.6792176 ], [ 48.9988177, -17.6790468 ], [ 48.9986626, -17.6788444 ], [ 48.9991762, -17.6785458 ], [ 48.9992618, -17.6781359 ], [ 48.9990132, -17.6777888 ], [ 48.9984663, -17.6778834 ], [ 48.9982255, -17.6780909 ], [ 48.9979463, -17.678656 ], [ 48.9976872, -17.6787986 ], [ 48.997014, -17.6785737 ], [ 48.9968607, -17.6788895 ], [ 48.9964135, -17.6791946 ], [ 48.9958637, -17.6790849 ], [ 48.9954491, -17.6786015 ], [ 48.995393, -17.6780983 ], [ 48.9956922, -17.6777148 ], [ 48.9962276, -17.6774841 ], [ 48.9971651, -17.6774028 ], [ 48.998119, -17.677012 ], [ 48.999173600000013, -17.6764771 ], [ 49.0000408, -17.675498 ], [ 49.0003881, -17.6755617 ], [ 49.0015834, -17.6768737 ], [ 49.0021419, -17.6770617 ], [ 49.0027331, -17.6759013 ], [ 49.003124, -17.6755458 ], [ 49.0033842, -17.6745497 ], [ 49.0047026, -17.6743294 ], [ 49.0053396, -17.6734214 ], [ 49.0052344, -17.6718396 ], [ 49.0042793, -17.6710636 ], [ 49.0035682, -17.6706759 ], [ 49.0029435, -17.6713729 ], [ 49.0027884, -17.6711705 ], [ 49.0026868, -17.6704418 ], [ 49.0028308, -17.6695781 ], [ 49.002105, -17.6680551 ], [ 49.0019745, -17.6674436 ], [ 49.0009849, -17.6663761 ], [ 48.9992444, -17.6660947 ], [ 48.998373299999983, -17.6657599 ], [ 48.9983626, -17.6649987 ], [ 48.9997946, -17.6641497 ], [ 49.0006488, -17.6637993 ], [ 49.0008685, -17.663513 ], [ 49.0008913, -17.663298 ], [ 49.0009212, -17.6630146 ], [ 49.0007391, -17.6626412 ], [ 49.0007193, -17.6625078 ], [ 49.0002736, -17.6622748 ], [ 48.999756, -17.6620278 ], [ 48.9992553, -17.6617343 ], [ 48.997999, -17.6617788 ], [ 48.9975591, -17.6617562 ], [ 48.9967778, -17.6612172 ], [ 48.9964406, -17.6611706 ], [ 48.9948671, -17.6613776 ], [ 48.9941214, -17.6613671 ], [ 48.993007, -17.6614688 ], [ 48.9927896, -17.6616421 ], [ 48.9927415, -17.6619993 ], [ 48.9921826, -17.6625838 ], [ 48.991978, -17.6631299 ], [ 48.991964, -17.6643198 ], [ 48.9908013, -17.6651148 ], [ 48.9886404, -17.6642084 ], [ 48.9876287, -17.6643405 ], [ 48.9871231, -17.664036 ], [ 48.9864619, -17.6632348 ], [ 48.9861702, -17.6630101 ], [ 48.9850938, -17.6629297 ], [ 48.9848619, -17.6628138 ], [ 48.9848912, -17.6623719 ], [ 48.9852307, -17.6618815 ], [ 48.9850899, -17.6613845 ], [ 48.9846621, -17.6611862 ], [ 48.9836731, -17.6605011 ], [ 48.9831756, -17.6600166 ], [ 48.9832107, -17.6587256 ], [ 48.9831151, -17.6582174 ], [ 48.9826686, -17.6579514 ], [ 48.9820324, -17.657984 ], [ 48.9817269, -17.6577427 ], [ 48.9817899, -17.6571816 ], [ 48.9819939, -17.65656760000001 ], [ 48.9810617, -17.6560105 ], [ 48.980086, -17.6556581 ], [ 48.9791673, -17.6558227 ], [ 48.9786539, -17.6554467 ], [ 48.9784878, -17.6553559 ], [ 48.9786306, -17.6541654 ], [ 48.9785878, -17.6536396 ], [ 48.9787394, -17.6530773 ], [ 48.9793381, -17.6528026 ], [ 48.9798449, -17.6523723 ], [ 48.9807317, -17.6511892 ], [ 48.9816396, -17.6497874 ], [ 48.9818572, -17.648808 ], [ 48.981443299999988, -17.6479853 ], [ 48.9808041, -17.6474864 ], [ 48.9804828, -17.6473037 ], [ 48.9801114, -17.6473425 ], [ 48.9797211, -17.6471871 ], [ 48.9787254, -17.6470206 ], [ 48.9782359, -17.6471627 ], [ 48.9777795, -17.6474572 ], [ 48.9776251, -17.6478158 ], [ 48.9772358, -17.6478378 ], [ 48.9772118, -17.6483854 ], [ 48.977085599999981, -17.6485019 ], [ 48.9770915, -17.6489264 ], [ 48.9772037, -17.6493495 ], [ 48.9768784, -17.6495234 ], [ 48.9767245, -17.649916 ], [ 48.9762492, -17.6501258 ], [ 48.9758077, -17.6502164 ], [ 48.9753156, -17.6504944 ], [ 48.9746807, -17.6506893 ], [ 48.9743983, -17.6507608 ], [ 48.974153, -17.6509507 ], [ 48.9737924, -17.6517704 ], [ 48.9730723, -17.6522042 ], [ 48.9719028, -17.6521681 ], [ 48.9714761, -17.6520547 ], [ 48.9706547, -17.6515728 ], [ 48.9702828, -17.6515775 ], [ 48.9700795, -17.6522424 ], [ 48.969854, -17.6525849 ], [ 48.9695307, -17.6526408 ], [ 48.9693279, -17.6529651 ], [ 48.9692432, -17.6532379 ], [ 48.9688, -17.6532096 ], [ 48.9685334, -17.6531451 ], [ 48.9679723, -17.6529145 ], [ 48.9675286, -17.6528522 ], [ 48.9670897, -17.6531295 ], [ 48.9670625, -17.6537242 ], [ 48.9666403, -17.6539334 ], [ 48.9653142, -17.6534578 ], [ 48.9645168, -17.653434 ], [ 48.9641116, -17.653592 ], [ 48.963379, -17.6531258 ], [ 48.9630373, -17.6527566 ], [ 48.9629811, -17.6525366 ], [ 48.9630053, -17.6517212 ], [ 48.9631286, -17.6514879 ], [ 48.9632762, -17.6508177 ], [ 48.9632861, -17.6502572 ], [ 48.963012, -17.6496494 ], [ 48.9626555, -17.6494841 ], [ 48.962598899999989, -17.6492301 ], [ 48.9621859, -17.6488278 ], [ 48.9615097, -17.6485987 ], [ 48.9610002, -17.6488938 ], [ 48.9600297, -17.6489959 ], [ 48.959478, -17.6489641 ], [ 48.959196, -17.6493117 ], [ 48.9587573, -17.6493638 ], [ 48.9585418, -17.6491458 ], [ 48.9585303, -17.6483139 ], [ 48.9585523, -17.6473457 ], [ 48.9584393, -17.6468546 ], [ 48.9581939, -17.6470445 ], [ 48.9580914, -17.6473175 ], [ 48.9577573, -17.6474916 ], [ 48.9575604, -17.6473413 ], [ 48.9572519, -17.6468018 ], [ 48.9569746, -17.6466015 ], [ 48.9566924, -17.64669 ], [ 48.9559848, -17.6467499 ], [ 48.9557926, -17.6469392 ], [ 48.9555696, -17.6474684 ], [ 48.9553429, -17.647726 ], [ 48.9551658, -17.6477282 ], [ 48.9550228, -17.6476282 ], [ 48.954683499999987, -17.6474287 ], [ 48.9544582, -17.6471429 ], [ 48.9544008, -17.6468379 ], [ 48.954320499999987, -17.6469314 ], [ 48.9542521, -17.6465398 ], [ 48.9540271, -17.6460869 ], [ 48.9537401, -17.6459425 ], [ 48.9532666, -17.645858 ], [ 48.9526055, -17.6458663 ], [ 48.9521461, -17.6456608 ], [ 48.9519301, -17.6454709 ], [ 48.9516614, -17.6447613 ], [ 48.9511465, -17.6439527 ], [ 48.9504987, -17.6435366 ], [ 48.9502691, -17.6431185 ], [ 48.9504418, -17.641939 ], [ 48.9502471, -17.6415188 ], [ 48.9491473, -17.6416837 ], [ 48.9487586, -17.6408895 ], [ 48.9490353, -17.640403 ], [ 48.9492477, -17.6398267 ], [ 48.9490497, -17.6391651 ], [ 48.9488537, -17.6390082 ], [ 48.948158299999989, -17.6384518 ], [ 48.9481148, -17.6375769 ], [ 48.9485509, -17.6372393 ], [ 48.9492729, -17.6370792 ], [ 48.9496482, -17.6368933 ], [ 48.950072299999988, -17.6356804 ], [ 48.9502226, -17.6351653 ], [ 48.949931, -17.6345652 ], [ 48.9494505, -17.6339675 ], [ 48.9486014, -17.6328914 ], [ 48.9482513, -17.6326241 ], [ 48.9478102, -17.6325995 ], [ 48.9472403, -17.6323652 ], [ 48.9472378, -17.6321841 ], [ 48.947203, -17.631943 ], [ 48.9476375, -17.6314847 ], [ 48.9480069, -17.6308762 ], [ 48.9477501, -17.6305172 ], [ 48.9472137, -17.6304334 ], [ 48.9466757, -17.6302289 ], [ 48.9464666, -17.6293263 ], [ 48.9464503, -17.6287223 ], [ 48.9465245, -17.6272421 ], [ 48.9466471, -17.626999 ], [ 48.9471998, -17.626922 ], [ 48.9473682, -17.6267786 ], [ 48.9473947, -17.626416 ], [ 48.9472629, -17.625995 ], [ 48.9473806, -17.6253897 ], [ 48.9471573, -17.6251812 ], [ 48.9463729, -17.6253723 ], [ 48.9454846, -17.6251998 ], [ 48.9446072, -17.6251832 ], [ 48.9444535, -17.6254569 ], [ 48.9439814, -17.6254628 ], [ 48.94357260000001, -17.6254982 ], [ 48.9430697, -17.6253489 ], [ 48.9417456, -17.6254306 ], [ 48.9412179, -17.6259807 ], [ 48.9407696, -17.6266125 ], [ 48.940592, -17.6269592 ], [ 48.940257, -17.6270796 ], [ 48.9399397, -17.6269025 ], [ 48.9395263, -17.6266058 ], [ 48.9387742, -17.6264744 ], [ 48.9388101, -17.6260312 ], [ 48.9391643, -17.6257249 ], [ 48.9397627, -17.6250934 ], [ 48.9398798, -17.6244478 ], [ 48.939332, -17.6242937 ], [ 48.9368563, -17.6243652 ], [ 48.9355547, -17.6243413 ], [ 48.934713, -17.6241908 ], [ 48.9334898, -17.6237634 ], [ 48.9327289, -17.6233705 ], [ 48.9325914, -17.6225776 ], [ 48.9323888, -17.6215231 ], [ 48.9317096, -17.6209681 ], [ 48.9311481, -17.6198078 ], [ 48.9309278, -17.6190458 ], [ 48.9306146, -17.6182446 ], [ 48.930610099999988, -17.6177216 ], [ 48.9305999, -17.6165543 ], [ 48.9302581, -17.6161158 ], [ 48.9296255, -17.6158529 ], [ 48.929537, -17.6155613 ], [ 48.9295729, -17.615118 ], [ 48.9295669, -17.6146753 ], [ 48.9295636, -17.613924 ], [ 48.9288863, -17.6135031 ], [ 48.928404, -17.6124042 ], [ 48.9275937, -17.6094109 ], [ 48.9304836, -17.609184 ], [ 48.9306808, -17.6085397 ], [ 48.9306199, -17.6078492 ], [ 48.93071, -17.60691 ], [ 48.9309038, -17.6060189 ], [ 48.9307406, -17.6053791 ], [ 48.9304548, -17.6051852 ], [ 48.9302713, -17.6049406 ], [ 48.9296282, -17.6049733 ], [ 48.9292408, -17.6048795 ], [ 48.9289025, -17.6046121 ], [ 48.928535499999981, -17.604123 ], [ 48.9275273, -17.6038147 ], [ 48.9269822, -17.6034759 ], [ 48.9261556, -17.6033945 ], [ 48.9253828, -17.6032244 ], [ 48.9254028, -17.6028045 ], [ 48.9256551, -17.602431 ], [ 48.9260595, -17.6018829 ], [ 48.926386, -17.6012863 ], [ 48.926733600000013, -17.6003439 ], [ 48.9278258, -17.5992687 ], [ 48.9281029, -17.5988209 ], [ 48.9287402, -17.5983685 ], [ 48.9293261, -17.5979168 ], [ 48.9296597, -17.5978386 ], [ 48.930046, -17.5978585 ], [ 48.9303461, -17.5972128 ], [ 48.9306503, -17.5968634 ], [ 48.9309741, -17.5960694 ], [ 48.9308085, -17.5952568 ], [ 48.9303593, -17.5943984 ], [ 48.929784, -17.5937391 ], [ 48.9291426, -17.5938953 ], [ 48.9286319, -17.5941979 ], [ 48.9281456, -17.5944015 ], [ 48.9270614, -17.5941682 ], [ 48.9265075, -17.5931877 ], [ 48.9261211, -17.5931678 ], [ 48.9253531, -17.5934737 ], [ 48.9249413, -17.5934788 ], [ 48.9239208, -17.5918165 ], [ 48.9245062, -17.5906867 ], [ 48.9250841, -17.588432 ], [ 48.925257, -17.5846806 ], [ 48.9266314, -17.5833569 ], [ 48.9252409, -17.5822433 ], [ 48.9220896, -17.5837691 ], [ 48.9185505, -17.5864231 ], [ 48.9195351, -17.5835382 ], [ 48.9187498, -17.583298 ], [ 48.9175914, -17.5824623 ], [ 48.9168535, -17.5818715 ], [ 48.9167765, -17.5812693 ], [ 48.9168406, -17.5809215 ], [ 48.9170424, -17.580419 ], [ 48.9167729, -17.5797723 ], [ 48.9168061, -17.5783717 ], [ 48.9175826, -17.577962 ], [ 48.9181416, -17.5780006 ], [ 48.918466, -17.577751 ], [ 48.9182528, -17.5774036 ], [ 48.9161081, -17.5768802 ], [ 48.9156817, -17.5761855 ], [ 48.9152531, -17.5753407 ], [ 48.9141016, -17.575005 ], [ 48.913315, -17.5746648 ], [ 48.9117519, -17.5747342 ], [ 48.9089039, -17.5761698 ], [ 48.9034655, -17.5758584 ], [ 48.9018656, -17.5728714 ], [ 48.8988804, -17.5695205 ], [ 48.8990671, -17.5678315 ], [ 48.8986502, -17.5644599 ], [ 48.8970541, -17.5620352 ], [ 48.8942752, -17.5599951 ], [ 48.8918232, -17.557632 ], [ 48.8918168, -17.5571548 ], [ 48.8915119, -17.5566813 ], [ 48.8906487, -17.5566283 ], [ 48.890086199999985, -17.5567307 ], [ 48.8900143, -17.5563179 ], [ 48.889704, -17.5559473 ], [ 48.8892749, -17.5555951 ], [ 48.8888537, -17.5553624 ], [ 48.8884716, -17.5550641 ], [ 48.8880992, -17.5544959 ], [ 48.8880532, -17.5535418 ], [ 48.888041300000012, -17.552651 ], [ 48.8876612, -17.5515102 ], [ 48.8876441, -17.5502376 ], [ 48.8854284, -17.5507421 ], [ 48.8842073, -17.5512026 ], [ 48.8822888, -17.551608 ], [ 48.8808193, -17.5508624 ], [ 48.8802563, -17.5509329 ], [ 48.87909, -17.5505336 ], [ 48.8783583, -17.5503835 ], [ 48.877829299999988, -17.5495232 ], [ 48.8774635, -17.5500825 ], [ 48.877289399999988, -17.5510154 ], [ 48.877932, -17.551634 ], [ 48.878419199999989, -17.5531853 ], [ 48.8778128, -17.5538908 ], [ 48.8774497, -17.554647 ], [ 48.8774004, -17.5551488 ], [ 48.8777833, -17.5558779 ], [ 48.8784554, -17.5573016 ], [ 48.8789672, -17.5579039 ], [ 48.8795108, -17.5580941 ], [ 48.879978, -17.5581421 ], [ 48.8799261, -17.558447 ], [ 48.8799545, -17.5591805 ], [ 48.880233099999984, -17.5604837 ], [ 48.8805924, -17.5608373 ], [ 48.8809161, -17.5614786 ], [ 48.8811707, -17.5622263 ], [ 48.8810659, -17.5627646 ], [ 48.8810798, -17.5638025 ], [ 48.8790978, -17.5649008 ], [ 48.8790265, -17.5651523 ], [ 48.8791102, -17.5653879 ], [ 48.8793671, -17.565506 ], [ 48.8798503, -17.5653569 ], [ 48.880389400000013, -17.5652071 ], [ 48.880615499999983, -17.5653654 ], [ 48.8806006, -17.565652 ], [ 48.8801036, -17.5661593 ], [ 48.8797896, -17.5664006 ], [ 48.8795336, -17.5667975 ], [ 48.8797118, -17.567565 ], [ 48.8794903, -17.5677467 ], [ 48.8790705, -17.5684499 ], [ 48.8784029, -17.5687624 ], [ 48.8778626, -17.5688227 ], [ 48.8775112, -17.5690597 ], [ 48.8773006, -17.5700646 ], [ 48.8769892, -17.570498 ], [ 48.8772181, -17.5708711 ], [ 48.877319699999987, -17.5714963 ], [ 48.8768808, -17.572164 ], [ 48.8767784, -17.5728812 ], [ 48.8772359, -17.5736094 ], [ 48.8778193, -17.5739781 ], [ 48.8785159, -17.574435 ], [ 48.8787099, -17.5749874 ], [ 48.879454, -17.5748172 ], [ 48.8801284, -17.5750058 ], [ 48.8802716, -17.5755441 ], [ 48.8802527, -17.5773312 ], [ 48.8797635, -17.578429 ], [ 48.8780347, -17.5803296 ], [ 48.877026799999989, -17.5816959 ], [ 48.876791, -17.5822243 ], [ 48.8760417, -17.5834148 ], [ 48.8769356, -17.5846746 ], [ 48.8766885, -17.5857337 ], [ 48.8764856, -17.5873113 ], [ 48.8759696, -17.5878009 ], [ 48.8754947, -17.5885764 ], [ 48.8752609, -17.5892415 ], [ 48.8755068, -17.5894891 ], [ 48.8759082, -17.5902001 ], [ 48.8756393, -17.5910267 ], [ 48.875864599999986, -17.5925275 ], [ 48.8759139, -17.5934218 ], [ 48.8757519, -17.5938713 ], [ 48.8760622, -17.5947445 ], [ 48.8760134, -17.5952821 ], [ 48.8753786, -17.5966681 ], [ 48.8751829, -17.5973864 ], [ 48.87551040000001, -17.5981521 ], [ 48.8748109, -17.5988766 ], [ 48.8745576, -17.6006565 ], [ 48.8743775, -17.6019215 ], [ 48.873498800000014, -17.6032527 ], [ 48.873064499999984, -17.604302 ], [ 48.8731486, -17.6058055 ], [ 48.8734127, -17.606139 ], [ 48.8739284, -17.6066557 ], [ 48.8741254, -17.6070218 ], [ 48.8736467, -17.6083528 ], [ 48.8736968, -17.6085009 ], [ 48.874557, -17.6105783 ], [ 48.8747622, -17.6115584 ], [ 48.8746226, -17.6130954 ], [ 48.8743213, -17.6145116 ], [ 48.874425599999988, -17.6151244 ], [ 48.8753322, -17.6158809 ], [ 48.8755305, -17.6163391 ], [ 48.8755682, -17.6167685 ], [ 48.8759298, -17.6174703 ], [ 48.8690934, -17.6234803 ], [ 48.8701261, -17.6240817 ], [ 48.8705925, -17.6245792 ], [ 48.8709035, -17.6247477 ], [ 48.8712319, -17.6253578 ], [ 48.8713734, -17.6263694 ], [ 48.87162679999998, -17.6277028 ], [ 48.8720133, -17.6287259 ], [ 48.8725103, -17.6299787 ], [ 48.8726868, -17.6312048 ], [ 48.8727229, -17.6315114 ], [ 48.8725148, -17.6327114 ], [ 48.871823500000012, -17.6337025 ], [ 48.8717048, -17.6344102 ], [ 48.8716863, -17.6354237 ], [ 48.8716869, -17.6354674 ], [ 48.8716995, -17.6364061 ], [ 48.8719269, -17.636649 ], [ 48.8724777, -17.6371335 ], [ 48.8724223, -17.637779 ], [ 48.8724366, -17.6388535 ], [ 48.8722708, -17.6396339 ], [ 48.8716197, -17.6405753 ], [ 48.8712912, -17.6424885 ], [ 48.870549, -17.642842 ], [ 48.8704574, -17.6441284 ], [ 48.8701062, -17.644879 ], [ 48.8697176, -17.645605 ], [ 48.869147, -17.6459514 ], [ 48.8686602, -17.6472767 ], [ 48.8687334, -17.6481202 ], [ 48.8689257, -17.6492634 ], [ 48.8696575, -17.6503445 ], [ 48.8704515, -17.6508568 ], [ 48.8714288, -17.6511418 ], [ 48.8722096, -17.6511305 ], [ 48.8730726, -17.6516308 ], [ 48.8732133, -17.652223 ], [ 48.8731878, -17.6536234 ], [ 48.8728786, -17.6536696 ], [ 48.8716477, -17.6542787 ], [ 48.8710441, -17.655474 ], [ 48.8706141, -17.6564127 ], [ 48.8702561, -17.6577747 ], [ 48.8692296, -17.658421 ], [ 48.8690824, -17.6593589 ], [ 48.8690802, -17.659994 ], [ 48.8688906, -17.6615674 ], [ 48.8677884, -17.6618779 ], [ 48.867401, -17.6626888 ], [ 48.8676318, -17.6634072 ], [ 48.8683618, -17.6650529 ], [ 48.8685484, -17.6657718 ], [ 48.8675993, -17.6676078 ], [ 48.866952, -17.6688461 ], [ 48.8659949, -17.6700882 ], [ 48.8653839, -17.6707321 ], [ 48.8646781, -17.6716745 ], [ 48.8647479, -17.6728187 ], [ 48.8643116, -17.6732908 ], [ 48.8634569, -17.6742713 ], [ 48.8633153, -17.6749152 ], [ 48.8621023, -17.6768816 ], [ 48.8616235, -17.6774814 ], [ 48.861196, -17.6778983 ], [ 48.8611463, -17.6782085 ], [ 48.8606663, -17.6787235 ], [ 48.860308300000014, -17.6784309 ], [ 48.8596747, -17.677378 ], [ 48.8590876, -17.6764942 ], [ 48.8580631, -17.6759976 ], [ 48.8550862, -17.6717913 ], [ 48.851783, -17.6818189 ], [ 48.8493242, -17.683375 ], [ 48.8476133, -17.6844577 ], [ 48.8444122, -17.6850482 ], [ 48.8385424, -17.6855002 ], [ 48.8351817, -17.6855265 ], [ 48.8306047, -17.6851731 ], [ 48.8287494, -17.68545 ], [ 48.826673299999982, -17.6857721 ], [ 48.8252572, -17.6857892 ], [ 48.8234904, -17.686065 ], [ 48.8215753, -17.6851547 ], [ 48.820096, -17.68373 ], [ 48.819373, -17.6821256 ], [ 48.8192219, -17.6811949 ], [ 48.8195791, -17.678051 ], [ 48.8223475, -17.6765327 ], [ 48.8242242, -17.6745161 ], [ 48.8252219, -17.6729767 ], [ 48.8255239, -17.6723791 ], [ 48.82625, -17.6703762 ], [ 48.8244115, -17.6719258 ], [ 48.823183, -17.6727467 ], [ 48.8222527, -17.672673 ], [ 48.8226448, -17.6722016 ], [ 48.822767, -17.671394 ], [ 48.8226972, -17.6710603 ], [ 48.8226253, -17.6707169 ] ] ] } }
]
}
