{
"type": "FeatureCollection",
"name": "MDG-5035-NODATE-secondary_zoning-001",
"crs": { "type": "name", "properties": { "name": "urn:ogc:def:crs:OGC:1.3:CRS84" } },
"features": [
{ "type": "Feature", "properties": { }, "geometry": { "type": "MultiPolygon", "coordinates": [ [ [ [ 48.675117399999984, -16.5318279 ], [ 48.675213299999989, -16.5317293 ], [ 48.6753129, -16.5315149 ], [ 48.6753773, -16.5312024 ], [ 48.6750682, -16.5251799 ], [ 48.7017402, -16.4957335 ], [ 48.702297, -16.4940583 ], [ 48.7546818, -16.4144241 ], [ 48.7570388, -16.4121072 ], [ 48.7570642, -16.4118287 ], [ 48.7569744, -16.4116385 ], [ 48.7564394, -16.4115189 ], [ 48.7540699, -16.409297 ], [ 48.7514912, -16.4080698 ], [ 48.7501669, -16.4061753 ], [ 48.7489516, -16.4014405 ], [ 48.75008, -16.3978854 ], [ 48.7501042, -16.3977344 ], [ 48.750089499999987, -16.3975964 ], [ 48.747922, -16.3928326 ], [ 48.7472747, -16.3903901 ], [ 48.7457408, -16.389802 ], [ 48.744839299999988, -16.3883765 ], [ 48.7307902, -16.3731297 ], [ 48.7266226, -16.3798668 ], [ 48.712689, -16.3900829 ], [ 48.6706454, -16.4029385 ], [ 48.6545099, -16.493488 ], [ 48.6514746, -16.5107191 ], [ 48.6744973, -16.5316058 ], [ 48.6747546, -16.5317835 ], [ 48.6749595, -16.5318469 ], [ 48.675117399999984, -16.5318279 ] ] ], [ [ [ 48.792721, -16.3194562 ], [ 48.7929623, -16.3188999 ], [ 48.792745, -16.3179275 ], [ 48.7946703, -16.3135355 ], [ 48.796148, -16.3124545 ], [ 48.7975546, -16.3108736 ], [ 48.7980524, -16.3091778 ], [ 48.7956411, -16.3028204 ], [ 48.795088199999981, -16.3000099 ], [ 48.7947359, -16.2976978 ], [ 48.7944019, -16.2968879 ], [ 48.7958733, -16.2953062 ], [ 48.8010762, -16.294487 ], [ 48.8017757, -16.2939923 ], [ 48.8023292, -16.2932293 ], [ 48.8018574, -16.292434 ], [ 48.7990155, -16.2908117 ], [ 48.7987297, -16.290391 ], [ 48.7992951, -16.288959 ], [ 48.7994196, -16.2885052 ], [ 48.7988801, -16.2879904 ], [ 48.7958324, -16.2866683 ], [ 48.7845195, -16.2668337 ], [ 48.7754459, -16.2572776 ], [ 48.7752468, -16.2571133 ], [ 48.7750702, -16.2570928 ], [ 48.7748772, -16.2571174 ], [ 48.7747065, -16.2572622 ], [ 48.7744882, -16.2575503 ], [ 48.76508410000001, -16.2696128 ], [ 48.7371979, -16.3426398 ], [ 48.7369747, -16.3536782 ], [ 48.7362304, -16.3709738 ], [ 48.7349911, -16.3715309 ], [ 48.7311491, -16.3728929 ], [ 48.7451637, -16.3884109 ], [ 48.7458526, -16.3896204 ], [ 48.7463271, -16.3898234 ], [ 48.7468287, -16.3900326 ], [ 48.7472218, -16.3901975 ], [ 48.7474502, -16.3903029 ], [ 48.7481206, -16.3928304 ], [ 48.7504557, -16.397743 ], [ 48.750457200000014, -16.3978686 ], [ 48.7492773, -16.4014746 ], [ 48.7504391, -16.4060843 ], [ 48.7516967, -16.4078414 ], [ 48.7541575, -16.4090071 ], [ 48.7565934, -16.4113413 ], [ 48.75675, -16.4113772 ], [ 48.7569449, -16.4113499 ], [ 48.7570352, -16.411286 ], [ 48.7572052, -16.4110897 ], [ 48.7668099, -16.3888303 ], [ 48.7793193, -16.3293446 ], [ 48.7798297, -16.3269169 ], [ 48.781545, -16.3241241 ], [ 48.7815303, -16.3229141 ], [ 48.7825389, -16.3221211 ], [ 48.7846212, -16.3215932 ], [ 48.7868051, -16.3229802 ], [ 48.7871863, -16.3242617 ], [ 48.7875316, -16.32433 ], [ 48.7883356, -16.3241261 ], [ 48.792721, -16.3194562 ] ] ] ] } }
]
}
