{
"type": "FeatureCollection",
"name": "MDG-555697890-NODATE-secondary_zoning-001",
"crs": { "type": "name", "properties": { "name": "urn:ogc:def:crs:OGC:1.3:CRS84" } },
"features": [
{ "type": "Feature", "properties": { }, "geometry": { "type": "Polygon", "coordinates": [ [ [ 48.6258876, -17.6186724 ], [ 48.6260689, -17.6190576 ], [ 48.6263203, -17.6189822 ], [ 48.6273759, -17.6186318 ], [ 48.6284599, -17.6185472 ], [ 48.6285072, -17.6182805 ], [ 48.6304522, -17.6184526 ], [ 48.6313883, -17.61866 ], [ 48.6311929, -17.6191945 ], [ 48.6301344, -17.619303 ], [ 48.6296835, -17.6195742 ], [ 48.6291797, -17.6196523 ], [ 48.6290547, -17.6197657 ], [ 48.6295504, -17.6198046 ], [ 48.6302827, -17.6200272 ], [ 48.630727400000012, -17.6201185 ], [ 48.6315197, -17.6200038 ], [ 48.6319555, -17.6201327 ], [ 48.6323315, -17.6207271 ], [ 48.6327569, -17.6210363 ], [ 48.6331772, -17.6210106 ], [ 48.6333396, -17.6207869 ], [ 48.6336491, -17.6202356 ], [ 48.633978, -17.6201276 ], [ 48.638112, -17.6185316 ], [ 48.6388031, -17.6162548 ], [ 48.6379266, -17.614716 ], [ 48.6375255, -17.6148331 ], [ 48.636502, -17.615506 ], [ 48.6363479, -17.6156288 ], [ 48.6356223, -17.6156902 ], [ 48.6351877, -17.6156658 ], [ 48.6346011, -17.6158024 ], [ 48.6340731, -17.6155733 ], [ 48.6336094, -17.6157238 ], [ 48.6330681, -17.6163079 ], [ 48.632071300000014, -17.6164231 ], [ 48.6314888, -17.616241 ], [ 48.6315532, -17.6156591 ], [ 48.6322657, -17.6149776 ], [ 48.6326259, -17.6147885 ], [ 48.632975, -17.6143564 ], [ 48.6325173, -17.6139291 ], [ 48.63206, -17.613668 ], [ 48.6314221, -17.6137758 ], [ 48.6308269, -17.6140454 ], [ 48.6304833, -17.6147501 ], [ 48.6298942, -17.6152752 ], [ 48.629432, -17.6162367 ], [ 48.6288277, -17.6167239 ], [ 48.6282878, -17.6169258 ], [ 48.6277429, -17.6171251 ], [ 48.6271456, -17.617228 ], [ 48.6269011, -17.617269 ], [ 48.6265512, -17.6172011 ], [ 48.6256949, -17.6171471 ], [ 48.6252421, -17.6168606 ], [ 48.6266607, -17.6179138 ], [ 48.6258876, -17.6186724 ] ] ] } }
]
}
