{
"type": "FeatureCollection",
"name": "MDG-555697893-NODATE-secondary_zoning-001",
"crs": { "type": "name", "properties": { "name": "urn:ogc:def:crs:OGC:1.3:CRS84" } },
"features": [
{ "type": "Feature", "properties": { }, "geometry": { "type": "MultiPolygon", "coordinates": [ [ [ [ 49.9475255, -14.1827776 ], [ 49.950458200000014, -14.1827164 ], [ 49.9531151, -14.1812295 ], [ 49.9522878, -14.176953 ], [ 49.9539566, -14.1750097 ], [ 49.9556149, -14.1725896 ], [ 49.9545275, -14.1676028 ], [ 49.9539603, -14.1640364 ], [ 49.9512199, -14.1617081 ], [ 49.9460359, -14.1594307 ], [ 49.9421729, -14.1616582 ], [ 49.9375454, -14.1624702 ], [ 49.937374, -14.1658135 ], [ 49.9342283, -14.1673103 ], [ 49.9355232, -14.1706231 ], [ 49.9353309, -14.1730126 ], [ 49.9324139, -14.173789 ], [ 49.9329704, -14.1768786 ], [ 49.9361788, -14.1782432 ], [ 49.9362258, -14.1803892 ], [ 49.9382279, -14.1824944 ], [ 49.9365798, -14.1853914 ], [ 49.9400014, -14.1853201 ], [ 49.9429133, -14.1843052 ], [ 49.9475255, -14.1827776 ] ], [ [ 49.949172099999984, -14.1744169 ], [ 49.9489643, -14.1743615 ], [ 49.9488773, -14.1743999 ], [ 49.9487661, -14.1744716 ], [ 49.9486428, -14.1744791 ], [ 49.9485542, -14.1743739 ], [ 49.9486151, -14.1742607 ], [ 49.9486441, -14.1741797 ], [ 49.9486346, -14.1740662 ], [ 49.9486914, -14.1739742 ], [ 49.9486868, -14.1739156 ], [ 49.9487774, -14.1738427 ], [ 49.9488607, -14.1737781 ], [ 49.9489157, -14.1736807 ], [ 49.9490203, -14.1735841 ], [ 49.949019, -14.1735015 ], [ 49.9490766, -14.1734101 ], [ 49.9491453, -14.1733284 ], [ 49.9492558, -14.1734284 ], [ 49.949276, -14.1735656 ], [ 49.9493656, -14.1736427 ], [ 49.9494656, -14.1736373 ], [ 49.9494947, -14.1737321 ], [ 49.949541499999988, -14.1739085 ], [ 49.9496795, -14.173998 ], [ 49.9497876, -14.1740959 ], [ 49.9499164, -14.174135 ], [ 49.9499764, -14.1741776 ], [ 49.950019, -14.1742079 ], [ 49.950123, -14.1742817 ], [ 49.9501661, -14.1744364 ], [ 49.9500878, -14.1745591 ], [ 49.9501006, -14.1746802 ], [ 49.9501588, -14.1747261 ], [ 49.9502229, -14.1748433 ], [ 49.9502135, -14.1749831 ], [ 49.9501946, -14.1751112 ], [ 49.9501678, -14.1752073 ], [ 49.9500337, -14.1752402 ], [ 49.9498667, -14.1750773 ], [ 49.9498253, -14.1749638 ], [ 49.9498115, -14.1748739 ], [ 49.9497495, -14.1747789 ], [ 49.9496749, -14.1747414 ], [ 49.9495612, -14.1747476 ], [ 49.9494211, -14.1747694 ], [ 49.9493156, -14.1746819 ], [ 49.9493008, -14.1746051 ], [ 49.9492096, -14.1745038 ], [ 49.949172099999984, -14.1744169 ] ] ], [ [ [ 49.963281299999984, -14.1542998 ], [ 49.9661874, -14.1530463 ], [ 49.9698842, -14.1544002 ], [ 49.9723015, -14.1531569 ], [ 49.9741987, -14.1504932 ], [ 49.9766054, -14.1487729 ], [ 49.974863500000012, -14.1473782 ], [ 49.9738389, -14.1452528 ], [ 49.9711197, -14.1438784 ], [ 49.9691387, -14.1427272 ], [ 49.966684799999982, -14.1423014 ], [ 49.9642623, -14.1433062 ], [ 49.9633477, -14.1461879 ], [ 49.9626565, -14.1481107 ], [ 49.9614609, -14.1493284 ], [ 49.9600104, -14.1500743 ], [ 49.958544300000014, -14.1501049 ], [ 49.9573852, -14.1529917 ], [ 49.9555297, -14.1575628 ], [ 49.9587431, -14.1591656 ], [ 49.9618727, -14.1569532 ], [ 49.963281299999984, -14.1542998 ] ] ], [ [ [ 49.9295744, -14.1445057 ], [ 49.9310302, -14.1439984 ], [ 49.9319868, -14.1430243 ], [ 49.9319452, -14.1411167 ], [ 49.9306767, -14.138996 ], [ 49.929169, -14.1371189 ], [ 49.9267462, -14.1381233 ], [ 49.9238451, -14.1396148 ], [ 49.9214067, -14.1399039 ], [ 49.9184588, -14.1392493 ], [ 49.9150119, -14.1381278 ], [ 49.9135664, -14.1391119 ], [ 49.9118559, -14.1391473 ], [ 49.9091989, -14.1406336 ], [ 49.9067605, -14.1409225 ], [ 49.9050706, -14.1419117 ], [ 49.9036251, -14.1428958 ], [ 49.9046387, -14.1445448 ], [ 49.90272, -14.1462543 ], [ 49.9010248, -14.147005 ], [ 49.900068, -14.147979 ], [ 49.9015653, -14.1493795 ], [ 49.902833699999988, -14.1515004 ], [ 49.9021419, -14.1534232 ], [ 49.9019389, -14.1553359 ], [ 49.9017308, -14.1570101 ], [ 49.9022609, -14.1589077 ], [ 49.9034777, -14.158644 ], [ 49.90445, -14.1583854 ], [ 49.9036807, -14.1567313 ], [ 49.903863, -14.1538648 ], [ 49.9052982, -14.1524037 ], [ 49.9072377, -14.151648 ], [ 49.9096659, -14.1508821 ], [ 49.9108412, -14.1487107 ], [ 49.9132538, -14.1472295 ], [ 49.9139765, -14.1467374 ], [ 49.9159315, -14.1466969 ], [ 49.9174288, -14.1480973 ], [ 49.9184633, -14.1507 ], [ 49.9201999, -14.1518568 ], [ 49.9221289, -14.1506241 ], [ 49.9233144, -14.1489296 ], [ 49.9252382, -14.1474583 ], [ 49.9264444, -14.1467176 ], [ 49.9286229, -14.1457182 ], [ 49.9295744, -14.1445057 ] ] ], [ [ [ 49.9517465, -14.1072841 ], [ 49.951294, -14.1089645 ], [ 49.9503317, -14.1097007 ], [ 49.9495983, -14.1097159 ], [ 49.9483498, -14.1085483 ], [ 49.9475747, -14.1066547 ], [ 49.9487607, -14.1049591 ], [ 49.9504408, -14.1034919 ], [ 49.9494316, -14.1020806 ], [ 49.9474654, -14.101644 ], [ 49.9455252, -14.1024005 ], [ 49.9445837, -14.104091 ], [ 49.942888, -14.1048424 ], [ 49.942425, -14.1060455 ], [ 49.943933499999986, -14.1079239 ], [ 49.9444589, -14.109584 ], [ 49.9445057, -14.1117315 ], [ 49.9430804, -14.1136708 ], [ 49.9448387, -14.1157827 ], [ 49.9465762, -14.1169401 ], [ 49.9467272, -14.1172004 ], [ 49.9468174, -14.117215 ], [ 49.947078, -14.1172915 ], [ 49.9472464, -14.1173447 ], [ 49.9473764, -14.1173828 ], [ 49.9473219, -14.117713 ], [ 49.9472096, -14.1177476 ], [ 49.9470345, -14.1177301 ], [ 49.9483554, -14.1200064 ], [ 49.9471537, -14.1209863 ], [ 49.9459729, -14.1229205 ], [ 49.9470187, -14.1260021 ], [ 49.9494897, -14.1271442 ], [ 49.9519191, -14.1263775 ], [ 49.9536254, -14.1261032 ], [ 49.9543119, -14.1239405 ], [ 49.9555031, -14.1224835 ], [ 49.9561844, -14.1200822 ], [ 49.956886499999989, -14.1186353 ], [ 49.9563558, -14.1167366 ], [ 49.9562932, -14.1138734 ], [ 49.9569745, -14.1114721 ], [ 49.9579002, -14.1090657 ], [ 49.960064, -14.1073497 ], [ 49.9585763, -14.1064259 ], [ 49.9568545, -14.1059843 ], [ 49.9544201, -14.1065124 ], [ 49.952708800000011, -14.106548 ], [ 49.9517465, -14.1072841 ] ] ], [ [ [ 50.050173799999989, -14.1062303 ], [ 50.0502887, -14.1044078 ], [ 50.0483977, -14.1032345 ], [ 50.0485193, -14.1017152 ], [ 50.049751799999989, -14.1012341 ], [ 50.0501739, -14.0992534 ], [ 50.0499613, -14.0966795 ], [ 50.0480771, -14.0958094 ], [ 50.0454332, -14.0957137 ], [ 50.0423199, -14.0954763 ], [ 50.0420294, -14.0963925 ], [ 50.040493, -14.0971833 ], [ 50.0383251, -14.0975325 ], [ 50.0367651, -14.0972622 ], [ 50.0353402, -14.0960789 ], [ 50.0341076, -14.09656 ], [ 50.0324057, -14.0968993 ], [ 50.0310145, -14.097232 ], [ 50.028853299999987, -14.0978843 ], [ 50.0288835, -14.0992488 ], [ 50.030771, -14.1002707 ], [ 50.0329591, -14.1008311 ], [ 50.0346914, -14.1018563 ], [ 50.0341003, -14.1032338 ], [ 50.0353699, -14.1044204 ], [ 50.0358763, -14.1062298 ], [ 50.0369489, -14.1059198 ], [ 50.0369692, -14.1059058 ], [ 50.0369882, -14.1059084 ], [ 50.0389855, -14.1053311 ], [ 50.0387611, -14.1051297 ], [ 50.0388007, -14.1049355 ], [ 50.0389157, -14.1047844 ], [ 50.0388523, -14.1045744 ], [ 50.038605399999987, -14.1044837 ], [ 50.0385874, -14.104635 ], [ 50.038472, -14.1046437 ], [ 50.0383897, -14.1044039 ], [ 50.037930400000015, -14.1041884 ], [ 50.0381458, -14.1040235 ], [ 50.0384516, -14.1036018 ], [ 50.0388243, -14.1037434 ], [ 50.0392899, -14.1038241 ], [ 50.0395311, -14.1038313 ], [ 50.0397716, -14.1038672 ], [ 50.039876, -14.1038655 ], [ 50.0400894, -14.1033811 ], [ 50.0401327, -14.1029703 ], [ 50.0400514, -14.1029263 ], [ 50.0399051, -14.1027588 ], [ 50.039835, -14.1025159 ], [ 50.0399302, -14.1023753 ], [ 50.0399768, -14.1022308 ], [ 50.0398664, -14.1020148 ], [ 50.0399633, -14.1018693 ], [ 50.0400619, -14.1017062 ], [ 50.0399335, -14.1015499 ], [ 50.039779, -14.1013743 ], [ 50.0399027, -14.1012754 ], [ 50.039989500000011, -14.101206 ], [ 50.0399941, -14.1012024 ], [ 50.040312099999987, -14.101214 ], [ 50.0403578, -14.1014395 ], [ 50.0403826, -14.1017648 ], [ 50.0404828, -14.1020584 ], [ 50.040485, -14.1021819 ], [ 50.0402773, -14.1023299 ], [ 50.0403292, -14.1024482 ], [ 50.040523199999981, -14.102474 ], [ 50.0406488, -14.1027305 ], [ 50.040623, -14.1030403 ], [ 50.0407412, -14.1033035 ], [ 50.0407308, -14.1036026 ], [ 50.0402519, -14.1036888 ], [ 50.0401101, -14.1038437 ], [ 50.0401479, -14.1040569 ], [ 50.0400266, -14.1042608 ], [ 50.0398464, -14.1044026 ], [ 50.0398063, -14.104635 ], [ 50.0400042, -14.1048547 ], [ 50.0398922, -14.1049044 ], [ 50.039649, -14.1046988 ], [ 50.0396057, -14.1046969 ], [ 50.0394801, -14.1048167 ], [ 50.0394658, -14.1050988 ], [ 50.0394606, -14.1052026 ], [ 50.039373, -14.1053408 ], [ 50.0408605, -14.106731 ], [ 50.0415324, -14.1089919 ], [ 50.044163, -14.1084811 ], [ 50.0458717, -14.1084449 ], [ 50.0477425, -14.1087086 ], [ 50.0496166, -14.1091239 ], [ 50.0505318, -14.1083461 ], [ 50.050173799999989, -14.1062303 ] ], [ [ 50.047414599999989, -14.1008646 ], [ 50.0476088, -14.1008403 ], [ 50.0477544, -14.1010829 ], [ 50.0476574, -14.1012285 ], [ 50.0476332, -14.101447 ], [ 50.0475604, -14.1016411 ], [ 50.0472692, -14.101811 ], [ 50.0469537, -14.1017383 ], [ 50.0468081, -14.1017141 ], [ 50.0466867, -14.1013986 ], [ 50.0469294, -14.1013985 ], [ 50.0471963, -14.10135 ], [ 50.0472691, -14.1012043 ], [ 50.0472933, -14.1009859 ], [ 50.047414599999989, -14.1008646 ] ], [ [ 50.0419094, -14.100337 ], [ 50.0418821, -14.1004462 ], [ 50.0417047, -14.1004872 ], [ 50.0415818, -14.1005282 ], [ 50.0413361, -14.1005692 ], [ 50.0412269, -14.1005146 ], [ 50.0410631, -14.1005146 ], [ 50.041035799999989, -14.1004327 ], [ 50.0411723, -14.1002689 ], [ 50.0413224, -14.1000914 ], [ 50.0414862, -14.0999139 ], [ 50.0416227, -14.1000641 ], [ 50.041827499999989, -14.1000231 ], [ 50.041923, -14.100105 ], [ 50.041923, -14.1002142 ], [ 50.0419094, -14.100337 ] ], [ [ 50.038398, -14.1003673 ], [ 50.038297, -14.1005264 ], [ 50.038184, -14.100688 ], [ 50.0381576, -14.1007181 ], [ 50.0380386, -14.1008473 ], [ 50.0379287, -14.1008977 ], [ 50.0377706, -14.1008003 ], [ 50.0376376, -14.1007559 ], [ 50.0376629, -14.1006433 ], [ 50.0377417, -14.1004805 ], [ 50.0377658, -14.1002503 ], [ 50.0377541, -14.100069 ], [ 50.037819299999981, -14.0998366 ], [ 50.0379284, -14.0997126 ], [ 50.037964, -14.0995533 ], [ 50.038084, -14.0995316 ], [ 50.0382561, -14.0994618 ], [ 50.038276, -14.0994795 ], [ 50.0384527, -14.0996242 ], [ 50.038491, -14.099628 ], [ 50.0385775, -14.0997036 ], [ 50.0385582, -14.0999103 ], [ 50.038602, -14.1000222 ], [ 50.0385158, -14.1002513 ], [ 50.038398, -14.1003673 ] ], [ [ 50.0347913, -14.101064 ], [ 50.0346503, -14.1009464 ], [ 50.0345001, -14.100746 ], [ 50.0344888, -14.1005076 ], [ 50.034552, -14.1002625 ], [ 50.034549899999988, -14.100031 ], [ 50.0346608, -14.0997898 ], [ 50.0347944, -14.0995846 ], [ 50.0349018, -14.0993919 ], [ 50.0349745, -14.0992537 ], [ 50.0349845, -14.099235 ], [ 50.0350357, -14.0991394 ], [ 50.035174, -14.098881 ], [ 50.0355434, -14.0990519 ], [ 50.0360753, -14.0992111 ], [ 50.0363799, -14.0997347 ], [ 50.036534, -14.0998404 ], [ 50.0365993, -14.100101 ], [ 50.0365878, -14.1001936 ], [ 50.0365251, -14.1003997 ], [ 50.036446, -14.1005055 ], [ 50.0362546, -14.1005887 ], [ 50.0360833, -14.1006624 ], [ 50.0360652, -14.100661 ], [ 50.0357141, -14.1006444 ], [ 50.0356903, -14.1006419 ], [ 50.0355011, -14.1006114 ], [ 50.03542, -14.1006274 ], [ 50.035469, -14.100775 ], [ 50.035469, -14.1008979 ], [ 50.0352351, -14.100901 ], [ 50.0351178, -14.1009732 ], [ 50.03493610000001, -14.1009636 ], [ 50.0348826, -14.1009811 ], [ 50.0347913, -14.101064 ] ], [ [ 50.0449943, -14.0993809 ], [ 50.0449671, -14.0995311 ], [ 50.0449534, -14.0996266 ], [ 50.0448716, -14.0997768 ], [ 50.0448579, -14.0998723 ], [ 50.0446259, -14.0998724 ], [ 50.0444757, -14.0998861 ], [ 50.0443665, -14.0998861 ], [ 50.044271, -14.099968 ], [ 50.0441618, -14.100009 ], [ 50.0440662, -14.0999953 ], [ 50.0439706, -14.0999817 ], [ 50.043847799999988, -14.0999681 ], [ 50.0436976, -14.0999681 ], [ 50.0435611, -14.1000091 ], [ 50.0434656, -14.100132 ], [ 50.043342700000011, -14.1001456 ], [ 50.0433837, -14.1000501 ], [ 50.043411, -14.0999545 ], [ 50.043451900000015, -14.0998453 ], [ 50.0435747, -14.0997497 ], [ 50.0436976, -14.0996405 ], [ 50.0438204, -14.0996268 ], [ 50.0440798, -14.0996131 ], [ 50.0441344, -14.0995449 ], [ 50.0442436, -14.0994902 ], [ 50.0443118, -14.099422 ], [ 50.04438, -14.0993264 ], [ 50.0445165, -14.0992308 ], [ 50.0447076, -14.0992308 ], [ 50.044830499999989, -14.0992035 ], [ 50.0449943, -14.099258 ], [ 50.0449943, -14.0993809 ] ], [ [ 50.0474441, -14.0963773 ], [ 50.0475123, -14.0962681 ], [ 50.0475942, -14.0961043 ], [ 50.0477307, -14.0959131 ], [ 50.0478535, -14.0959131 ], [ 50.0479764, -14.0959131 ], [ 50.0481402, -14.0960086 ], [ 50.0482358, -14.0961042 ], [ 50.0482495, -14.096227 ], [ 50.0482222, -14.0963362 ], [ 50.0480857, -14.0964455 ], [ 50.0479219, -14.0965274 ], [ 50.047812699999987, -14.0966366 ], [ 50.0476762, -14.0965957 ], [ 50.0474987, -14.0965138 ], [ 50.0474441, -14.0963773 ] ] ], [ [ [ 50.0046009, -14.097485 ], [ 50.0070863, -14.0974328 ], [ 50.0094163, -14.0973838 ], [ 50.0116212, -14.0987025 ], [ 50.0095315, -14.0955612 ], [ 50.0081067, -14.0943777 ], [ 50.0055913, -14.0930654 ], [ 50.0040179, -14.0921884 ], [ 50.0018332, -14.0917792 ], [ 50.0007558, -14.0922569 ], [ 49.9992058, -14.0924411 ], [ 49.9989085, -14.093054 ], [ 49.9994079, -14.0945604 ], [ 50.000988, -14.0957407 ], [ 50.002710099999987, -14.0963112 ], [ 50.0046009, -14.097485 ] ] ], [ [ [ 50.0085642, -14.0869358 ], [ 50.0070796, -14.0863144 ], [ 50.0070007, -14.086343 ], [ 50.0065003, -14.0863967 ], [ 50.0065447, -14.0860497 ], [ 50.0060522, -14.0857751 ], [ 50.0051269, -14.0860979 ], [ 50.0046843, -14.0871689 ], [ 50.0053256, -14.0880655 ], [ 50.0067537, -14.0894007 ], [ 50.0086377, -14.0902712 ], [ 50.0092825, -14.0913194 ], [ 50.0108659, -14.0926512 ], [ 50.0116828, -14.0944542 ], [ 50.0138641, -14.0947117 ], [ 50.0142732, -14.0944784 ], [ 50.0142858, -14.094459 ], [ 50.0143111, -14.0944568 ], [ 50.0152454, -14.0939242 ], [ 50.0157281, -14.0946724 ], [ 50.0172781, -14.0944881 ], [ 50.0170993, -14.0934301 ], [ 50.0167753, -14.0928303 ], [ 50.0147425, -14.0922663 ], [ 50.0138005, -14.0918311 ], [ 50.0133044, -14.0904764 ], [ 50.011893, -14.0898994 ], [ 50.0123456, -14.0892832 ], [ 50.0117009, -14.088235 ], [ 50.0099688, -14.0872096 ], [ 50.0085642, -14.0869358 ] ] ] ] } }
]
}
