{
"type": "FeatureCollection",
"name": "MDG-5037-NODATE-secondary_zoning-001",
"crs": { "type": "name", "properties": { "name": "urn:ogc:def:crs:OGC:1.3:CRS84" } },
"features": [
{ "type": "Feature", "properties": { }, "geometry": { "type": "MultiPolygon", "coordinates": [ [ [ [ 49.301622900000012, -16.7226793 ], [ 49.2913446, -16.7179569 ], [ 49.2830204, -16.7158045 ], [ 49.278972, -16.7064429 ], [ 49.2752327, -16.7060123 ], [ 49.2599541, -16.7004566 ], [ 49.2589985, -16.7104848 ], [ 49.2522354, -16.7157573 ], [ 49.2457867, -16.7210125 ], [ 49.2393975, -16.7199014 ], [ 49.2413421, -16.7360128 ], [ 49.2402309, -16.7437907 ], [ 49.2424673, -16.7493238 ], [ 49.2460125, -16.7577513 ], [ 49.2504651, -16.7595712 ], [ 49.2538979, -16.7596744 ], [ 49.2572643, -16.7627054 ], [ 49.2583165, -16.7657813 ], [ 49.258129199999985, -16.772331 ], [ 49.258331800000015, -16.7734785 ], [ 49.259891, -16.7754539 ], [ 49.2647463, -16.7767183 ], [ 49.2674347, -16.778293 ], [ 49.2685253, -16.7819388 ], [ 49.2674917, -16.7839191 ], [ 49.2658115, -16.7853043 ], [ 49.2631553, -16.7859114 ], [ 49.2625707, -16.7867186 ], [ 49.2668989, -16.7943472 ], [ 49.2801854, -16.787888 ], [ 49.2860665, -16.7807359 ], [ 49.2785662, -16.7590688 ], [ 49.2849554, -16.7429574 ], [ 49.2971782, -16.739624 ], [ 49.3013219, -16.7306186 ], [ 49.301622900000012, -16.7226793 ] ] ], [ [ [ 49.0461573, -16.7713557 ], [ 49.0455641, -16.7718406 ], [ 49.0451061, -16.772215 ], [ 49.0438502, -16.7730548 ], [ 49.0438386, -16.7733197 ], [ 49.0440722, -16.7736403 ], [ 49.0445609, -16.7747669 ], [ 49.0454949, -16.7760642 ], [ 49.0458765, -16.7771656 ], [ 49.0456608, -16.7781393 ], [ 49.0455685, -16.7791996 ], [ 49.0458777, -16.7795089 ], [ 49.0462075, -16.7801359 ], [ 49.0464134, -16.7806776 ], [ 49.0465105, -16.7810735 ], [ 49.0466672, -16.7813658 ], [ 49.0472468, -16.7817585 ], [ 49.047965, -16.7817935 ], [ 49.048578, -16.7819475 ], [ 49.0488488, -16.7827678 ], [ 49.0493624, -16.7834674 ], [ 49.0498798, -16.7844464 ], [ 49.0507008, -16.7852891 ], [ 49.0513172, -16.7856932 ], [ 49.0519833, -16.7857141 ], [ 49.0528414, -16.7859238 ], [ 49.053504799999985, -16.7864154 ], [ 49.05457650000001, -16.7868328 ], [ 49.0556027, -16.787055 ], [ 49.0564886, -16.7868799 ], [ 49.0571174, -16.7875923 ], [ 49.0577971, -16.7864102 ], [ 49.0596982, -16.7854639 ], [ 49.063876, -16.7855779 ], [ 49.0674171, -16.7836885 ], [ 49.0694689, -16.781064 ], [ 49.0695268, -16.7789679 ], [ 49.070813, -16.7776103 ], [ 49.0728033, -16.7768304 ], [ 49.0800301, -16.7772401 ], [ 49.0881214, -16.7784067 ], [ 49.098637, -16.7782703 ], [ 49.107294, -16.777959 ], [ 49.113827, -16.7755393 ], [ 49.1140138, -16.7810313 ], [ 49.1123401, -16.7857466 ], [ 49.1105787, -16.7924745 ], [ 49.1108846, -16.7977227 ], [ 49.1085509, -16.8050168 ], [ 49.1088903, -16.8101511 ], [ 49.1092052, -16.8149141 ], [ 49.1095422, -16.8144466 ], [ 49.1102347, -16.8141861 ], [ 49.1110188, -16.8142596 ], [ 49.1110318, -16.8151814 ], [ 49.1111306, -16.8160182 ], [ 49.1124359, -16.8159954 ], [ 49.1136608, -16.816488 ], [ 49.1150445, -16.8158832 ], [ 49.115724, -16.814701 ], [ 49.1169396, -16.8145174 ], [ 49.1180706, -16.8145026 ], [ 49.1188066, -16.8158842 ], [ 49.1191549, -16.817338 ], [ 49.120467, -16.8178236 ], [ 49.1211033, -16.8197429 ], [ 49.1204286, -16.8212604 ], [ 49.1213199, -16.8227572 ], [ 49.1213792, -16.826947 ], [ 49.1220084, -16.8283635 ], [ 49.1212408, -16.8294631 ], [ 49.1216607, -16.8313737 ], [ 49.1212166, -16.8339054 ], [ 49.1237624, -16.8354643 ], [ 49.1259222, -16.8343464 ], [ 49.1287483, -16.8311245 ], [ 49.1295922, -16.8292695 ], [ 49.1315815, -16.8284052 ], [ 49.132964, -16.8277166 ], [ 49.1333955, -16.8274594 ], [ 49.1335362, -16.8251109 ], [ 49.1346625, -16.8247608 ], [ 49.135287, -16.8258421 ], [ 49.1381653, -16.826307 ], [ 49.1395574, -16.8262886 ], [ 49.1406062, -16.8269014 ], [ 49.1412092, -16.826183 ], [ 49.1419089, -16.8264252 ], [ 49.1427707, -16.8241281 ], [ 49.1435213, -16.8235543 ], [ 49.1440135, -16.8214526 ], [ 49.1441063, -16.8205679 ], [ 49.1472469, -16.8224155 ], [ 49.150832, -16.8236251 ], [ 49.1535291, -16.8235893 ], [ 49.1536767, -16.8217436 ], [ 49.1551485, -16.8212212 ], [ 49.1570337, -16.8191847 ], [ 49.1581379, -16.8160751 ], [ 49.1591071, -16.8133456 ], [ 49.1582601, -16.8097703 ], [ 49.1565784, -16.8056137 ], [ 49.1535448, -16.8003572 ], [ 49.1534586, -16.794324 ], [ 49.153301, -16.7893813 ], [ 49.1527179, -16.7863729 ], [ 49.1490527, -16.7843252 ], [ 49.1443304, -16.7826276 ], [ 49.140217299999989, -16.7818728 ], [ 49.1398153, -16.7771389 ], [ 49.1387787, -16.7715373 ], [ 49.1365103, -16.7649461 ], [ 49.1353107, -16.7601008 ], [ 49.1344839, -16.7570107 ], [ 49.1293967, -16.7540603 ], [ 49.1267497, -16.7514131 ], [ 49.1244387, -16.7499278 ], [ 49.1265163, -16.7472088 ], [ 49.1292437, -16.7432339 ], [ 49.1308835, -16.7390942 ], [ 49.1267142, -16.7378193 ], [ 49.1184288, -16.7362515 ], [ 49.1102375, -16.735185 ], [ 49.1015268, -16.7342926 ], [ 49.093826, -16.7350108 ], [ 49.0909053, -16.7335922 ], [ 49.0881778, -16.7313645 ], [ 49.0863212, -16.7292094 ], [ 49.0865479, -16.7271218 ], [ 49.0897059, -16.7224186 ], [ 49.0940649, -16.7169143 ], [ 49.100949, -16.7116287 ], [ 49.1062251, -16.7095486 ], [ 49.1107139, -16.7071434 ], [ 49.115854600000013, -16.7016286 ], [ 49.1185969, -16.6987431 ], [ 49.1202077, -16.6978133 ], [ 49.1224487, -16.7005367 ], [ 49.1235086, -16.7016962 ], [ 49.1251571, -16.7014232 ], [ 49.129928199999988, -16.6944042 ], [ 49.1338947, -16.6920138 ], [ 49.1390996, -16.6911073 ], [ 49.1393201, -16.6882548 ], [ 49.1389672, -16.6869822 ], [ 49.138589, -16.68575 ], [ 49.1313918, -16.6748734 ], [ 49.1256688, -16.6698357 ], [ 49.1215039, -16.6642746 ], [ 49.1206608, -16.6600095 ], [ 49.1213659, -16.6544534 ], [ 49.1222445, -16.6489102 ], [ 49.1224487, -16.6448845 ], [ 49.1214386, -16.642398 ], [ 49.1207817, -16.6423179 ], [ 49.1203169, -16.6423315 ], [ 49.118626, -16.6396961 ], [ 49.1168785, -16.6408882 ], [ 49.110929800000015, -16.6412844 ], [ 49.1104621, -16.6393771 ], [ 49.1084372, -16.6388719 ], [ 49.1066852, -16.6397451 ], [ 49.1056752, -16.6384826 ], [ 49.1033616, -16.6386189 ], [ 49.1000662, -16.639512 ], [ 49.0988239, -16.637402 ], [ 49.0977111, -16.6366723 ], [ 49.096807, -16.6350895 ], [ 49.0970009, -16.6331736 ], [ 49.0958852, -16.6322313 ], [ 49.095745399999984, -16.6301071 ], [ 49.0943827, -16.6272546 ], [ 49.0935439, -16.6272419 ], [ 49.0905406, -16.6284735 ], [ 49.088884, -16.6282823 ], [ 49.0842555, -16.6284482 ], [ 49.0834986, -16.6295209 ], [ 49.0782144, -16.6301203 ], [ 49.0775662, -16.6310854 ], [ 49.072286399999989, -16.6320035 ], [ 49.0697508, -16.632036 ], [ 49.0672284, -16.633025 ], [ 49.0658997, -16.6326167 ], [ 49.0644753, -16.6332728 ], [ 49.0539095, -16.6346831 ], [ 49.0512753, -16.635567 ], [ 49.0483059, -16.6361363 ], [ 49.0456368, -16.6344693 ], [ 49.0436336, -16.6331128 ], [ 49.040565, -16.6326443 ], [ 49.0399618, -16.6337794 ], [ 49.0391235, -16.6339731 ], [ 49.0382168, -16.6347642 ], [ 49.0375937, -16.6350511 ], [ 49.0362093, -16.6360915 ], [ 49.0352023, -16.6365227 ], [ 49.033618, -16.6370542 ], [ 49.0330876, -16.6370609 ], [ 49.0319779, -16.6370284 ], [ 49.0316416, -16.6371256 ], [ 49.0307762, -16.6373225 ], [ 49.0302007, -16.6375623 ], [ 49.0292864, -16.6377133 ], [ 49.0285168, -16.6378625 ], [ 49.0281849, -16.6382851 ], [ 49.0281005, -16.6391696 ], [ 49.0275745, -16.6395017 ], [ 49.0269952, -16.6394625 ], [ 49.0252053, -16.6390666 ], [ 49.0236185, -16.639412 ], [ 49.0226534, -16.6393777 ], [ 49.0216402, -16.6393439 ], [ 49.0204384, -16.639638 ], [ 49.0199168, -16.6402955 ], [ 49.0194018, -16.6414458 ], [ 49.0180241, -16.6429974 ], [ 49.0172377, -16.6454716 ], [ 49.017048499999987, -16.6457529 ], [ 49.0161436, -16.6466012 ], [ 49.015327, -16.6468439 ], [ 49.014459, -16.6468548 ], [ 49.0138264, -16.6464443 ], [ 49.0131526, -16.6465457 ], [ 49.0112661, -16.6475737 ], [ 49.0101219, -16.6485644 ], [ 49.0100449, -16.6500068 ], [ 49.0096717, -16.6509414 ], [ 49.0087128, -16.6513718 ], [ 49.0082844, -16.6517956 ], [ 49.0074189, -16.6519925 ], [ 49.0067966, -16.651872 ], [ 49.00612, -16.6522412 ], [ 49.0060342, -16.6530327 ], [ 49.0062903, -16.6541454 ], [ 49.0061043, -16.6546592 ], [ 49.0046507, -16.6553335 ], [ 49.0040667, -16.6572511 ], [ 49.0027088, -16.6582968 ], [ 48.9998484, -16.6609776 ], [ 48.9992782, -16.6639237 ], [ 48.9988525, -16.6662802 ], [ 48.9974323, -16.6693429 ], [ 48.997839, -16.6717707 ], [ 49.0004125, -16.670416 ], [ 49.0014815, -16.6705496 ], [ 49.0039658, -16.6738983 ], [ 49.0055237, -16.676377 ], [ 49.0075291, -16.6781152 ], [ 49.0083171, -16.6800157 ], [ 49.0078875, -16.6820783 ], [ 49.0086596, -16.6828034 ], [ 49.012035, -16.6843775 ], [ 49.013108, -16.6848048 ], [ 49.0140405, -16.6861157 ], [ 49.0151116, -16.6863961 ], [ 49.0153966, -16.684923 ], [ 49.015044, -16.6814007 ], [ 49.0157803, -16.6794812 ], [ 49.0174392, -16.6781378 ], [ 49.020173, -16.6773687 ], [ 49.0223031, -16.6770479 ], [ 49.0227225, -16.6742507 ], [ 49.0236132, -16.6724761 ], [ 49.0246762, -16.6721688 ], [ 49.02606, -16.673033 ], [ 49.0276002, -16.6741892 ], [ 49.0281003, -16.6745319 ], [ 49.0290029, -16.6736388 ], [ 49.0305914, -16.672737 ], [ 49.031503, -16.6725051 ], [ 49.0334614, -16.6735824 ], [ 49.0348378, -16.6738957 ], [ 49.0370309, -16.6754108 ], [ 49.0426898, -16.679527 ], [ 49.0454667, -16.6819164 ], [ 49.0472944, -16.6817829 ], [ 49.0486527, -16.6807738 ], [ 49.0509422, -16.6809651 ], [ 49.0518552, -16.6808432 ], [ 49.05371310000001, -16.6829135 ], [ 49.0550775, -16.6823451 ], [ 49.057978, -16.6853939 ], [ 49.0571959, -16.6867264 ], [ 49.0545785, -16.6876415 ], [ 49.0534503, -16.6887579 ], [ 49.052194199999988, -16.6888841 ], [ 49.0502597, -16.68957 ], [ 49.0500537, -16.6912258 ], [ 49.0493858, -16.6925568 ], [ 49.048358400000012, -16.6926801 ], [ 49.0458431, -16.6927121 ], [ 49.0452775, -16.6931601 ], [ 49.046111, -16.6955741 ], [ 49.0457876, -16.6970109 ], [ 49.0440816, -16.6976939 ], [ 49.0429654, -16.6996918 ], [ 49.041264, -16.7007053 ], [ 49.0408437, -16.7013305 ], [ 49.0406925, -16.7028203 ], [ 49.0419207, -16.7048298 ], [ 49.0424511, -16.7059802 ], [ 49.043848, -16.7077809 ], [ 49.0445555, -16.7093424 ], [ 49.0454199, -16.7098273 ], [ 49.0465539, -16.7112181 ], [ 49.0473473, -16.7127784 ], [ 49.0491765, -16.7148215 ], [ 49.0489532, -16.7173041 ], [ 49.0483994, -16.7207 ], [ 49.0483049, -16.7231917 ], [ 49.0482885, -16.7255167 ], [ 49.0496794, -16.7264696 ], [ 49.050123, -16.7275385 ], [ 49.0500542, -16.7287792 ], [ 49.0497316, -16.7302711 ], [ 49.0489642, -16.7306115 ], [ 49.0483867, -16.7326755 ], [ 49.0486401, -16.7335556 ], [ 49.0491334, -16.7343397 ], [ 49.0502783, -16.7347901 ], [ 49.0515479, -16.7358897 ], [ 49.0516559, -16.7367252 ], [ 49.0512307, -16.7373816 ], [ 49.0507578, -16.738085 ], [ 49.0506696, -16.7386905 ], [ 49.0511597, -16.7392422 ], [ 49.0519843, -16.7395572 ], [ 49.0525767, -16.740526 ], [ 49.0533488, -16.7419342 ], [ 49.0547889, -16.7448914 ], [ 49.0548636, -16.7465075 ], [ 49.0552713, -16.7477315 ], [ 49.0558288, -16.7487966 ], [ 49.0564902, -16.7495204 ], [ 49.0571524, -16.7502965 ], [ 49.0580197, -16.7509916 ], [ 49.0588925, -16.7512942 ], [ 49.0595992, -16.7513636 ], [ 49.0603348, -16.7515634 ], [ 49.0603966, -16.7521118 ], [ 49.0600185, -16.7522475 ], [ 49.0595897, -16.7526452 ], [ 49.0590034, -16.7534373 ], [ 49.0588797, -16.7545225 ], [ 49.0591384, -16.7553499 ], [ 49.0591821, -16.7565524 ], [ 49.0591723, -16.7578078 ], [ 49.0588874, -16.7588053 ], [ 49.059094399999985, -16.7600318 ], [ 49.0590976, -16.7602671 ], [ 49.058975, -16.7611138 ], [ 49.0584075, -16.7614005 ], [ 49.0576833, -16.7612503 ], [ 49.0568149, -16.7612614 ], [ 49.055515, -16.7614872 ], [ 49.05511, -16.7616493 ], [ 49.0541116, -16.7620805 ], [ 49.054037, -16.7625784 ], [ 49.0533522, -16.764104 ], [ 49.0531799, -16.7653876 ], [ 49.0530293, -16.7662787 ], [ 49.0526937, -16.7675384 ], [ 49.0523014, -16.7686208 ], [ 49.0515498, -16.769232 ], [ 49.0502398, -16.769911 ], [ 49.0493503, -16.7711666 ], [ 49.0487583, -16.7715402 ], [ 49.0482651, -16.7714073 ], [ 49.0475871, -16.7709648 ], [ 49.046813, -16.7709354 ], [ 49.0463218, -16.7712503 ], [ 49.0461573, -16.7713557 ] ] ] ] } }
]
}
