{
"type": "FeatureCollection",
"name": "MDG-555697919-NODATE-secondary_zoning-001",
"crs": { "type": "name", "properties": { "name": "urn:ogc:def:crs:OGC:1.3:CRS84" } },
"features": [
{ "type": "Feature", "properties": { }, "geometry": { "type": "MultiPolygon", "coordinates": [ [ [ [ 48.2360635, -13.4859925 ], [ 48.236176, -13.4859844 ], [ 48.2362922, -13.4859834 ], [ 48.2365536, -13.4859634 ], [ 48.2367911, -13.4857089 ], [ 48.2369118, -13.4853986 ], [ 48.2367542, -13.4852506 ], [ 48.236829699999987, -13.4851575 ], [ 48.2368766, -13.4851251 ], [ 48.2369959, -13.4850637 ], [ 48.2371043, -13.4849916 ], [ 48.2363454, -13.4842338 ], [ 48.2363642, -13.4846994 ], [ 48.2362049, -13.4851594 ], [ 48.2359561, -13.4853642 ], [ 48.2360591, -13.4855126 ], [ 48.2355722, -13.4859043 ], [ 48.2358749, -13.4860297 ], [ 48.2360635, -13.4859925 ] ] ], [ [ [ 48.2368939, -13.4836524 ], [ 48.2372685, -13.4834964 ], [ 48.2371753, -13.483393 ], [ 48.2373235, -13.4833015 ], [ 48.237401, -13.4832383 ], [ 48.2370228, -13.4829986 ], [ 48.2368507, -13.4828056 ], [ 48.2367254, -13.482279 ], [ 48.236646, -13.4821339 ], [ 48.2365319, -13.4820654 ], [ 48.2364108, -13.4820179 ], [ 48.2363749, -13.4819626 ], [ 48.2362544, -13.4819776 ], [ 48.2361291, -13.4822425 ], [ 48.2361182, -13.4826106 ], [ 48.2358324, -13.4831755 ], [ 48.2358416, -13.4834046 ], [ 48.2357494, -13.4834123 ], [ 48.2356802, -13.4836073 ], [ 48.2355895, -13.4837747 ], [ 48.2354702, -13.4839216 ], [ 48.2353859, -13.4840126 ], [ 48.2352448, -13.4841041 ], [ 48.2350043, -13.4841825 ], [ 48.2348481, -13.4841769 ], [ 48.2346421, -13.4841509 ], [ 48.2344786, -13.4841107 ], [ 48.2342659, -13.4841264 ], [ 48.2344535, -13.4844789 ], [ 48.2345959, -13.4845263 ], [ 48.2344407, -13.4846318 ], [ 48.2343716, -13.4848337 ], [ 48.2342459, -13.485057 ], [ 48.2343104, -13.4851259 ], [ 48.2343607, -13.4852018 ], [ 48.234552099999988, -13.4851863 ], [ 48.2346937, -13.4851434 ], [ 48.234820499999984, -13.4850451 ], [ 48.2348981, -13.4849958 ], [ 48.2351035, -13.4849593 ], [ 48.2351893, -13.485035 ], [ 48.2356025, -13.4852119 ], [ 48.2358164, -13.4853351 ], [ 48.2359016, -13.4853343 ], [ 48.2359086, -13.4853273 ], [ 48.2361761, -13.4850889 ], [ 48.2362449, -13.4848523 ], [ 48.236306899999988, -13.4846504 ], [ 48.2363029, -13.484206 ], [ 48.2360614, -13.4841803 ], [ 48.2359968, -13.4840976 ], [ 48.2361589, -13.4839712 ], [ 48.2361564, -13.4837004 ], [ 48.236275, -13.4834702 ], [ 48.2368939, -13.4836524 ] ] ], [ [ [ 48.2357026, -13.4816626 ], [ 48.2357269, -13.481818 ], [ 48.2358571, -13.4817908 ], [ 48.2359578, -13.4817694 ], [ 48.236051, -13.4817518 ], [ 48.2361251, -13.4817363 ], [ 48.2361831, -13.4817255 ], [ 48.2362107, -13.4817197 ], [ 48.2362858, -13.4817116 ], [ 48.2362719, -13.481639 ], [ 48.2361677, -13.4814936 ], [ 48.2360006, -13.4814382 ], [ 48.2357789, -13.4814671 ], [ 48.2357098, -13.4816103 ], [ 48.2357026, -13.4816626 ] ] ] ] } }
]
}
