{
"type": "FeatureCollection",
"name": "MDG-555697901-NODATE-secondary_zoning-001",
"crs": { "type": "name", "properties": { "name": "urn:ogc:def:crs:OGC:1.3:CRS84" } },
"features": [
{ "type": "Feature", "properties": { }, "geometry": { "type": "MultiPolygon", "coordinates": [ [ [ [ 47.4871076, -23.5190947 ], [ 47.486785, -23.5192191 ], [ 47.4867256, -23.5191859 ], [ 47.4868872, -23.5195764 ], [ 47.487435, -23.5201718 ], [ 47.4874469, -23.5204694 ], [ 47.4874111, -23.5208267 ], [ 47.4876136, -23.520779 ], [ 47.487685, -23.52091 ], [ 47.4879113, -23.5209458 ], [ 47.4881256, -23.5209458 ], [ 47.4881733, -23.5210767 ], [ 47.4885781, -23.5209458 ], [ 47.4886734, -23.5209934 ], [ 47.4890187, -23.5211839 ], [ 47.4893403, -23.5212554 ], [ 47.4897213, -23.5212196 ], [ 47.4899237, -23.521303 ], [ 47.4901262, -23.5212434 ], [ 47.49015, -23.521434 ], [ 47.4903167, -23.5216007 ], [ 47.4906263, -23.5219936 ], [ 47.4906501, -23.5221722 ], [ 47.4908764, -23.5222794 ], [ 47.4910669, -23.5223747 ], [ 47.491352700000014, -23.5225176 ], [ 47.491888599999989, -23.5228391 ], [ 47.4924721, -23.5230177 ], [ 47.4930556, -23.5231963 ], [ 47.4933414, -23.5237441 ], [ 47.493627099999983, -23.5237202 ], [ 47.4942345, -23.5240656 ], [ 47.4944845, -23.5241489 ], [ 47.4945202, -23.5247443 ], [ 47.4947703, -23.5248515 ], [ 47.4946631, -23.5257207 ], [ 47.4946751, -23.5261375 ], [ 47.4946512, -23.5263518 ], [ 47.4944964, -23.526721 ], [ 47.494163, -23.5270663 ], [ 47.4945345, -23.5280449 ], [ 47.4952746, -23.5287514 ], [ 47.4963184, -23.5288167 ], [ 47.4963184, -23.5289953 ], [ 47.4964611, -23.5290087 ], [ 47.4966994, -23.529031 ], [ 47.496747, -23.5292692 ], [ 47.497020899999988, -23.5294002 ], [ 47.4974258, -23.5294954 ], [ 47.497795, -23.5294954 ], [ 47.4980331, -23.5293764 ], [ 47.4984142, -23.5294954 ], [ 47.4986881, -23.5296741 ], [ 47.498819, -23.5294954 ], [ 47.499092900000015, -23.5289715 ], [ 47.4995335, -23.5287572 ], [ 47.4998908, -23.5283761 ], [ 47.5001051, -23.5277093 ], [ 47.5005219, -23.5272568 ], [ 47.5000099, -23.52684 ], [ 47.5002123, -23.5261018 ], [ 47.5006529, -23.525816 ], [ 47.4997836, -23.5249467 ], [ 47.4978783, -23.5243752 ], [ 47.4977116, -23.5243394 ], [ 47.4971043, -23.524399 ], [ 47.4965089, -23.5239703 ], [ 47.4962826, -23.5236726 ], [ 47.4965684, -23.5234345 ], [ 47.4965089, -23.5233035 ], [ 47.4960802, -23.522982 ], [ 47.4961755, -23.5226009 ], [ 47.496260699999986, -23.5224677 ], [ 47.4961457, -23.522469 ], [ 47.4958769, -23.5224438 ], [ 47.4955844, -23.5224098 ], [ 47.495261, -23.5224995 ], [ 47.4952484, -23.5223805 ], [ 47.4951608, -23.5221987 ], [ 47.4951666, -23.5220391 ], [ 47.4951408, -23.5218214 ], [ 47.4953912, -23.5213137 ], [ 47.4954535, -23.5210919 ], [ 47.4954162, -23.5208606 ], [ 47.49541, -23.5206696 ], [ 47.4954534, -23.5205526 ], [ 47.4955957, -23.5205495 ], [ 47.4957623, -23.5205853 ], [ 47.4960074, -23.5206691 ], [ 47.4960083, -23.5207969 ], [ 47.4960514, -23.5210115 ], [ 47.4960462, -23.5212247 ], [ 47.4961143, -23.5214734 ], [ 47.4962354, -23.5216837 ], [ 47.4963432, -23.5217972 ], [ 47.4964928, -23.521994 ], [ 47.496504099999989, -23.5220874 ], [ 47.4965565, -23.5220055 ], [ 47.4966756, -23.5218388 ], [ 47.4971757, -23.5217555 ], [ 47.4971877, -23.5212435 ], [ 47.4971162, -23.5202432 ], [ 47.4976521, -23.5195764 ], [ 47.4977116, -23.5194692 ], [ 47.4983427, -23.5181713 ], [ 47.4984023, -23.5180879 ], [ 47.4985571, -23.5177783 ], [ 47.4979021, -23.5177188 ], [ 47.4973186, -23.5175878 ], [ 47.4962707, -23.5173735 ], [ 47.4950561, -23.5170758 ], [ 47.4936152, -23.5164209 ], [ 47.4934962, -23.5166352 ], [ 47.4932104, -23.5167305 ], [ 47.4926626, -23.5170877 ], [ 47.4926376, -23.5173042 ], [ 47.4926452, -23.5173173 ], [ 47.4927565, -23.5173861 ], [ 47.4927906, -23.5174933 ], [ 47.4927467, -23.5176011 ], [ 47.492686, -23.5177664 ], [ 47.4926649, -23.5178695 ], [ 47.4925907, -23.517976 ], [ 47.4925278, -23.5180945 ], [ 47.4925575, -23.5181387 ], [ 47.4926031, -23.5181713 ], [ 47.4926265, -23.5182415 ], [ 47.492677400000012, -23.5183175 ], [ 47.4928101, -23.5184198 ], [ 47.4928132, -23.5185875 ], [ 47.4927408, -23.5186624 ], [ 47.4926638, -23.5186879 ], [ 47.49259, -23.5188128 ], [ 47.4925962, -23.5189519 ], [ 47.4925799, -23.5190327 ], [ 47.492532, -23.5191352 ], [ 47.4924584, -23.5191947 ], [ 47.492362, -23.5191415 ], [ 47.4922578, -23.5190887 ], [ 47.49214, -23.5191229 ], [ 47.4920639, -23.519224 ], [ 47.4919804, -23.5192711 ], [ 47.4919069, -23.5191979 ], [ 47.4917904, -23.5192596 ], [ 47.4916774, -23.5193066 ], [ 47.4915577, -23.5192844 ], [ 47.4914992, -23.5192416 ], [ 47.4913499, -23.5191493 ], [ 47.4912149, -23.5190813 ], [ 47.491139, -23.5189626 ], [ 47.4910294, -23.5188584 ], [ 47.4909646, -23.5186777 ], [ 47.49092550000001, -23.5185546 ], [ 47.491079299999988, -23.5185033 ], [ 47.4912248, -23.5184753 ], [ 47.4913419, -23.5184543 ], [ 47.4914714, -23.5184228 ], [ 47.4915171, -23.5183944 ], [ 47.4915432, -23.5183499 ], [ 47.4915776, -23.5183275 ], [ 47.4916019, -23.5182867 ], [ 47.4916303, -23.518197 ], [ 47.4916889, -23.5181299 ], [ 47.491722, -23.5180539 ], [ 47.4918464, -23.5179946 ], [ 47.4919155, -23.5179327 ], [ 47.491971, -23.51782 ], [ 47.4919749, -23.5177184 ], [ 47.4919488, -23.5175931 ], [ 47.491921, -23.5174611 ], [ 47.4919474, -23.5173225 ], [ 47.4919953, -23.5172496 ], [ 47.4917695, -23.517171 ], [ 47.4917695, -23.5168376 ], [ 47.4916742, -23.5165518 ], [ 47.4916535, -23.5164571 ], [ 47.4916585, -23.5163722 ], [ 47.4916193, -23.5163005 ], [ 47.491605, -23.5162353 ], [ 47.4915365, -23.5161937 ], [ 47.4914639, -23.5161159 ], [ 47.49143, -23.5160344 ], [ 47.4914261, -23.515949 ], [ 47.491383700000014, -23.5158713 ], [ 47.4913802, -23.51587 ], [ 47.4913155, -23.515855 ], [ 47.4912718, -23.5158585 ], [ 47.491243, -23.5158302 ], [ 47.4912351, -23.5158286 ], [ 47.4911714, -23.5158209 ], [ 47.4911165, -23.5157664 ], [ 47.4910997, -23.5157157 ], [ 47.491073299999982, -23.5156641 ], [ 47.4910585, -23.5156496 ], [ 47.4910254, -23.5155928 ], [ 47.4910116, -23.515521 ], [ 47.491003, -23.5154883 ], [ 47.4909897, -23.515454 ], [ 47.4909685, -23.5153878 ], [ 47.490968599999988, -23.515287 ], [ 47.4909681, -23.5152814 ], [ 47.4909644, -23.5152632 ], [ 47.4909387, -23.5151963 ], [ 47.4908876, -23.5151268 ], [ 47.490828, -23.5150693 ], [ 47.4907898, -23.5150071 ], [ 47.4908043, -23.5149866 ], [ 47.4907998, -23.5149619 ], [ 47.4907182, -23.5149248 ], [ 47.4906126, -23.5148831 ], [ 47.4905402, -23.5148609 ], [ 47.490442, -23.5148118 ], [ 47.490315, -23.5147931 ], [ 47.4901565, -23.5147649 ], [ 47.4899464, -23.5147578 ], [ 47.4898978, -23.5148083 ], [ 47.4898578, -23.5148651 ], [ 47.4897987, -23.5149542 ], [ 47.4897321, -23.5151038 ], [ 47.4896892, -23.5151901 ], [ 47.4897924, -23.5152301 ], [ 47.4890187, -23.5156707 ], [ 47.4883043, -23.5157302 ], [ 47.4870777, -23.5155754 ], [ 47.4866252, -23.5156945 ], [ 47.486600400000015, -23.5157594 ], [ 47.4865701, -23.5158771 ], [ 47.486518900000014, -23.5159725 ], [ 47.4863156, -23.5165042 ], [ 47.4862825, -23.5166464 ], [ 47.4862797, -23.5168348 ], [ 47.4864988, -23.5172134 ], [ 47.4867078, -23.517457 ], [ 47.4869401, -23.5176994 ], [ 47.4872375, -23.5178327 ], [ 47.4876285, -23.5179448 ], [ 47.48769930000001, -23.5183337 ], [ 47.487697, -23.5187585 ], [ 47.4873916, -23.5187372 ], [ 47.4871076, -23.5190947 ] ] ], [ [ [ 47.501057, -23.4424521 ], [ 47.5009431, -23.4424248 ], [ 47.5008294, -23.44241 ], [ 47.5008213, -23.4424026 ], [ 47.5008321, -23.442415 ], [ 47.5009512, -23.4424273 ], [ 47.5010603, -23.4424558 ], [ 47.501057, -23.4424521 ] ] ], [ [ [ 47.5006828, -23.4423278 ], [ 47.5007051, -23.4423556 ], [ 47.500747, -23.4423605 ], [ 47.5007024, -23.4423457 ], [ 47.5006828, -23.4423278 ] ] ], [ [ [ 47.5003586, -23.4421545 ], [ 47.5003099, -23.4421545 ], [ 47.5003745, -23.4421572 ], [ 47.5003586, -23.4421545 ] ] ], [ [ [ 47.5003931, -23.4426199 ], [ 47.5004198, -23.4425706 ], [ 47.5004276, -23.442504 ], [ 47.5004004, -23.4424546 ], [ 47.5003029, -23.4424274 ], [ 47.5002244, -23.4423977 ], [ 47.5001267, -23.442306 ], [ 47.5000992, -23.4422315 ], [ 47.5001855, -23.4421719 ], [ 47.5002503, -23.442152 ], [ 47.5002097, -23.4421395 ], [ 47.5001607, -23.4421046 ], [ 47.5000706, -23.4420496 ], [ 47.5001589, -23.4419516 ], [ 47.5002782, -23.4419239 ], [ 47.5004087, -23.4419265 ], [ 47.500512, -23.4419315 ], [ 47.5006234, -23.4419088 ], [ 47.5006097, -23.4418861 ], [ 47.5006096, -23.4418381 ], [ 47.5006858, -23.4417977 ], [ 47.5007458, -23.4417723 ], [ 47.5008113, -23.4417064 ], [ 47.5008688, -23.4416657 ], [ 47.5009862, -23.4416758 ], [ 47.5010627, -23.4417009 ], [ 47.5011586, -23.4417405 ], [ 47.5012242, -23.4418181 ], [ 47.5012513, -23.4418935 ], [ 47.5011905, -23.4419894 ], [ 47.5011463, -23.4420574 ], [ 47.501286, -23.4420793 ], [ 47.501349, -23.4421067 ], [ 47.5013924, -23.4421794 ], [ 47.501441, -23.4422595 ], [ 47.5014705, -23.4423296 ], [ 47.5024091, -23.4423257 ], [ 47.5024757, -23.4421384 ], [ 47.5027448, -23.4420001 ], [ 47.50265, -23.4416154 ], [ 47.5028383, -23.4414264 ], [ 47.5038302, -23.4422092 ], [ 47.5039332, -23.4422905 ], [ 47.5041879, -23.4425508 ], [ 47.5042848, -23.4426497 ], [ 47.5044871, -23.442874 ], [ 47.5044991, -23.4431986 ], [ 47.504498, -23.4434602 ], [ 47.5044036, -23.4436454 ], [ 47.5046049, -23.4437823 ], [ 47.5046308, -23.4440177 ], [ 47.5044295, -23.4441157 ], [ 47.5042151, -23.4439291 ], [ 47.5039994, -23.4439535 ], [ 47.5039051, -23.4442128 ], [ 47.503608199999988, -23.4445093 ], [ 47.5034462, -23.4447813 ], [ 47.5034597, -23.4453623 ], [ 47.5035675, -23.4460034 ], [ 47.5034998, -23.446213 ], [ 47.5034597, -23.4464853 ], [ 47.5034994, -23.4467677 ], [ 47.5036077, -23.4471711 ], [ 47.5034732, -23.4474416 ], [ 47.5030429, -23.4474185 ], [ 47.5032713, -23.4470015 ], [ 47.5030822, -23.4464983 ], [ 47.5027042, -23.4464992 ], [ 47.5007639, -23.446736 ], [ 47.5007415, -23.4468226 ], [ 47.5006394, -23.4469093 ], [ 47.5006018, -23.4470153 ], [ 47.5005075, -23.4471161 ], [ 47.5003827, -23.4472078 ], [ 47.5002646, -23.4472477 ], [ 47.5001656, -23.4473103 ], [ 47.5001073, -23.4473797 ], [ 47.500064, -23.447467 ], [ 47.499963, -23.4475385 ], [ 47.4998212, -23.447584 ], [ 47.4997057, -23.4476032 ], [ 47.4996119, -23.4475892 ], [ 47.4995732, -23.4476696 ], [ 47.4994752, -23.4476811 ], [ 47.4993589, -23.4476638 ], [ 47.4992223, -23.4477042 ], [ 47.4991809, -23.4477277 ], [ 47.4999454, -23.4483475 ], [ 47.5008927, -23.4486231 ], [ 47.5009025, -23.4486098 ], [ 47.5009636, -23.4485162 ], [ 47.5010423, -23.4484382 ], [ 47.5012984, -23.4483294 ], [ 47.5015383, -23.4483958 ], [ 47.501685099999989, -23.4485303 ], [ 47.5018013, -23.4486926 ], [ 47.501951, -23.4488261 ], [ 47.5020209, -23.4489486 ], [ 47.5020208, -23.4489513 ], [ 47.5023212, -23.4490387 ], [ 47.502796400000015, -23.4497298 ], [ 47.5037035, -23.4502913 ], [ 47.504697100000016, -23.4503345 ], [ 47.5054746, -23.4500754 ], [ 47.5061961, -23.4498558 ], [ 47.5061241, -23.449586 ], [ 47.5062397, -23.4495642 ], [ 47.5065068, -23.4496599 ], [ 47.5070729, -23.448002 ], [ 47.5070729, -23.4467925 ], [ 47.5061226, -23.4456262 ], [ 47.5060362, -23.4442008 ], [ 47.506857, -23.4432073 ], [ 47.5071973, -23.4431213 ], [ 47.5071957, -23.4430283 ], [ 47.5072468, -23.4430094 ], [ 47.507405200000015, -23.4430688 ], [ 47.5111335, -23.4421274 ], [ 47.5130342, -23.4403563 ], [ 47.5130774, -23.4379806 ], [ 47.5111767, -23.4366847 ], [ 47.5098616, -23.4365421 ], [ 47.509943, -23.4366027 ], [ 47.5100911, -23.436692 ], [ 47.5102459, -23.4368089 ], [ 47.5104813, -23.4369801 ], [ 47.5107758, -23.4370352 ], [ 47.5107727, -23.4372193 ], [ 47.5106445, -23.4374363 ], [ 47.5106348, -23.4376186 ], [ 47.5104131, -23.4377802 ], [ 47.510156599999988, -23.4378071 ], [ 47.5100913, -23.4377263 ], [ 47.5100187, -23.4376251 ], [ 47.5097835, -23.437625 ], [ 47.509547799999986, -23.4375235 ], [ 47.5093781, -23.4373944 ], [ 47.5091411, -23.4372037 ], [ 47.5089032, -23.4371348 ], [ 47.5086796, -23.437059 ], [ 47.5084482, -23.4369969 ], [ 47.5083048, -23.4369273 ], [ 47.5082713, -23.4366984 ], [ 47.5083449, -23.4365806 ], [ 47.5083731, -23.4364275 ], [ 47.5084014, -23.4363838 ], [ 47.5075913, -23.4362959 ], [ 47.5044652, -23.4358791 ], [ 47.5042185, -23.4359451 ], [ 47.503828600000013, -23.436005 ], [ 47.5033543, -23.4360272 ], [ 47.5029066, -23.4359289 ], [ 47.5025109, -23.4355877 ], [ 47.5024033, -23.4352122 ], [ 47.5024211, -23.4351958 ], [ 47.5021366, -23.4350973 ], [ 47.5021438, -23.4350636 ], [ 47.5022588, -23.4346292 ], [ 47.5022454, -23.4343982 ], [ 47.502198, -23.4341152 ], [ 47.5021937, -23.4340906 ], [ 47.5021326, -23.433982 ], [ 47.5020923, -23.4338221 ], [ 47.5019788, -23.4338166 ], [ 47.501806699999989, -23.4338802 ], [ 47.5016, -23.4340602 ], [ 47.5015609, -23.4342192 ], [ 47.5014701, -23.4344973 ], [ 47.5012899, -23.4345768 ], [ 47.5010673, -23.434648 ], [ 47.5007981, -23.4347326 ], [ 47.5006159, -23.4348795 ], [ 47.5006234, -23.434887 ], [ 47.499859, -23.4347841 ], [ 47.4981743, -23.4330995 ], [ 47.4978398, -23.4321701 ], [ 47.4978021, -23.4321959 ], [ 47.4974125, -23.431889 ], [ 47.4972433, -23.4318298 ], [ 47.4973495, -23.431905 ], [ 47.4975403, -23.4320819 ], [ 47.4977044, -23.4321943 ], [ 47.49785, -23.4323293 ], [ 47.4979265, -23.4325497 ], [ 47.4979151, -23.4327367 ], [ 47.4978563, -23.4329192 ], [ 47.49778, -23.4331706 ], [ 47.4977757, -23.433438 ], [ 47.4977716, -23.43368 ], [ 47.4977599, -23.4338965 ], [ 47.4977804, -23.4340816 ], [ 47.4978013, -23.4342427 ], [ 47.4976984, -23.4343504 ], [ 47.4976184, -23.4345088 ], [ 47.497622899999989, -23.4347031 ], [ 47.4975662, -23.4348525 ], [ 47.4975249, -23.4350567 ], [ 47.497591, -23.4352858 ], [ 47.4976871, -23.4354565 ], [ 47.4977309, -23.4355584 ], [ 47.4976359, -23.4356839 ], [ 47.4974854, -23.4359193 ], [ 47.4974966, -23.4360861 ], [ 47.4976176, -23.4363287 ], [ 47.4975302, -23.4365261 ], [ 47.4974313, -23.4367 ], [ 47.4973099, -23.4365486 ], [ 47.4972373, -23.4362309 ], [ 47.4972136, -23.4357407 ], [ 47.4971266, -23.4353093 ], [ 47.4970887, -23.4350096 ], [ 47.4971521, -23.4348928 ], [ 47.4971013, -23.4347526 ], [ 47.4969362, -23.434742 ], [ 47.4968341, -23.4346253 ], [ 47.4967443, -23.434473 ], [ 47.4967614, -23.4336798 ], [ 47.4965542, -23.4336887 ], [ 47.4965146, -23.4335386 ], [ 47.4965119, -23.4333405 ], [ 47.4965736, -23.4329979 ], [ 47.4966779, -23.432908 ], [ 47.4968698, -23.4327364 ], [ 47.4969271, -23.432504 ], [ 47.4968371, -23.4322304 ], [ 47.4968648, -23.4319797 ], [ 47.496963600000015, -23.4318319 ], [ 47.4970346, -23.4317877 ], [ 47.4969749, -23.4317886 ], [ 47.496581, -23.4320688 ], [ 47.4961135, -23.4322059 ], [ 47.4961096, -23.4322044 ], [ 47.4958417, -23.4323651 ], [ 47.4952369, -23.4323651 ], [ 47.49486, -23.4322966 ], [ 47.4947711, -23.4323763 ], [ 47.4947907, -23.4328336 ], [ 47.4948849, -23.4332991 ], [ 47.4948079, -23.433725 ], [ 47.494479, -23.4337914 ], [ 47.4941387, -23.4336621 ], [ 47.4938211, -23.4334299 ], [ 47.493472, -23.4336629 ], [ 47.493107, -23.433665 ], [ 47.4928543, -23.4333427 ], [ 47.4929556, -23.433133 ], [ 47.4923859, -23.4340066 ], [ 47.4923859, -23.4355616 ], [ 47.4927315, -23.4375486 ], [ 47.4934658, -23.4397084 ], [ 47.493862, -23.4402953 ], [ 47.4939695, -23.4402657 ], [ 47.494093, -23.440229 ], [ 47.494101400000012, -23.440151 ], [ 47.4940889, -23.4400644 ], [ 47.4941646, -23.4399989 ], [ 47.4942369, -23.4400267 ], [ 47.4943077, -23.4400886 ], [ 47.494395, -23.4401377 ], [ 47.4944713, -23.4401501 ], [ 47.4945624, -23.4401299 ], [ 47.4946411, -23.4401386 ], [ 47.494708899999985, -23.440212 ], [ 47.494746, -23.4402547 ], [ 47.4947077, -23.4403293 ], [ 47.49465, -23.4403785 ], [ 47.4945525, -23.4403558 ], [ 47.4944665, -23.440341 ], [ 47.4944392, -23.440379 ], [ 47.4943971, -23.4404457 ], [ 47.4942845, -23.4405039 ], [ 47.494182, -23.4405182 ], [ 47.4940822, -23.4405041 ], [ 47.4940056, -23.4405081 ], [ 47.4946321, -23.4414362 ], [ 47.496144, -23.4432504 ], [ 47.4976559, -23.4440712 ], [ 47.4980879, -23.4454534 ], [ 47.4983471, -23.4470517 ], [ 47.4990686, -23.4475638 ], [ 47.4990143, -23.4474757 ], [ 47.4989241, -23.4474243 ], [ 47.4987656, -23.4473094 ], [ 47.4987645, -23.4472301 ], [ 47.498931, -23.4471587 ], [ 47.4989386, -23.447023 ], [ 47.4990806, -23.4469338 ], [ 47.49924080000001, -23.4468627 ], [ 47.4992958, -23.4467885 ], [ 47.4993361, -23.4466526 ], [ 47.499471799999988, -23.4466022 ], [ 47.4995263, -23.4466167 ], [ 47.4996018, -23.4466273 ], [ 47.4996845, -23.4466629 ], [ 47.499749199999989, -23.446636200000011 ], [ 47.4998116, -23.4465798 ], [ 47.4998467, -23.4464895 ], [ 47.4999548, -23.4464701 ], [ 47.500147, -23.4464645 ], [ 47.5003221, -23.4464633 ], [ 47.5027982, -23.4462034 ], [ 47.5028251, -23.4458573 ], [ 47.5028389, -23.4455603 ], [ 47.5028661, -23.4452387 ], [ 47.5028396, -23.4450162 ], [ 47.5007326, -23.4452461 ], [ 47.5007475, -23.4453965 ], [ 47.5007006, -23.4454308 ], [ 47.500617599999984, -23.4454439 ], [ 47.5005624, -23.4454605 ], [ 47.5005021, -23.4455237 ], [ 47.5004644, -23.4455914 ], [ 47.5004137, -23.4456293 ], [ 47.5003543, -23.4456457 ], [ 47.500267699999988, -23.4456577 ], [ 47.5001673, -23.4456696 ], [ 47.5000851, -23.4456731 ], [ 47.5000211, -23.4456385 ], [ 47.4999707, -23.4456167 ], [ 47.4999337, -23.4455563 ], [ 47.4999428, -23.4455008 ], [ 47.4999195, -23.4454576 ], [ 47.4998869, -23.445389 ], [ 47.4998404, -23.4453292 ], [ 47.4997434, -23.4453308 ], [ 47.4996471, -23.4453582 ], [ 47.4996041, -23.4453049 ], [ 47.4995393, -23.44523 ], [ 47.4994779, -23.4451482 ], [ 47.4994944, -23.4450469 ], [ 47.4995446, -23.4449974 ], [ 47.4996514, -23.4449907 ], [ 47.4997395, -23.44494 ], [ 47.4998423, -23.4449021 ], [ 47.4999787, -23.4448615 ], [ 47.500087, -23.4448414 ], [ 47.500106, -23.4447786 ], [ 47.5001252, -23.4447109 ], [ 47.5001255, -23.4446243 ], [ 47.500168, -23.4446435 ], [ 47.5004055, -23.444535 ], [ 47.5004853, -23.4445601 ], [ 47.5005596, -23.4446124 ], [ 47.5005297, -23.4447026 ], [ 47.5005278, -23.4447983 ], [ 47.5005272, -23.4448289 ], [ 47.5005627, -23.4449232 ], [ 47.5006405, -23.4449897 ], [ 47.5007466, -23.4450417 ], [ 47.5007866, -23.4451201 ], [ 47.5026521, -23.4448313 ], [ 47.5025584, -23.4446095 ], [ 47.5025587, -23.4443755 ], [ 47.5023851, -23.4442162 ], [ 47.5023456, -23.4440076 ], [ 47.5027331, -23.4434626 ], [ 47.502773200000014, -23.4432894 ], [ 47.5025987, -23.4430192 ], [ 47.502719299999988, -23.4428452 ], [ 47.5027324, -23.4425601 ], [ 47.5014805, -23.4424121 ], [ 47.5014333, -23.4424669 ], [ 47.5013785, -23.4424719 ], [ 47.5013319, -23.4424943 ], [ 47.5013063, -23.442606 ], [ 47.5011693, -23.4425655 ], [ 47.5011593, -23.4426082 ], [ 47.5010781, -23.4425785 ], [ 47.5010021, -23.4425858 ], [ 47.5010019, -23.4426401 ], [ 47.5011263, -23.4426773 ], [ 47.501112500000012, -23.4427192 ], [ 47.5010502, -23.4427363 ], [ 47.500988, -23.4427263 ], [ 47.5008883, -23.4426842 ], [ 47.5008236, -23.4426767 ], [ 47.50075360000001, -23.4426986 ], [ 47.5006088, -23.442806 ], [ 47.500523, -23.4428233 ], [ 47.5003213, -23.4427771 ], [ 47.5002993, -23.4427133 ], [ 47.5003313, -23.4426494 ], [ 47.5003931, -23.4426199 ] ] ] ] } }
]
}
