{
"type": "FeatureCollection",
"name": "MDG-2311-NODATE-secondary_zoning-001",
"crs": { "type": "name", "properties": { "name": "urn:ogc:def:crs:OGC:1.3:CRS84" } },
"features": [
{ "type": "Feature", "properties": { }, "geometry": { "type": "MultiPolygon", "coordinates": [ [ [ [ 48.3231709, -13.4189685 ], [ 48.3248762, -13.4187565 ], [ 48.3266983, -13.4181039 ], [ 48.328794500000015, -13.4178936 ], [ 48.3306968, -13.4174617 ], [ 48.3306701, -13.41546 ], [ 48.3307667, -13.4140472 ], [ 48.3301914, -13.4126132 ], [ 48.3285178, -13.4108587 ], [ 48.3275261, -13.4086567 ], [ 48.3257706, -13.4071799 ], [ 48.323201399999988, -13.4088392 ], [ 48.3211826, -13.4104332 ], [ 48.3190866, -13.4118553 ], [ 48.3169442, -13.4136173 ], [ 48.3154206, -13.4147792 ], [ 48.3161151, -13.41623 ], [ 48.3171787, -13.4170443 ], [ 48.3181401, -13.4179814 ], [ 48.318975699999989, -13.4189358 ], [ 48.320951, -13.4190888 ], [ 48.3231709, -13.4189685 ] ] ], [ [ [ 48.3140383, -13.3982083 ], [ 48.3129792, -13.3983372 ], [ 48.3124943, -13.3995494 ], [ 48.3117025, -13.4007854 ], [ 48.3112169, -13.4025593 ], [ 48.3109641, -13.4048247 ], [ 48.3121929, -13.4049101 ], [ 48.313701, -13.4050932 ], [ 48.3164123, -13.4050689 ], [ 48.3180691, -13.405054 ], [ 48.319204899999988, -13.404927 ], [ 48.3202276, -13.4049855 ], [ 48.3215833, -13.4049733 ], [ 48.3227371, -13.4048646 ], [ 48.324858899999988, -13.4048243 ], [ 48.3248389, -13.4036201 ], [ 48.3245234, -13.4025873 ], [ 48.3242608, -13.4013608 ], [ 48.3234127, -13.399695 ], [ 48.3211309, -13.3995702 ], [ 48.3191696, -13.3989452 ], [ 48.3175556, -13.3984717 ], [ 48.3153971, -13.3985402 ], [ 48.3140383, -13.3982083 ] ] ] ] } }
]
}
